1997/11/12 12:47
KIML 121247Z 12009KT 8SM BKN007 OVC030 M05/M07 A2995 RMK FIRST
     T10501074 24HR HIGH 2.8 CELSIUS OVERNIGHT LOW -8.9
     CELSIUS

1997/11/12 12:45
KFZY 121245Z AUTO 16005KT 8SM BKN017 BKN024 OVC055 M01/M04 A2987
     RMK AO2 TSNO

1997/11/12 12:45
KABQ 121245Z 35006KT 10SM BKN008 OVC013 04/03 A2982 RMK AO2 CIG
     006V011

1997/11/12 12:45
KRNO 121245Z 30003KT 1 3/4SM -SN BR BKN009 OVC016 01/01 A2980 RMK
     AO2 P0017 $

1997/11/12 12:45
KSGF 121245Z 06007KT 2 1/2SM -SN BR FEW004 OVC024 M01/M01 A3010
     RMK AO2 P0000

1997/11/12 12:46
KLCH 121246Z 05010KT 1 1/2SM +RA BR OVC006 14/13 A2982 RMK AO2 CIG
     004V008 P0025

1997/11/12 12:46
KHUL 121246Z 31009KT 30SM SCT020 SCT080 BKN180 M02/M08 A2977 RMK
     SLP088

1997/11/12 12:47
KGFL 121247Z 00000KT 30SM SKC M05/M05 A2995 RMK SLP151
     T10471055

1997/11/12 12:45
KITR 121245Z AUTO 17009KT 8SM BKN004 OVC009 M03/M04 A2987 RMK AO2
     TSNO

1997/11/12 12:46
KHLC 121246Z AUTO 14006KT 10SM SCT003 SCT010 OVC023 M01/M02 A3003
     RMK AO2 TSNO

1997/11/12 12:48
KJAN 121248Z 09010KT 2SM -RA BR BKN004 BKN024 OVC100 09/09 A2996
     RMK AO2 SFC VIS 4 P0005

1997/11/12 12:47
SOCA 121247Z 07010KT 4000 -SHRA FEW015CB SCT018 27/24 Q1013 BECMG
9999 M2

1997/11/12 12:47
KUCA 121247Z 11008KT 30SM BKN060 M02/M04 A2991 RMK SLP139

1997/11/12 12:48
KCZZ 121248Z AUTO 02003KT 07/06 A2967 RMK AO2 SLP035 T00670056
     PWINO TSNO $

1997/11/12 12:48
KJDN 121248Z AUTO 23009KT M04/M10 A2970 RMK AO2 SLP099 T10391100
     PWINO FZRANO TSNO $

1997/11/12 12:48
PHOG 121248Z 05005KT 15SM FEW020 BKN040 OVC050 23/20 A3006

1997/11/12 12:50
KLFK 121250Z 03008KT 2SM RA BR OVC004 11/11 A2987 RMK SLP115

1997/11/12 12:50
PAFA 121250Z 00000KT 10SM BKN140 M13/M15 A2950 RMK SLP004
     T11341146

1997/11/12 12:50
KNEW 121250Z 08016KT 2SM -RA BR BKN005 OVC011 14/13 A2984 RMK
     SLP104

1997/11/12 12:50
KSLC 121250Z 16004KT 10SM SCT020 BKN030 OVC070 02/01 A2979 RMK
     SLP085 T00220014

1997/11/12 12:48
KP38 121248Z AUTO 02003KT A2977 RMK AO2 SLPNO PWINO FZRANO TSNO
     $

1997/11/12 12:48
CYGL 121248Z 27010KT 8SM -SN SCT008 BKN025 BKN220 RMK SF3SC2CI1

1997/11/12 12:48
CYQX 121248Z 00000KT 1SM -DZ BR BKN002 OVC006 RMK FG4SF2SF2

1997/11/12 12:46
KAPF 121246Z 09006KT 6SM HZ SCT120 19/17 A3004

1997/11/12 12:47
KGPT 121247Z 04010KT 21/2SM RA BR OVC015 12/12 A2991

1997/11/12 12:45
KMWN 121245Z 30031KT 75SM SCT/// SCT060 BKN180 M14/M22 RMK TPS LWR
     SCT055

1997/11/12 12:50
KLAX 121250Z 35006KT 10SM FEW030 BKN120 OVC200 15/11 A2970 RMK AO2
     SLP057 T01500106

1997/11/12 12:50
KMSS 121250Z 00000KT 15SM BKN080 BKN100 M04/M05 A2993 RMK
     SLP136

1997/11/12 12:50
KHRO 121250Z 07008KT 6SM -RA BR OVC003 02/01 A3008 RMK PEE32 PCPN
     VRY LGT SLP195

1997/11/12 12:51
KLCH 121251Z 07010KT 1 3/4SM RA BR OVC006 14/13 A2983 RMK AO2 CIG
     004V008 SLP109 P0026 T01390133

1997/11/12 12:51
KSAN 121251Z 13003KT 10SM BKN075 BKN120 15/11 A2969 RMK AO2 SLP053
     T01500111

1997/11/12 12:50
PAHO 121250Z 12008KT 10SM -RA OVC033 07/03 A2943 RMK RAE30B40
     SLP966 SPIT WIND ///// T00690025

1997/11/12 12:50
KMYL 121250Z AUTO 00000KT 10SM CLR M09/M11 A2979 RMK AO2 SLP123
     T10941111 FZRANO TSNO

1997/11/12 12:50
PHLI 121250Z 07012KT 10SM SCT024 BKN050 24/20 A3009 RMK SLP189
     T02410196

1997/11/12 12:50
KSAD 121250Z AUTO 12005KT 10SM SCT028 10/09 A2972 RMK AO2 SLP043
     T01000089 TSNO

1997/11/12 12:52
KPNC 121252Z 02008KT 4SM -SN BR OVC035 01/00 A3009 RMK SLP195
     T00090000

1997/11/12 12:50
KLFT 121250Z 10013KT 2SM RA BR OVC007 13/13 A2986 RMK SLP112

1997/11/12 12:51
KATS 121251Z AUTO 11004KT 10SM OVC008 06/05 A2989 RMK AO2

1997/11/12 12:45
KBNW 121245Z AUTO 02004KT 10SM CLR M11/M13 A3010 RMK AO1

1997/11/12 12:46
KCAV 121246Z AUTO 09004KT 10SM SCT021 M09/M12 A3011 RMK AO1

1997/11/12 12:47
KCSQ 121247Z AUTO 33004KT 7SM SCT006 BKN027 M05/M07 A3011 RMK
     AO1

1997/11/12 12:46
KEOK 121246Z AUTO 00000KT 10SM CLR M06/M08 A3019 RMK AO1

1997/11/12 12:45
KLRJ 121245Z AUTO 00000KT M1/4SM OVC001 M10/M12 A3011 RMK AO1

1997/11/12 12:46
KORC 121246Z AUTO 17003KT M1/4SM OVC002 M11/M13 A3009 RMK AO1

1997/11/12 12:50
KOXV 121250Z AUTO 00000KT 10SM OVC035 M02/M06 A3011 RMK AO1

1997/11/12 12:49
KSLB 121249Z AUTO 23003KT 1 3/4SM OVC002 M11/M13 A3009 RMK AO1

1997/11/12 12:50
PAKN 121250Z 21005KT 3SM -RA BR SCT002 BKN004 OVC010 02/02 A2938
     RMK RAB30 PCPN VRY LGT SLP950 T00220019 3ST3ST2SC

1997/11/12 12:52
KAFN 121252Z AUTO 00000KT 10SM CLR M04/M06 A2990 RMK AO2 SLP142
     T10391061 FZRANO TSNO $

1997/11/12 12:49
KALM 121249Z AUTO 00000KT 7SM BKN010 OVC028 06/06 A2982 RMK
     AO2

1997/11/12 12:51
KANW 121251Z AUTO 20005KT 10SM CLR M10/M13 A2997 RMK AO1

1997/11/12 12:52
KAUH 121252Z AUTO 00000KT 1/4SM OVC001 M09/M10 A3007 RMK AO1

1997/11/12 12:45
KAXA 121245Z AUTO 00000KT 10SM OVC027 M09/M12 A3011 RMK AO1

1997/11/12 12:52
KBML 121252Z AUTO VRB04KT 10SM CLR M04/M08 A2986 RMK AO2 SLP129
     T10391078 TSNO

1997/11/12 12:52
KCFV 121252Z AUTO 01004KT 1 1/2SM -SN BR OVC016 00/00 A3012 RMK
     AO2 SLP205 P0000 T00000000 TSNO

1997/11/12 12:52
KCQX 121252Z AUTO VRB06KT 10SM FEW120 03/M06 A2995 RMK AO2 SLP144
     T00331056 TSNO PNO

1997/11/12 12:52
KFIT 121252Z AUTO 00000KT 10SM CLR M03/M05 A2994 RMK AO2 SLP142
     T10331050 TSNO

1997/11/12 12:52
KHIE 121252Z AUTO 20003KT 10SM CLR M04/M06 A2989 RMK AO2 SLP136
     T10441061 TSNO

1997/11/12 12:52
KIJD 121252Z AUTO 00000KT 10SM FEW070 BKN110 M02/M03 A2996 RMK AO2
     SLP148 T10171033 TSNO $

1997/11/12 12:48
KMXO 121248Z AUTO 00000KT 10SM OVC033 M08/M11 A3014 RMK AO1

1997/11/12 12:52
KOMA 121252Z 02003KT 1/4SM FZFG VV001 M06/M07 A3016 RMK AO2 SLP224
     T10561067

1997/11/12 12:47
KONL 121247Z AUTO 18005KT 10SM CLR M12/M16 A3002 RMK AO1

1997/11/12 12:52
KORE 121252Z AUTO 02003KT 10SM FEW100 M06/M06 A2993 RMK AO2 SLP144
     T10561061 FZRANO TSNO $

1997/11/12 12:52
KPPF 121252Z AUTO 00000KT 1 1/2SM -SN BR OVC002 01/00 A3013 RMK
     AO2 CIG 001V004 SLP207 P0002 T00060000 TSNO

1997/11/12 12:52
KPYM 121252Z AUTO 00000KT 10SM CLR M01/M03 A2996 RMK AO2 SLP148
     T10111028 TSNO $

1997/11/12 12:47
KSDA 121247Z AUTO 02004KT 5SM OVC006 M03/M07 A3014 RMK AO1

1997/11/12 12:45
KSHL 121245Z AUTO 00000KT 10SM BKN012 M09/M11 A3011 RMK AO1

1997/11/12 12:52
KTAN 121252Z AUTO 00000KT 10SM CLR M01/M03 A2995 RMK AO2 SLP141
     T10061028 TSNO $

1997/11/12 12:45
KBBW 121245Z 00000KT 7SM FEW150 BKN250 M9/M12 A3002 RMK FIRST
     T10941119 HIGH 2.2 LOW -11.1

1997/11/12 12:50
KCLT 121250Z 34007KT 7SM FEW150 OVC250 08/04 A3008 RMK SLP189
     T00770040

1997/11/12 12:51
KU28 121251Z 05003KT 25SM OVC060 04/03 RMK SLP087 NOCPECI
     T00390028

1997/11/12 12:50
PANC 121250Z 22004KT 20SM FEW060 BKN080 OVC100 00/M02 A2952 RMK
     SLP001 T00001017

1997/11/12 12:51
KPWM 121251Z 00000KT 10SM CLR M02/M06 A2992 RMK AO2 SLP133
     T10221056

1997/11/12 12:50
KDAL 121250Z 03005KT 4SM RA BR FEW007 BKN025 OVC049 09/09
     A2997

1997/11/12 12:51
KPIT 121251Z 27011G16KT 9SM SCT021 BKN026 BKN033 M01/M04 A3003 RMK
     AO2 SNE1156 SLP191 P0000 T10111044

1997/11/12 12:51
KRDU 121251Z 00000KT 8SM OVC042 09/06 A3008 RMK AO2 SLP186
     T00890056

1997/11/12 12:51
KBKW 121251Z 26004KT 10SM OVC022 01/M02 A3002 RMK AO2 SLP189
     T00111017

1997/11/12 12:51
KPVD 121251Z 28005KT 10SM SCT085 01/M04 A2997 RMK AO2 SLP149
     T00111039

1997/11/12 12:52
KTLH 121252Z 09010KT 10SM OVC033 13/11 A3002 RMK AO2 RAE18 SLP165
     P0002 T01280111

1997/11/12 12:51
KHTS 121251Z 31005KT 10SM SCT031 BKN080 02/M02 A3012 RMK AO2
     SLP202 T00221022

1997/11/12 12:51
KSMX 121251Z AUTO 00000KT 10SM FEW055 BKN080 OVC110 12/11 A2976
     RMK AO2 RAE39 SLP078 P0002 T01170111 TSNO

1997/11/12 12:52
KROW 121252Z 11004KT 1 1/2SM BR OVC001 04/04 A2989 RMK AO2 SLP108
     T00440044

1997/11/12 12:50
KHOT 121250Z 04006KT 2SM -RABR OVC006 06/06 A3006 RMK
     RAE19DZB19E42RAB42 SLP180

1997/11/12 12:50
KAUG 121250Z 28006KT 15SM FEW070 FEW140 OVC250 M02/M08 A2986 RMK
     SLP117

1997/11/12 12:51
KDAY 121251Z 27009KT 7SM CLR M04/M07 A3013 RMK AO2 SLP214
     T10441072 $

1997/11/12 12:51
KPHL 121251Z 26006KT 10SM SCT120 BKN180 05/01 A3002 RMK AO2 SLP165
     T00500011

1997/11/12 12:51
KABE 121251Z 00000KT 10SM FEW065 BKN095 01/M02 A3000 RMK AO2
     SLP161 T00061022

1997/11/12 12:50
KLIT 121250Z 04005KT 1 1/2SM -RA BR OVC007 06/06 A3008 RMK
     SLP191

1997/11/12 12:51
KEWR 121251Z 22004KT 10SM SCT045 BKN065 OVC095 04/M06 A2999 RMK
     AO2 SLP154 T00391056

1997/11/12 12:51
KHSE 121251Z AUTO 01005KT 10SM CLR 12/06 A3008 RMK AO2 SLP185
     T01220056 TSNO

1997/11/12 12:51
KYNG 121251Z 26009KT 7SM -SN FEW023 BKN031 OVC045 M02/M07 A3002
     RMK AO2 SLP178 BINOVC P0000 T10221067

1997/11/12 12:51
KLGA 121251Z 27004KT 10SM SCT050 OVC060 05/M05 A2998 RMK AO2
     SLP152 T00501050 $

1997/11/12 12:52
KVTN 121252Z 00000KT 10SM CLR M12/M14 A2996 RMK AO2 SLP189
     T11221139

1997/11/12 12:52
PAOR 121252Z 00000KT 5SM OVC006 M16/M18 A2967 RMK SLP102

1997/11/12 12:51
KCAK 121251Z 26011KT 9SM FEW035 SCT200 M04/M08 A3004 RMK AO2
     SLP188 T10391083

1997/11/12 12:51
KILG 121251Z AUTO 24006KT 10SM CLR 05/00 A3002 RMK AO2 SLP165
     T00500000 TSNO

1997/11/12 12:50
KALI 121250Z VRB06KT 8SM SCT005 OVC014 11/10 A2983 RMK CIG
     SCT005VBKN SLP100

1997/11/12 12:51
KJFK 121251Z 00000KT 10SM BKN065 OVC110 06/M03 A3000 RMK AO2
     SLP158 T00561028

1997/11/12 12:51
KORF 121251Z 00000KT 10SM OVC065 09/07 A3006 RMK AO2 SLP177
     T00940072

1997/11/12 12:51
KIAD 121251Z 00000KT 8SM BKN070 OVC120 04/02 A3003 RMK AO2 SLP171
     T00440022 $

1997/11/12 12:51
KTOL 121251Z 24008KT 6SM HZ CLR M04/M07 A3006 RMK AO2 SLP189
     T10441072

1997/11/12 12:53
KILM 121253Z 00000KT 8SM CLR 09/08 A3007 RMK AO2 SLP183
     T00940078

1997/11/12 12:51
KSDB 121251Z AUTO 30007KT 7SM -RA BKN024 BKN040 04/03 A2975 RMK
     AO2 SLP060 P0001 T00390033 TSNO

1997/11/12 12:51
KCON 121251Z 00000KT 10SM CLR M02/M06 A2992 RMK AO2 SLP135
     T10221056

1997/11/12 12:46
KAIO 121246Z AUTO 35004KT 1/4SM OVC002 M06/M08 A3013 RMK AO1

1997/11/12 12:52
KAQW 121252Z AUTO 00000KT 10SM OVC100 M05/M06 A2994 RMK AO2 SLP146
     T10501061 TSNO

1997/11/12 12:45
KAWG 121245Z AUTO 00000KT 10SM CLR M07/M09 A3015 RMK AO1

1997/11/12 12:50
KBIE 121250Z AUTO 03004KT 4SM SCT002 BKN046 M06/M07 A3011 RMK
     AO1

1997/11/12 12:45
KCCY 121245Z AUTO 00000KT 10SM SCT027 M08/M12 A3012 RMK AO1

1997/11/12 12:52
KEST 121252Z AUTO 00000KT 10SM CLR M09/M12 A3011 RMK AO2 SLP217
     T10891117 TSNO

1997/11/12 12:46
KIKV 121246Z AUTO 04005KT 4SM OVC006 M04/M06 A3013 RMK AO1

1997/11/12 12:52
KOGA 121252Z AUTO 14008KT 10SM OVC012 M04/M11 A2992 RMK AO1

1997/11/12 12:52
KOMA 121252Z 02003KT 1/4SM FZFG VV001 M06/M07 A3016 RMK AO2 SLP224
     T10561067

1997/11/12 12:46
KRDK 121246Z AUTO 06003KT 1 1/4SM OVC002 M04/M08 A3010 RMK AO1

1997/11/12 12:47
KTNU 121247Z AUTO 04007KT 10SM SCT007 BKN037 OVC043 M05/M07 A3012
     RMK AO1

1997/11/12 12:51
KDHT 121251Z 15007KT 1 1/2SM -SN FZFG OVC001 M02/M02 A2994 RMK
     SLP152

1997/11/12 12:53
KACK 121253Z AUTO 31006KT 10SM BKN110 04/M04 A2996 RMK AO2 SLP131
     T00391039 TSNO $

1997/11/12 12:45
KADU 121245Z AUTO 00000KT M1/4SM OVC001 M08/M11 A3010 RMK AO1

1997/11/12 12:53
KAMW 121253Z AUTO 36004KT 10SM CLR M08/M09 A3015 RMK AO2 SLP222
     T10831094 FZRANO TSNO

1997/11/12 12:53
KATY 121253Z AUTO 20008KT 10SM CLR M11/M13 A3002 RMK AO2 SLP201
     T11111133 TSNO

1997/11/12 12:53
KAXN 121253Z AUTO 22010KT 10SM CLR M12/M14 A3004 RMK AO2 SLP205
     T11171139 TSNO

1997/11/12 12:53
KBDE 121253Z AUTO 22012KT 10SM BKN090 M11/M13 A2988 RMK AO2 SLP143
     T11061133 TSNO

1997/11/12 12:53
KBEH 121253Z AUTO 29012G17KT 10SM OVC047 M01/M10 A3011 RMK AO2
     SLP205 T10111100 FZRANO TSNO PNO

1997/11/12 12:53
KBIV 121253Z AUTO 33014G19KT 10SM BKN042 M01/M08 A3007 RMK AO2
     SLP190 T10111078 TSNO

1997/11/12 12:53
KBRD 121253Z AUTO 21004KT 10SM CLR M14/M17 A3005 RMK AO2 SLP206
     T11441167 TSNO

1997/11/12 12:46
KCIN 121246Z AUTO 00000KT M1/4SM OVC002 M07/M09 A3012 RMK AO1

1997/11/12 12:53
KDPA 121253Z AUTO 26005KT 10SM CLR M09/M11 A3015 RMK AO2 SLP222
     T10941111 TSNO

1997/11/12 12:47
KEBS 121247Z AUTO 05003KT 10SM SCT016 M08/M11 A3012 RMK AO1

1997/11/12 12:53
KESF 121253Z VRB05KT 4SM -RA BR OVC003 11/11 A2992 RMK AO2 RAB31
     SLP129 P0000 T01110111

1997/11/12 12:53
KFCM 121253Z AUTO 00000KT 10SM CLR M12/M13 A3013 RMK AO2 SLP221
     T11171133 TSNO

1997/11/12 12:51
KFET 121251Z AUTO 00000KT 1/4SM OVC001 M08/M08 A3012 RMK AO1

1997/11/12 12:53
KFVE 121253Z AUTO 30011KT 10SM OVC032 M04/M11 A2975 RMK AO2 SLP084
     T10391106 TSNO

1997/11/12 12:53
KGAG 121253Z AUTO 10006KT 10SM OVC007 M01/M02 A3002 RMK AO2 SLP180
     T10111022 TSNO

1997/11/12 12:53
KGVW 121253Z 10003KT 10SM OVC050 M01/M05 A3012 RMK AO2 SLP223
     T10111050 PNO

1997/11/12 12:53
KHEI 121253Z AUTO 00000KT 10SM CLR M11/M14 A2979 RMK AO2 SLP140
     T11061139 FZRANO TSNO PNO

1997/11/12 12:53
KHFD 121253Z 19003KT 10SM OVC065 01/M03 A2997 RMK AO2 SLP150
     T00061033

1997/11/12 12:53
KHUT 121253Z 14005KT 5SM -SN OVC004 M01/M02 A3009 RMK AO2 CIG
     003V009 SLP194 P0000 T10111017

1997/11/12 12:53
KHYR 121253Z AUTO 22004KT 10SM SCT024 M13/M14 A3007 RMK AO2 SLP209
     T11281139 TSNO

1997/11/12 12:53
KIWI 121253Z AUTO 21004KT 10SM CLR M02/M04 A2991 RMK AO2 SLP130
     T10221039 TSNO $

1997/11/12 12:53
KJEF 121253Z 08003KT 10SM OVC080 00/M04 A3018 RMK AO2 SLP214
     T00001039

1997/11/12 12:49
KLXN 121249Z AUTO 10003KT 10SM OVC022 M04/M07 A3001 RMK AO1

1997/11/12 12:53
KMDW 121253Z 26005KT 10SM FEW014 SCT200 M06/M08 A3016 RMK AO2
     SLP229 T10611083 $

1997/11/12 12:53
KMIC 121253Z AUTO 26005KT 10SM CLR M11/M14 A3012 RMK AO2 SLP218
     T11061144 TSNO

1997/11/12 12:53
KMLT 121253Z AUTO 31010KT 10SM CLR M02/M08 A2983 RMK AO2 SLP110
     T10171083 TSNO

1997/11/12 12:53
KMPV 121253Z AUTO 00000KT 8SM CLR M04/M07 A2991 RMK AO2 SLP146
     T10391072 TSNO

1997/11/12 12:53
KMVY 121253Z AUTO 00000KT 10SM FEW110 M01/M01 A2996 RMK AO2 SLP146
     T10061011 FZRANO TSNO

1997/11/12 12:53
KPKD 121253Z AUTO 18006KT 10SM CLR M14/M17 A2998 RMK AO2 SLP187
     T11441167 TSNO $

1997/11/12 12:53
KPWK 121253Z 26006KT 10SM CLR M06/M08 A3017 RMK AO2 SLP226
     T10611083

1997/11/12 12:50
PACD 121250Z 25015KT 10SM FEW022 BKN055 OVC120 01/M00 A2957 RMK PK
     WND 25030/18 SHSNB17E41 MOON DMLY VSB SLP015 T00121002/
     2SC

1997/11/12 12:53
PABE 121253Z 27014KT 7SM BKN004 OVC007 M00/M00 A2934 RMK SLP938
     T10041005 6ST2ST

1997/11/12 12:50
PAOT 121250Z 11015KT 7SM BKN043 OVC055 01/00 A2959 RMK SLP922
     T00080001

1997/11/12 12:53
PABE 121253Z 27014KT 7SM BKN004 OVC007 M00/M00 A2934 RMK SLP938
     T10041005 6ST2ST

1997/11/12 12:51
KTEB 121251Z 27004KT 10SM OVC055 04/M03 A2998 RMK AO2 SLP153
     T00391033 $

1997/11/12 12:53
KATL 121253Z 32003KT 5SM BR BKN110 OVC250 07/05 A3009 RMK AO2
     SLP194 T00670050

1997/11/12 12:53
KDFW 121253Z 05008KT 6SM -RA BR SCT004 BKN031 OVC055 08/07 A2996
     RMK AO2 SLP142 P0007 T00780072

1997/11/12 12:45
KIRK 121245Z 00000KT 15SM OVC090 M05/M07 A3015 RMK SLP221

1997/11/12 12:53
KBNA 121253Z 03007KT 10SM BKN027 BKN070 OVC095 05/01 A3014 RMK AO2
     SLP206 T00500006 $

1997/11/12 12:51
KEKN 121251Z 25011KT 10SM SCT026 BKN036 OVC046 02/M02 A3001 RMK
     AO2 UPB19E28 SLP182 P0000 T00221022

1997/11/12 12:51
KBDL 121251Z 23004KT 10SM OVC085 00/M05 A2996 RMK AO2 SLP148
     T00001050 $

1997/11/12 12:53
KSTL 121253Z 12005KT 10SM SCT090 BKN150 OVC200 00/M05 A3019 RMK
     AO2 SLP233 T00001050

1997/11/12 12:52
KALS 121252Z 15006KT 10SM BKN055 M02/M03 A2976 RMK AO2 SLP077
     T10221028

1997/11/12 12:54
KDCA 121254Z VRB03KT 12SM BKN060 OVC080 07/02 A3003 RMK SLP169
     T00660024

1997/11/12 12:50
KCOT 121250Z 03003KT 10SM OVC018 10/09 A2983 RMK SLP099

1997/11/12 12:51
KCMH 121251Z 28009KT 9SM FEW042 SCT150 SCT250 M02/M08 A3012 RMK
     AO2 SLP206 T10171083

1997/11/12 12:52
KP69 121252Z AUTO 36003KT M04/M04 A2996 RMK AO2 SLP171 T10391044
     PWINO FZRANO TSNO

1997/11/12 12:50
KMLU 121250Z 04008KT 3SM -RA BR OVC007 09/09 A2995 RMK SLP140

1997/11/12 12:50
KINK 121250Z 05008KT 15SM OVC010 05/04 A2992 RMK SLP123

1997/11/12 12:49
KART 121249Z 15010KT 15SM SCT100 OVC180 M01/M05 A2987 RMK
     SLP120

1997/11/12 12:53
KEMP 121253Z AUTO 14003KT 10SM BKN080 00/M04 A3011 RMK AO2 SLP209
     T00001044 TSNO

1997/11/12 12:53
KHSI 121253Z AUTO 00000KT 4SM BR CLR M07/M08 A3006 RMK AO2 SLP205
     T10721083 TSNO

1997/11/12 12:51
PHNL 121251Z 07007KT 10SM FEW029 FEW035 BKN060 BKN080 24/19 A3006
     RMK SLP182 T02380191

1997/11/12 12:52
PHTO 121252Z 23005KT 15SM VCSH FEW015 SCT028 BKN045 BKN065 22/21
     A3006 RMK SHRAB10E29 VCSH SW-N SLP181 T02170211

1997/11/12 12:53
KVCT 121253Z 36014KT 8SM -RA SCT008 BKN019 OVC026 10/09 A2983 RMK
     AO2 SLP099 P0002 T01000094

1997/11/12 12:53
KBPT 121253Z 08012KT 2SM BR BKN007 OVC010 14/14 A2980 RMK AO2
     SLP090 T01440139

1997/11/12 12:54
KSGF 121254Z 06007KT 2 1/2SM -SN BR FEW005 OVC022 M01/M01 A3009
     RMK AO2 SLP200 P0000 T10061006

1997/11/12 12:54
KCLE 121254Z 24010KT 7SM FEW060 M03/M07 A3008 RMK AO2 SLP194
     T10331072

1997/11/12 12:54
KJAN 121254Z 08009KT 2SM -RA BR BKN004 OVC024 09/09 A2996 RMK AO2
     SFC VIS 4 SLP143 P0006 T00890089

1997/11/12 12:54
KBTV 121254Z 19003KT 10SM FEW020 M03/M06 A2991 RMK AO2 SLP132
     T10331061

1997/11/12 12:53
KMCI 121253Z 15003KT 10SM SCT070 BKN150 OVC200 M02/M04 A3013 RMK
     AO2 SLP210 T10171039

1997/11/12 12:53
KTRI 121253Z 23004KT 4SM BR OVC044 04/03 A3009 RMK AO2 SLP191
     T00440033

1997/11/12 12:54
KPUB 121254Z 11004KT 8SM OVC005 M03/M04 A2984 RMK AO2 SLP128
     T10281039

1997/11/12 12:51
KDAY 121251Z COR 27009KT 7SM FEW250 M04/M07 A3013 RMK AO2 SLP214
     T10441072 $

1997/11/12 12:53
KBNO 121253Z AUTO 01003KT 10SM CLR M07/M09 A2981 RMK AO2 SLP115
     T10721089 TSNO

1997/11/12 12:54
KBUF 121254Z 26013KT 10SM SCT025 BKN060 M01/M04 A2992 RMK AO2
     SLP138 LK TMP 49 T10111044

1997/11/12 12:53
KABI 121253Z 02007KT 7SM OVC003 05/04 A2996 RMK AO2 SLP144
     T00500044

1997/11/12 12:53
KUIL 121253Z AUTO 08006KT 10SM CLR 03/02 A2978 RMK AO2 SLP084
     T00280017 TSNO $

1997/11/12 12:53
KSTC 121253Z 00000KT 10SM CLR M13/M14 A3010 RMK AO2 SLP222
     T11331144

1997/11/12 12:53
KMSN 121253Z 29005KT 10SM FEW040 M08/M13 A3014 RMK AO2 SLP220
     T10781128

1997/11/12 12:53
KAGS 121253Z 00000KT 7SM CLR 07/07 A3010 RMK AO2 PRESRR SLP192
     T00720067

1997/11/12 12:53
KRVS 121253Z AUTO 01008KT 7SM UP OVC007 01/M01 A3009 RMK AO2
     RAE13B32E39UPB39SNB1156E32 CIG 005V011 SLP197 P0003 T00111011
     TSNO

1997/11/12 12:53
KSEG 121253Z AUTO VRB06KT 10SM FEW039 BKN085 03/M03 A2998 RMK AO2
     SLP156 T00331028 TSNO PNO

1997/11/12 12:53
KSFD 121253Z AUTO 21012KT 10SM CLR M08/M11 A2998 RMK AO2 SLP185
     T10831106 FZRANO TSNO PNO

1997/11/12 12:53
KSPW 121253Z AUTO 16006KT 10SM SCT019 M09/M11 A3011 RMK AO2 SLP218
     T10891111 FZRANO TSNO PNO

1997/11/12 12:53
KSTJ 121253Z AUTO 00000KT 8SM CLR M03/M05 A3014 RMK AO2 SLP214
     T10331050 FZRANO TSNO

1997/11/12 12:53
KSTP 121253Z 24005KT 10SM SCT025 M10/M13 A3016 RMK AO2 SLP220
     T11001128

1997/11/12 12:53
KSWO 121253Z AUTO 01008KT 6SM -SN BR 00/00 A3009 RMK AO2 SNE00B28
     SLP191 P0000 T00000000 TSNO $

1997/11/12 12:53
KTHV 121253Z AUTO 27006KT 10SM BKN075 OVC100 03/M03 A3002 RMK AO2
     SLP169 T00331028 TSNO $

1997/11/12 12:53
KTVR 121253Z AUTO 09008KT 5SM BR SCT008 OVC042 10/09 A2995 RMK AO2
     RAE02 SLP147 P0000 T01000094 TSNO

1997/11/12 12:53
KUNO 121253Z AUTO 05007KT 10SM SCT030 OVC038 00/M01 A3011 RMK AO2
     SLP204 T00001011 FZRANO TSNO PNO $

1997/11/12 12:53
KUUU 121253Z AUTO 30008KT 10SM OVC110 A2998 RMK AO2 SLPNO TSNO
     $

1997/11/12 12:54
KAEL 121254Z AUTO 00000KT 10SM CLR M11/M12 A3009 RMK AO2

1997/11/12 12:54
KAIT 121254Z AUTO 20004KT 10SM CLR M12/M13 A3003 RMK AO2

1997/11/12 12:53
KAKO 121253Z 08008KT 5SM -SN BR FEW004 OVC024 M06/M06 A2984 RMK
     AO2 SLP148 P0002 T10561056

1997/11/12 12:54
KAMN 121254Z AUTO 27005KT 10SM SCT036 M04/M04 A3000 RMK AO2

1997/11/12 12:54
KANE 121254Z AUTO 00000KT 10SM CLR M10/M13 A3012 RMK AO2

1997/11/12 12:54
KAQP 121254Z AUTO 17003KT 10SM CLR M12/M13 A3007 RMK AO2

1997/11/12 12:53
KDCU 121253Z AUTO 00000KT 2 1/2SM BR BKN043 05/05 A3010 RMK AO2
     SLP195 T00500050 TSNO

1997/11/12 12:53
KEWB 121253Z 00000KT 10SM SCT110 01/M03 A2996 RMK AO2 SLP145
     T00061028

1997/11/12 12:53
KFYV 121253Z 06005KT 3SM -RA BR OVC007 03/03 A3005 RMK AO2 CIG
     004V010 SLP181 P0001 T00330028

1997/11/12 12:53
KGVW 121253Z 10003KT 10SM OVC050 M01/M05 A3012 RMK AO2 SLP223
     T10111050 PNO

1997/11/12 12:53
KLHX 121253Z 12009KT 10SM SCT007 BKN015 OVC034 M02/M03 A2986 RMK
     AO2 SLP126 T10171028

1997/11/12 12:53
KLMT 121253Z AUTO 18005KT 9SM BR BKN013 02/02 A2978 RMK AO2 SLP084
     T00170017 TSNO

1997/11/12 12:50
KMUT 121250Z AUTO 00000KT 10SM SCT049 OVC065 M06/M08 A3019 RMK
     AO1

1997/11/12 12:46
KOLZ 121246Z AUTO 36005KT 10SM CLR M09/M13 A3012 RMK AO1

1997/11/12 12:53
KOSH 121253Z 29006KT 10SM CLR M09/M12 A3011 RMK AO2 SLP217
     T10941122

1997/11/12 12:53
KRIL 121253Z AUTO 00000KT 1/4SM SN FG OVC001 00/00 A2975 RMK AO2
     SLP072 P0004 T00000000 TSNO

1997/11/12 12:51
KSRR 121251Z AUTO 09003KT M1/4SM OVC001 02/02 A2986 RMK AO2

1997/11/12 12:53
KTRL 121253Z AUTO 03008KT 6SM RA BR FEW007 BKN036 OVC050 08/08
     A2996 RMK AO2 SLP143 P0008 T00830078 TSNO

1997/11/12 12:54
KISN 121254Z 19008KT 10SM CLR M06/M10 A2971 RMK AO2 SLP094
     T10561100

1997/11/12 12:53
KAUS 121253Z 36011KT 10SM -RA FEW008 OVC028 08/08 A2989 RMK AO2
     SLP118 P0002 T00830078

1997/11/12 12:53
KMSY 121253Z 07010KT 4SM -RA BR OVC006 14/13 A2982 RMK AO2 CIG
     004V009 SLP102 P0018 T01390133

1997/11/12 12:53
KP68 121253Z AUTO 02003KT 00/00 A2976 RMK AO2 SLP071 T00000000
     PWINO FZRANO TSNO

1997/11/12 12:53
KTUL 121253Z 02007KT 4SM -SN OVC003 01/M01 A3010 RMK AO2 SLP196
     P0002 T00111006 $

1997/11/12 12:53
KCHA 121253Z 00000KT 3SM BR FEW050 04/03 A3012 RMK AO2 SLP201
     T00440033

1997/11/12 12:53
KDAB 121253Z 00000KT 6SM BR FEW080 SCT120 16/14 A3009 RMK AO2
     SLP188 T01560144

1997/11/12 12:53
KTYS 121253Z 32003KT 3SM BR FEW020 OVC048 04/04 A3011 RMK AO2
     SLP198 T00440039 $

1997/11/12 12:50
KMWL 121250Z 33008KT 6SM -RA BR OVC004 07/07 A2996 RMK CIG RGD
     SLP144

1997/11/12 12:53
KFSM 121253Z 09006KT 4SM RA BR OVC008 06/06 A3007 RMK AO2 CIG
     005V011 SLP182 P0003 T00610056 $

1997/11/12 12:53
KMCO 121253Z 08003KT 7SM FEW140 SCT250 17/16 A3006 RMK AO2 SLP178
     T01720161

1997/11/12 12:53
KFAR 121253Z 19013KT 10SM CLR M09/M12 A2999 RMK AO2 SLP174
     T10941122

1997/11/12 12:53
KSAV 121253Z 00000KT 6SM BR FEW060 09/08 A3009 RMK AO2 SLP189
     T00940083

1997/11/12 12:53
KCSG 121253Z 00000KT 5SM BR SCT090 BKN110 08/06 A3007 RMK AO2
     SLP181 T00830061

1997/11/12 12:54
KRFD 121254Z 27004KT 10SM CLR M08/M11 A3017 RMK AO2 SLP227
     T10781106

1997/11/12 12:53
KIAH 121253Z 06008KT 020V120 6SM -RA BR OVC005 13/12 A2979 RMK AO2
     RAB31 SLP088 P0000 T01280122

1997/11/12 12:54
KRST 121254Z 27005KT 10SM CLR M12/M14 A3011 RMK AO2 SLP221
     T11171144

1997/11/12 12:52
KBLU 121252Z AUTO 00000KT 10SM BKN048 02/00 A2978 RMK AO2 SLP078
     T00170000 TSNO $

1997/11/12 12:54
KCVG 121254Z 32006KT 10SM SCT080 BKN250 M02/M08 A3016 RMK AO2
     SLP220 T10221083

1997/11/12 12:54
KERI 121254Z 29005KT 5SM -SN BKN031 BKN046 OVC070 01/M04 A2998 RMK
     AO2 VIS 2 1/2 NE SNB38 SLP159 P0000 T00061044

1997/11/12 12:50
EKAH 14004KT 110V180 2800 BR BKN005 07/06 Q1003

1997/11/12 12:50
EKBI 14004KT 7000 SCT045 BKN200 08/07 Q1002

1997/11/12 12:50
EKCH 13007KT 070V190 5000 BKN007 BKN200 07/06 Q1004 TEMPO 4000

1997/11/12 12:50
EKEB 13004KT 090V170 CAVOK 07/07 Q1002

1997/11/12 12:50
EKKA 14005KT 110V180 8000 FEW025 BKN200 09/07 Q1002 NOSIG

1997/11/12 12:50
EKOD 13003KT 090V260 4500 -DZRA BKN021 BKN070 08/07 Q1003

1997/11/12 12:50
EKRK 11009KT 3000 BR OVC005 07/07 Q1004

1997/11/12 12:50
EKRN 10011KT 3000 BR OVC004 06/05 Q1005

1997/11/12 12:50
EKSB 14007KT 8000 -DZRA SCT010 BKN050 BKN100 08/07 Q1002

1997/11/12 12:50
EKSN 15008KT 6000 FEW030 SCT080 BKN200 08/07 Q1003

1997/11/12 12:50
EKSP 14004KT CAVOK 08/06 Q1002 TEMPO 7000 RMK BKN050

1997/11/12 12:50
EKSV 15006KT 7000 FEW040 BKN200 08/07 Q1002

1997/11/12 12:50
EKTS 13007KT 8000 FEW011 SCT061 09/07 Q1002

1997/11/12 12:50
EKVD 11003KT 090V180 9000 FEW030 SCT050 BKN080 08/07 Q1002

1997/11/12 12:50
EKVG 34007KT 320V020 9999 FEW025 BKN063 08/05 Q0992 RMK WIND 850
     FT 04006KT

1997/11/12 12:50
EKVJ 15008KT 8000 BKN200 08/06 Q1002

1997/11/12 12:50
EKVL 13008KT 100V160 4500 BR BKN007 08/07 Q1004 NOSIG

1997/11/12 12:50
EKYT 11006KT 5000 BR BKN058 07/06 Q1003 NOSIG

1997/11/12 12:50
ENBO 09019KT 9999 FEW015CB FEW040 BKN090 03/M03 Q1005 NOSIG

1997/11/12 12:50
ENBO 121250Z 09019KT 9999 FE015CB FEW040 BKN090 03/M03 Q1005
     NOSIG

1997/11/12 12:50
ENBR 121250Z 15006KT 9999 FEW025 BKN045 10/02 Q0998 NOSIG

1997/11/12 12:50
ENCN 121250Z 14005KT 090V180 9999 -RA SCT009 BKN030 07/07
     Q1001

1997/11/12 12:50
ENFB 121250Z 00000KT 5000W -RADZ BR FEW005 SCT008 BKN013 07/06
     Q1004 TEMPO 5000 BKN010

1997/11/12 12:50
ENGM 121250Z 09005KT 4500 -RA BR SCT003 BKN005 05/05 Q1004
     NOSIG

1997/11/12 12:50
ENHD 14009KT 9999 -SHRA FEW020 BKN040 08/07 Q0998

1997/11/12 12:50
ENKR 21004KT 9999 FEW020 BKN040 M06/M09 Q1013

1997/11/12 12:50
ENSB 12010KT 9999 FEW020 M16/XX Q1018 NOSIG

1997/11/12 12:50
ENTC 20006KT 9999 VCSH FEW005 SCT015 BKN042 M01/M02 Q1009 TEMPO
     4000 -SN VV012

1997/11/12 12:50
ENVA 16014KT 130V210 9999 FEW035 SCT080 BKN200 09/02 Q1003
     NOSIG

1997/11/12 12:50
ENZV 121250Z 14010KT 9999 -SHRA FEW012CB SCT020 BKN030 09/07 Q0999
     NOSIG

1997/11/12 12:50
ENAL 09005KT 9999 SCT050 BKN070 08/06 Q1000

1997/11/12 12:50
ENAN 19008KT 9999 FEW030 SCT050 BKN080 01/M01 Q1007 NOSIG

1997/11/12 12:50
ENDU VRB02KT 9999 FEW060 SCT080 M04/M09 Q1008 NOSIG

1997/11/12 12:50
ENKB 07002KT CAVOK 09/05 Q1001

1997/11/12 12:50
ENML 01003KT 9999 FEW030 SCT050 07/03 Q1001

1997/11/12 12:50
ENNA 19015KT 9999 VCSH FEW020 M06/M10 Q1011

1997/11/12 12:50
ENOL 13008KT 9999 FEW040 SCT080 07/03 Q1002 NOSIG

1997/11/12 12:50
ENRY 13007KT 6000 -RADZ SCT006 BKN010 06/06 Q1004 TEMPO 3000 DZ BR
     BKN005

1997/11/12 12:50
ENTO 15008KT 6000 RA BKN006 07/06 Q1003

1997/11/12 12:54
KGSO 121254Z 00000KT 7SM OVC044 08/05 A3008 RMK AO2 SLP186
     T00780050

1997/11/12 12:54
KSYR 121254Z 17006KT 10SM SCT028 BKN060 OVC075 00/M03 A2989 RMK
     AO2 SLP124 T00001028

1997/11/12 12:54
KCOU 121254Z 12004KT 10SM BKN090 M02/M04 A3016 RMK AO2 SLP222
     T10171044

1997/11/12 12:55
KGSP 121255Z 00000KT 10SM CLR 06/03 A3006 RMK AO2 SLP178 T00610028
     $

1997/11/12 12:55
KBIS 121255Z 21008KT 10SM BKN120 M06/M10 A2985 RMK AO2 SLP142
     T10611100

1997/11/12 12:54
KDSM 121254Z 06006KT 8SM OVC031 M03/M05 A3014 RMK AO2 SLP218
     T10281050

1997/11/12 12:54
KCAR 121254Z 30012KT 10SM BKN042 M02/M09 A2976 RMK AO2 SLP087
     T10221094

1997/11/12 12:54
KPIA 121254Z 00000KT 5SM BR CLR M07/M09 A3019 RMK AO2 SLP234
     T10721089

1997/11/12 12:53
KMCN 121253Z 00000KT 4SM BR CLR 06/06 A3009 RMK AO2 SLP190
     T00610056

1997/11/12 12:54
KMLF 121254Z AUTO 00000KT 3SM BR SCT001 BKN017 M02/M03 A2977 RMK
     AO2 SLP086 T10221028 TSNO

1997/11/12 12:53
KAHN 121253Z 32004KT 4SM BR FEW120 06/04 A3008 RMK AO2 SLP190
     VIRGA T00610044 $

1997/11/12 12:53
KEYW 121253Z VRB06KT 10SM FEW027 25/20 A3001 RMK AO2 SLP160
     T02500200

1997/11/12 12:53
KRMG 121253Z AUTO 00000KT 3SM BR CLR 04/03 A3012 RMK AO2 SLP198
     T00440033 TSNO $

1997/11/12 12:54
KFNT 121254Z 26006KT 7SM FEW090 M04/M06 A3002 RMK AO2 SLP176
     T10391056

1997/11/12 12:54
KAVL 121254Z 00000KT 10SM CLR 03/00 A3009 RMK AO2 SLP192
     T00330000

1997/11/12 12:54
KAKQ 121254Z AUTO 00000KT 8SM OVC050 08/05 A3007 RMK AO2 SLP183
     T00780050 TSNO

1997/11/12 12:54
KALO 121254Z AUTO 00000KT 10SM CLR M10/M12 A3016 RMK AO2 SLP227
     T11001117 TSNO

1997/11/12 12:54
KCOS 121254Z 18007KT 3SM BR OVC001 M06/M07 A2978 RMK AO2 SNE31
     SLP139 P0000 T10611067 $

1997/11/12 12:53
KMGM 121253Z 08007KT 3SM -RA BR SCT021 OVC070 09/08 A3005 RMK AO2
     SLP177 P0012 T00890078

1997/11/12 12:54
KSPI 121254Z 00000KT 6SM BR CLR M05/M07 A3021 RMK AO2 SLP236
     T10501067

1997/11/12 12:53
KACT 121253Z 01011KT 4SM -RA BR BKN005 BKN021 OVC038 08/08 A2992
     RMK AO2 CIG 003V009 SLP132 P0004 T00780078

1997/11/12 12:53
KCAO 121253Z AUTO 18009KT 5SM BR BKN005 OVC013 M03/M04 A2986 RMK
     AO2 SNB02E35 SLP124 P0000 T10331039 TSNO

1997/11/12 12:53
KTCS 121253Z AUTO 19004KT 10SM OVC005 07/00 A2981 RMK AO2 CIG
     003V007 SLP062 T00720000 TSNO

1997/11/12 12:54
KRIC 121254Z 18003KT 7SM OVC060 06/04 A3006 RMK AO2 SLP183
     T00610044

1997/11/12 12:54
KAVP 121254Z 14003KT 10SM FEW020 BKN075 BKN095 M01/M03 A2994 RMK
     AO2 SLP142 T10111028

1997/11/12 12:54
KWAL 121254Z 32003KT 10SM BKN060 BKN100 BKN250 08/02 A3006 RMK AO2
     SLP175 T00780022

1997/11/12 12:54
KLNK 121254Z 00000KT 1/2SM BR OVC001 M06/M06 A3014 RMK AO2 SFC VIS
     3/4 SNB1155E10B43E47 SLP218 P0000 T10561061

1997/11/12 12:53
KTUP 121253Z 04007KT 8SM OVC040 08/06 A3006 RMK AO2 SLP179
     T00780061

1997/11/12 12:53
KDRT 121253Z AUTO 30003KT 8SM OVC024 09/09 A2987 RMK AO2 SLP111
     T00890089 TSNO

1997/11/12 12:54
KBDR 121254Z 01003KT 10SM BKN095 OVC110 03/M05 A2998 RMK AO2
     SLP151 T00281050 $

1997/11/12 12:50
KHMS 121250Z 02002KT 1/16SM FG VV001 01/01 A2988 RMK SLP126
     T00070007 RSNK 02/01006KT

1997/11/12 12:54
KIPT 121254Z 00000KT 10SM CLR M01/M02 A2996 RMK AO2 SLP151
     T10061022

1997/11/12 12:54
KMFD 121254Z 27009KT 6SM HZ FEW032 M04/M08 A3007 RMK AO2 SLP196
     T10441078

1997/11/12 12:50
KFNB 121250Z 32005KT 1 1/2SM BR SCT120 OVC250 M04/M05 A3014 RMK
     24HR HIGH 3.9 CELSIUS 12HR LOW -5.6 CELSIUS FIRST
     T10441050

1997/11/12 12:54
KOFK 121254Z 21004KT 4SM BR CLR M12/M13 A3008 RMK AO2 SLP215 VIS N
     2 T11171133

1997/11/12 12:54
KSBN 121254Z 31011G16KT 10SM -SN BKN050 M02/M11 A3012 RMK AO2
     SNB51 SLP208 P0000 T10171111

1997/11/12 12:53
KBTR 121253Z 05009KT 1SM +RA BR SCT006 BKN016 OVC045 12/12 A2988
     RMK AO2 TWR VIS 1 1/4 PRESFR SLP117 R22R/4000FT P0039
     T01220117

1997/11/12 12:54
KBWI 121254Z 00000KT 10SM SCT040 BKN060 OVC200 05/02 A3003 RMK AO2
     SLP169 T00500017

1997/11/12 12:54
KPNE 121254Z AUTO 00000KT 10SM SCT110 04/M01 A3001 RMK AO2 SLP162
     T00391011 TSNO

1997/11/12 12:52
KHOU 121252Z 08007KT 4SM -RA BR OVC005 14/14 A2979 RMK RAB43
     SLP088 T01440136

1997/11/12 12:54
KLEX 121254Z 34006KT 6SM HZ FEW028 SCT110 00/M04 A3015 RMK AO2
     SLP220 T00001044

1997/11/12 12:54
KBFF 121254Z 11004KT 10SM OVC028 M05/M08 A2986 RMK AO2 SLP149
     T10501083

1997/11/12 12:56
KBOI 121256Z 12007KT 10SM CLR 00/M03 A2982 RMK AO2 SLP107
     T00001033

1997/11/12 12:53
KPBI 121253Z 10007KT 9SM FEW030 SCT110 23/18 A3006 RMK AO2 SLP177
     T02280178 $

1997/11/12 12:54
KORH 121254Z 24005KT 10SM BKN080 M03/M06 A2991 RMK AO2 SLP143
     T10331061 $

1997/11/12 12:56
KMIA 121256Z 09008KT 10SM FEW030 BKN110 23/19 A3003 RMK AO2 SLP169
     T02330194

1997/11/12 12:54
KLYH 121254Z 00000KT 9SM CLR 05/01 A3005 RMK AO2 SLP177
     T00500006

1997/11/12 12:54
KEVV 121254Z 04007KT 8SM BKN090 OVC110 00/M04 A3021 RMK AO2 SLP233
     T00001039

1997/11/12 12:56
KFSD 121256Z 00000KT 8SM CLR M14/M15 A3007 RMK AO2 SLP215
     T11391150 PNO

1997/11/12 12:56
KGTF 121256Z 22016KT 10SM CLR M06/M08 A2970 RMK AO2 SLP124
     T10561078 $

1997/11/12 12:54
KACY 121254Z 24003KT 10SM OVC070 03/M01 A3002 RMK AO2 SLP168
     T00331006 $

1997/11/12 12:56
KPIH 121256Z 32003KT 10SM OVC038 M02/M04 A2981 RMK AO2 SLP111
     T10171044

1997/11/12 12:56
KJAX 121256Z 10003KT 10SM BKN049 OVC080 15/12 A3007 RMK AO2 SLP183
     T01500117

1997/11/12 12:56
KHSV 121256Z 00000KT 3SM BR SCT047 05/04 A3012 RMK AO2 SLP200
     T00500044 $

1997/11/12 12:54
KROA 121254Z 28007KT 10SM BKN046 06/M03 A3005 RMK AO2 SLP180
     T00561028

1997/11/12 12:56
KSPS 121256Z 03015KT 3SM DZ BR OVC005 02/02 A3001 RMK AO2
     RAE52DZB52 CIG 004V010 PRESFR SLP165 WR// P0001 T00220017

1997/11/12 12:56
KALB 121256Z 00000KT 10SM OVC095 M02/M04 A2997 RMK AO2 SLP152
     T10221039

1997/11/12 12:56
KFWA 121256Z 27011KT 10SM CLR M04/M08 A3012 RMK AO2 SLP210
     T10441078

1997/11/12 12:54
KROC 121254Z 27010KT 1SM -SN BR BKN007 OVC014 00/M01 A2990 RMK AO2
     TWR VIS 1 1/4 SNB20 SLP130 P0000 T00001011

1997/11/12 12:56
KMSO 121256Z 00000KT 10SM CLR M08/M10 A2991 RMK AO2 SLP164
     T10781100

1997/11/12 12:56
TJSJ 121256Z 10005KT 10SM CLR 28/23 A3003 RMK AO2 SLP169
     T02780228

1997/11/12 12:56
KPAH 121256Z 05008KT 10SM OVC070 02/M03 A3017 RMK AO2 SLP217
     T00221028

1997/11/12 12:56
KCAE 121256Z 00000KT 6SM BR CLR 07/06 A3006 RMK AO2 SLP180
     T00670056

1997/11/12 12:56
KDDC 121256Z 13009KT 7SM -SN OVC003 M03/M03 A3000 RMK AO2 SLP178
     P0000 T10281033

1997/11/12 12:56
KPHX 121256Z 05003KT 10SM SCT060 OVC090 16/13 A2967 RMK AO2 SLP036
     T01560128 $

1997/11/12 12:56
KABQ 121256Z 36006KT 10SM OVC010 04/03 A2982 RMK AO2 CIG 006V013
     SLP073 T00390033

1997/11/12 12:56
KMKE 121256Z 29008KT 10SM FEW030 M07/M11 A3013 RMK AO2 SLP214
     T10671111

1997/11/12 12:56
KCRW 121256Z VRB03KT 10SM SCT020 BKN038 BKN050 03/01 A3010 RMK AO2
     SLP197 T00330006

1997/11/12 12:56
KJKL 121256Z VRB03KT 10SM SCT018 BKN025 OVC039 02/M01 A3011 RMK
     AO2 SLP203 T00221011

1997/11/12 12:56
KSAT 121256Z 02009KT 10SM OVC020 08/08 A2984 RMK AO2 SLP098
     T00830078

1997/11/12 12:56
KGRB 121256Z 29008KT 10SM BKN050 M08/M10 A3009 RMK AO2 SLP201
     T10781100

1997/11/12 12:56
KSJT 121256Z 01010KT 10SM BKN006 OVC011 05/04 A2992 RMK AO2 CIG
     004V008 SLP136 T00500044 $

1997/11/12 12:56
KPDT 121256Z 09005KT 10SM CLR M01/M02 A2986 RMK AO2 SLP116
     T10111022

1997/11/12 12:56
KCHS 121256Z 28003KT 5SM BR CLR 10/08 A3008 RMK AO2 SLP184
     T01000078

1997/11/12 12:56
KGRR 121256Z 28006KT 7SM FEW020 BKN033 OVC060 M03/M05 A3006 RMK
     AO2 SLP188 T10331050

1997/11/12 12:56
KLBF 121256Z 10004KT 10SM OVC020 M08/M09 A2998 RMK AO2 SLP191
     T10781094 $

1997/11/12 12:56
KBRO 121256Z 32010KT 10SM SCT007 OVC016 11/10 A2982 RMK AO2 SLP096
     T01110100

1997/11/12 12:56
KDRA 121256Z 00000KT 10SM OVC110 07/04 A2973 RMK AO2 SLP051
     T00720039

1997/11/12 12:56
KRNO 121256Z 29004KT 3SM RA BR SCT011 BKN018 OVC023 00/00 A2980
     RMK AO2 RAB54SNE54 SLP090 P0020 T00000000 $

1997/11/12 12:56
KSHV 121256Z 04008KT 3SM -RA BR OVC004 09/09 A2993 RMK AO2 SFC VIS
     4 CIG 004V007 SLP128 P0001 T00940089

1997/11/12 12:56
KCRP 121256Z 35013KT 8SM BKN005 OVC026 12/11 A2980 RMK AO2 RAE36
     CIG 004V010 SLP089 P0001 T01170111

1997/11/12 12:56
KLAS 121256Z 21006KT 10SM OVC220 09/00 A2972 RMK AO2 SLP057
     T00940000

1997/11/12 12:54
K3KM 121254Z AUTO 09006KT 7SM -SN OVC075 M01/M03 A3008 RMK AO2
     SLP200 P0000 T10111028 TSNO

1997/11/12 12:53
KAKO 121253Z 08008KT 5SM -SN BR FEW004 OVC024 M06/M06 A2984 RMK
     AO2 SLP148 P0002 T10561056

1997/11/12 12:54
KAQP 121254Z AUTO 17003KT 10SM CLR M12/M13 A3007 RMK AO2

1997/11/12 12:54
KAUM 121254Z AUTO 00000KT 10SM CLR M09/M11 A3010 RMK AO2

1997/11/12 12:54
KBBB 121254Z AUTO 16005KT 10SM CLR M12/M15 A3008 RMK AO2

1997/11/12 12:54
KBFW 121254Z AUTO 00000KT 10SM CLR M14/M18 A3002 RMK AO2

1997/11/12 12:48
KCDD 121248Z AUTO 00000KT 10SM CLR M14/M16 A3000 RMK AO2 TSNO

1997/11/12 12:57
KCKN 121257Z AUTO 19015KT 10SM CLR M09/M13 A2994 RMK AO2

1997/11/12 12:54
KCOQ 121254Z AUTO 23005KT 10SM CLR M13/M14 A3002 RMK AO2

1997/11/12 12:56
KCQM 121256Z AUTO 21004KT 10SM CLR M13/M15 A2997 RMK AO2

1997/11/12 12:53
KDTO 121253Z AUTO 04009KT 8SM -RA FEW005 BKN026 OVC037 07/07 A2997
     RMK AO2 SLP147 P0005 T00720072 TSNO

1997/11/12 12:55
KDYT 121255Z AUTO 21008KT 10SM CLR M11/M13 A3010 RMK AO2

1997/11/12 12:53
KF54 121253Z AUTO 05007KT 7SM -RA SCT003 BKN033 OVC042 08/08 A2994
     RMK AO2 SLP136 P0011 T00830083 TSNO

1997/11/12 12:54
KFZY 121254Z AUTO 16006KT 1 1/2SM -SN BR BKN017 OVC024 M01/M03
     A2987 RMK AO2 SNB47 SLP121 P0000 T10111028 TSNO

1997/11/12 12:54
KGED 121254Z AUTO 23003KT 10SM FEW065 06/02 A3005 RMK AO2 SLP177
     T00560022 TSNO PNO

1997/11/12 12:54
KIMT 121254Z AUTO 25006KT 10SM OVC046 M07/M10 A3000 RMK AO2 SLP181
     T10721100 TSNO

1997/11/12 12:54
KISW 121254Z AUTO 24005KT 10SM OVC011 M11/M13 A3011 RMK AO2 SLP215
     T11111128 TSNO

1997/11/12 12:54
KIZG 121254Z AUTO 00000KT 10SM CLR M03/M06 A2989 RMK AO2 SLP130
     T10281056 TSNO

1997/11/12 12:54
KLWM 121254Z 00000KT 10SM CLR M01/M04 A2995 RMK AO2 SLP143 P0001
     T10111044 $

1997/11/12 12:54
KMFI 121254Z AUTO 29007KT 10SM OVC011 M10/M12 A3007 RMK AO2 SLP207
     T11001117 TSNO

1997/11/12 12:54
KMVL 121254Z AUTO 00000KT 10SM CLR M05/M06 A2990 RMK AO2 SLP136
     T10501061 TSNO

1997/11/12 12:54
KTQE 121254Z AUTO 00000KT 1/4SM FZFG VV001 M08/M10 A3015 RMK AO2
     SLP220 T10831100 TSNO

1997/11/12 12:53
KTRL 121253Z AUTO 03008KT 6SM RA BR FEW007 BKN036 OVC050 08/08
     A2996 RMK AO2 SLP143 P0008 T00830078 TSNO

1997/11/12 12:54
KVSF 121254Z AUTO 00000KT 10SM CLR M04/M04 A2992 RMK AO2 SLP140
     T10391044 TSNO

1997/11/12 12:54
KWLD 121254Z AUTO 08004KT 2 1/2SM -SN BR BKN005 BKN015 OVC090
     00/M01 A3009 RMK AO2 SNE1157B13 SLP200 P0000 T00001011
     TSNO

1997/11/12 12:57
K87D 121257Z AUTO 25004KT 10SM SCT095 M11/M12 A3010 RMK AO2

1997/11/12 12:55
KACB 121255Z AUTO 00000KT 10SM BKN041 BKN048 OVC050 M02/M03 RMK
     AO2

1997/11/12 12:57
KCKN 121257Z AUTO 19015KT 10SM CLR M09/M13 A2994 RMK AO2

1997/11/12 12:55
KDXX 121255Z AUTO 18004KT 10SM CLR M13/M13 A3009 RMK AO2

1997/11/12 12:56
KELO 121256Z AUTO 00000KT 10SM CLR M14/M15 A2995 RMK AO2

1997/11/12 12:55
KERY 121255Z AUTO 24007KT 10SM CLR M07/M09 A2995 RMK AO2

1997/11/12 12:55
KETH 121255Z AUTO 16007KT 10SM CLR M11/M16 A3006 RMK AO2

1997/11/12 12:55
KFBL 121255Z AUTO 22003KT 10SM CLR M11/M14 A3011 RMK AO2

1997/11/12 12:55
PAVW 121255Z 00000KT 7SM FEW014 FEW028 SCT038 SCT055 OVC070 02/02
     A2971 RMK RAE15 SLP064 T00240021 ARPT WND 00000KT 1ST1SC

1997/11/12 12:53
KJCT 121253Z AUTO 33007KT 7SM OVC004 06/05 A2990 RMK AO2 PRESRR
     SLP124 T00560050 TSNO

1997/11/12 12:55
KBAX 121255Z AUTO 27006KT 7SM CLR M04/M06 5Z AUTOMK AO2

1997/11/12 12:56
KDLL 121256Z AUTO 29005KT 10SM CLR M09/M11 A3011 RMK AO2

1997/11/12 12:56
KFSE 121256Z AUTO 19017KT 10SM BKN090 M12/M13 A2994 RMK AO2

1997/11/12 12:55
KHCO 121255Z AUTO 17020G23KT 10SM CLR M08/M10 A2984 RMK AO2

1997/11/12 12:55
KIRS 121255Z AUTO 27010G17KT 10SM OVC070 M04/M06 A3008 RMK AO2

1997/11/12 12:56
KJYG 121256Z AUTO 00000KT 10SM CLR M12/M13 A3013 RMK AO2

1997/11/12 12:56
KOEB 121256Z AUTO 24004KT 7SM OVC060 M04/M05 A3005 RMK AO2

1997/11/12 12:55
KOSC 121255Z AUTO 30008KT 10SM CLR M04/M05 A2996 RMK AO2

1997/11/12 12:56
KPBH 121256Z AUTO 25003KT 10SM CLR M11/M13 A3008 RMK AO2

1997/11/12 12:53
PAPB 121253Z AUTO 24020KT 1 3/4SM -SN BR SCT018 BKN034 OVC050
     00/M02 A2946 RMK AO2 PK WND 24036/1242 WSHFT 1228 SNB41
     SLP963 T00001022 TSNO PNO

1997/11/12 12:53
PAKT 121253Z 00000KT 5SM BR BKN003 03/03 A2985 RMK AO2 SLP110
     HARBOR WND 27004KT T00330033 $

1997/11/12 13:01
KFGN 121301Z AUTO 20013KT 10SM OVC070 M09/M11 A2982 RMK AO2

1997/11/12 12:53
PAPB 121253Z AUTO 24020KT 1 3/4SM -SN BR SCT018 BKN034 OVC050
     00/M02 A2946 RMK AO2 PK WND 24036/1242 WSHFT 1228 SNB41
     SLP963 T00001022 TSNO PNO

1997/11/12 12:53
PAKT 121253Z 00000KT 5SM BR BKN003 03/03 A2985 RMK AO2 SLP110
     HARBOR WND 27004KT T00330033 $

1997/11/12 12:53
PAKT 121253Z 00000KT 5SM BR BKN003 03/03 A2985 RMK AO2 SLP110
     HARBOR WND 27004KT T00330033 $

1997/11/12 12:56
KCYS 121256Z 21010KT 1/2SM FZFG VV001 M07/M08 A2974 RMK AO2 SLP135
     T10721078

1997/11/12 12:56
KMAF 121256Z 04009KT 1 1/2SM BR OVC003 04/04 A2992 RMK AO2 SFC VIS
     3 CIG 002V008 PRESRR SLP119 T00440039

1997/11/12 12:56
KOKC 121256Z 04010KT 10SM OVC037 02/M01 A3006 RMK AO2 PRESRR
     SLP184 T00171006

1997/11/12 12:56
KICT 121256Z 07008KT 10SM OVC080 M01/M02 A3009 RMK AO2 SNE32
     SLP199 4/001 P0000 T10111022

1997/11/12 12:56
KGJT 121256Z 29007KT 10SM OVC010 02/01 A2978 RMK AO2 RAB05E29 CIG
     008V012 SLP077 P0000 T00170011

1997/11/12 12:48
KP07 121248Z AUTO 35006KT 06/04 RMK PK WND 07///006 RNO
     T00610045

1997/11/12 12:48
KGDP 121248Z AUTO 06019KT 02/M01 A2975 RMK AO1 PK WND 20 000
     T00171005

1997/11/12 12:48
KMEH 121248Z AUTO 22001KT M07/M09 A2983 RMK AO1 PK WND 01 000
     T10721094

1997/11/12 12:48
KU15 121248Z AUTO 23001KT M09/M14 RMK AO1 PK WND 01 000
     T10941144

1997/11/12 12:48
KP59 121248Z AUTO 00000KT M05/M14 RMK PK WND 01///000 RNO
     T10501138

1997/11/12 12:48
KP58 121248Z AUTO 25005KT 00/M14 RMK PK WND 09///038 RM
     T00001144

1997/11/12 12:48
KP67 121248Z AUTO 22004KT M09/M11 RMK PK WND 09///922 RNO
     T10941105

1997/11/12 12:48
KP61 121248Z AUTO 27003KT M08/M11 RMK PK WND 05///675 RNO
     T10831105

1997/11/12 12:48
KP60 121248Z AUTO 28001KT M14/M17 RMK PK WND 03///201 RNO
     T11441166

1997/11/12 12:48
K0V1 121248Z AUTO 23003KT M12/M14 RMK PK WND 07///000 RNO
     T11171138

1997/11/12 12:48
KY22 121248Z AUTO 20006KT M12/M15 RMK PK WND 08///004 RNO
     T11171149

1997/11/12 12:48
K1V4 121248Z AUTO 10001KT M04/M06 A2979 RMK AO1 M T10391061

1997/11/12 12:48
KGCC 121248Z AUTO 17006KT M11/M14 RMK AO1 000 T11061138

1997/11/12 12:48
KBPI 121248Z AUTO 18004KT M09/M13 RMK AO1 /PK WND 05 000
     T10941133

1997/11/12 12:48
K9V9 121248Z AUTO 17002KT M11/M11 RMK AO1 /PK WND 04 000
     T11061105

1997/11/12 12:48
KEHA 121248Z AUTO 16006KT M02/M02 RMK AO1 PK WND 10 000
     T10221022

1997/11/12 12:48
KP28 121248Z AUTO 00000KT 00/M02 RMK AO1 /PK WND 04 009
     T00001022

1997/11/12 12:48
KP02 121248Z AUTO 01004KT 03/M04 A3015 RMK AO1 PK WND E29 915
     T00281044

1997/11/12 12:48
K2WX 121248Z AUTO 23004KT M13/M17 RMK AO1 /PK WND 08 000
     T11281172

1997/11/12 12:48
KN60 121248Z AUTO 23009KT M04/M09 A2972 RMK AO1 PK WND 15 000
     T10441094

1997/11/12 12:48
KP35 121248Z AUTO 00000KT M04/M05 A3015 RMK AO1 PK WND E69 144 }
     T10441049

1997/11/12 12:53
PANT 121253Z 36003KT 10SM FEW028 07/06 A2985 RMK AO2 SLP107 BINOVC
     SE T00670061 $

1997/11/12 12:53
PANT 121253Z 36003KT 10SM FEW028 07/06 A2985 RMK AO2 SLP107 BINOVC
     SE T00670061 $

1997/11/12 12:53
KATL 121253Z 32003KT 5SM BR BKN110 OVC250 07/05 A3009 RMK AO2
     SLP194 T00670050

1997/11/12 12:56
KIND 121256Z 30005KT 10SM FEW180 BKN230 M05/M08 A3018 RMK AO2
     SLP227 T10501078

1997/11/12 12:54
KAPN 121254Z 28007KT 10SM CLR M06/M07 A2997 RMK AO2 SLP159
     T10561067 VISNO RY 19 $

1997/11/12 12:56
KORD 121256Z 25004KT 10SM FEW015 SCT200 M07/M09 A3016 RMK AO2
     SLP222 T10671094

1997/11/12 12:55
KY62 121255Z 00000KT 10SM FEW055 OVC075 M06/M08 A2995 RMK AO2
     SLP151 T10611083 $

1997/11/12 12:55
KLIC 121255Z AUTO 16009KT 9SM SCT007 OVC014 M04/M06 A2981 RMK AO2
     SLP117 T10441061 TSNO $

1997/11/12 12:56
KSDF 121256Z 01010KT 9SM BKN110 BKN200 01/M07 A3021 RMK AO2 SLP232
     T00061067

1997/11/12 12:55
KLIC 121255Z AUTO 16009KT 9SM SCT007 OVC014 M04/M06 A2981 RMK AO2
     SLP117 T10441061 TSNO $

1997/11/12 12:56
KBGM 121256Z 20004KT 10SM BKN021 OVC065 M03/M03 A2988 RMK AO2
     SNE23 SLP137 P0000 T10281033

1997/11/12 12:56
KRIW 121256Z AUTO 20006KT CLR M13/M14 A2978 RMK AO2 SLP143
     T11281144 TSNO $

1997/11/12 12:56
KBOS 121256Z 28006KT 10SM FEW030 BKN200 02/M04 A2995 RMK AO2
     SLP142 T00171044

1997/11/12 12:56
KTOP 121256Z 00000KT 10SM CLR M01/M04 A3013 RMK AO2 SLP212
     T10111039 $

1997/11/12 12:56
KTPA 121256Z 13007KT 6SM HZ FEW120 SCT250 20/17 A3002 RMK AO2
     SLP166 T02000167

1997/11/12 12:55
KCNK 121255Z 08005KT 10SM OVC048 M02/M04 A3009 RMK AO2 SLP202
     T10221044

1997/11/12 12:53
KCDR 121253Z 00000KT 20SM BKN060 BKN100 BKN200 M09/M11 A2989 RMK
     FIRST T10881106 24HR HIGH 00.6 CELSIUS OVERNIGHT LOW -13.0
     CELSIUS

1997/11/12 12:56
KMOB 121256Z 04008KT 5SM -RA BR OVC022 12/12 A2996 RMK AO2 SLP144
     P0006 T01220117

1997/11/12 12:54
KDTW 121254Z 24012KT 7SM BKN023 OVC044 M01/M06 A3004 RMK AO2
     SNB11E22 SLP180 P0000 T10111056

1997/11/12 12:55
KRBL 121255Z 32004KT 1/4SM FG VV001 07/07 A2980 RMK AO2 SLP089
     T00720072

1997/11/12 12:55
KHON 121255Z 17006KT 10SM CLR M11/M13 A3006 RMK AO2 SLP204
     T11111133

1997/11/12 12:56
KLBB 121256Z 09006KT 7SM OVC004 02/02 A2993 RMK AO2 SLP135
     T00220017

1997/11/12 12:55
KHTL 121255Z 02004KT 1 1/4SM -SN BR SCT020 BKN027 OVC041 M04/M05
     A2998 RMK AO2 SLP168 P0001 T10391050 $

1997/11/12 12:56
KELP 121256Z 04007KT 1/2SM -RA BR BKN001 OVC010 07/07 A2981 RMK
     AO2 SFC VIS 2 RAB27 SLP072 P0000 T00720072

1997/11/12 12:55
KMBG 121255Z AUTO 17010KT 10SM CLR M07/M11 A2989 RMK AO2 SLP151
     T10721106 TSNO PNO

1997/11/12 12:55
KLAN 121255Z 28007KT 8SM BKN049 BKN055 M03/M04 A3004 RMK AO2
     SNB37E47 SLP182 P0000 T10331044

1997/11/12 12:55
KCPR 121255Z 24011KT 10SM CLR M11/M13 A2976 RMK AO2 SLP142
     T11111128 $

1997/11/12 12:56
KGLD 121256Z 13009KT 7SM OVC005 M03/M03 A2991 RMK AO2 SNE36 CIG
     004V011 SLP151 P0000 T10281033

1997/11/12 12:55
KMKG 121255Z 31014G20KT 10SM FEW041 BKN049 OVC060 M02/M05 A3007
     RMK AO2 SNE25 SLP190 P0000 T10171050 $

1997/11/12 12:55
KINL 121255Z 19005KT 10SM BKN085 M14/M16 A2993 RMK AO2 SLP162
     T11391156

1997/11/12 12:56
KTUS 121256Z 09004KT 10SM SCT043 SCT120 12/08 A2971 RMK AO2 SLP035
     T01220083 $

1997/11/12 12:56
KABR 121256Z 17005KT 10SM CLR M13/M14 A3001 RMK AO2 SLP192
     T11281144

1997/11/12 12:55
KDLH 121255Z 27007KT 10SM CLR M13/M16 A3001 RMK AO2 SLP194
     T11331156

1997/11/12 12:55
KDBQ 121255Z 02004KT 10SM CLR M08/M11 A3014 RMK AO2 SLP224
     T10831111

1997/11/12 12:55
KMSP 121255Z 24004KT 10SM FEW040 SCT050 SCT100 M11/M13 A3013 RMK
     AO2 SLP220 T11111133

1997/11/12 12:53
KMEI 121253Z 03005KT 2SM RA BR BKN027 BKN047 OVC090 08/08 A3003
     RMK AO2 SFC VIS 4 SLP168 P0010 T00830078

1997/11/12 12:55
KMLI 121255Z 00000KT 10SM OVC055 M05/M07 A3017 RMK AO2 SLP226
     T10501067

1997/11/12 12:55
KSUX 121255Z 00000KT M1/4SM FZFG BKN001 OVC006 M07/M08 A3015 RMK
     AO2 SFC VIS 1/4 SLP230 T10721083

1997/11/12 12:55
KRAP 121255Z 20005KT 10SM CLR M09/M12 A2982 RMK AO2 SLP149
     T10891122

1997/11/12 12:56
KFCA 121256Z 00000KT 9SM CLR M09/M09 A2989 RMK AO2 SLP162
     T10891089 $

1997/11/12 12:56
KGGW 121256Z 24010KT 10SM CLR M06/M09 A2968 RMK AO2 SLP085
     T10611089 $

1997/11/12 12:55
KPBF 121255Z 04009KT 4SM BR BKN007 OVC025 07/06 A3005 RMK
     RAE15

1997/11/12 12:56
KSEA 121256Z 13003KT 5SM BR BKN003 02/02 A2981 RMK AO2 SLP098
     T00220022

1997/11/12 12:56
KGHW 121256Z AUTO 19008KT 10SM CLR M11/M13 A3004 RMK AO2

1997/11/12 12:47
KIDA 121247Z 33009KTKT 20SM FEW150 M09/M11 A2983

1997/11/12 12:56
KIDI 121256Z AUTO 29009KT 2 1/2SM BKN013 BKN025 OVC043 M01/M02
     A3003 RMK AO2

1997/11/12 12:56
KLJF 121256Z AUTO 00000KT 10SM CLR M12/M13 A3010 RMK AO2

1997/11/12 12:56
KLVN 121256Z AUTO 00000KT 10SM CLR M10/M12 A3013 RMK AO2

1997/11/12 12:55
KMCD 121255Z AUTO 00000KT 10SM SCT010 M04/M04 A2995 RMK AO2

1997/11/12 12:56
KMOX 121256Z AUTO 17005KT 10SM CLR M12/M14 A3007 RMK AO2

1997/11/12 12:57
KMRJ 121257Z AUTO 30004KT 10SM CLR M08/M08 A3014 RMK AO2

1997/11/12 12:56
KOEB 121256Z AUTO 24004KT 7SM OVC060 M04/M05 A3005 RMK AO2

1997/11/12 12:56
KRGK 121256Z AUTO 00000KT 7SM BKN025 M11/M13 A3014 RMK AO2

1997/11/12 12:53
KROX 121253Z AUTO 18014KT 10SM SCT095 M09/M10 A2982 RMK AO2
     TSNO

1997/11/12 12:56
KTEW 121256Z AUTO 26003KT 10SM BKN043 OVC075 M03/M05 A3002 RMK
     AO2

1997/11/12 12:57
KCBG 121257Z AUTO 00000KT 10SM CLR M14/M16 A3011 RMK AO2

1997/11/12 12:59
KEFT 121259Z AUTO 29005KT 10SM CLR M08/M10 A3016 RMK AO2

1997/11/12 12:56
KHYA 121256Z 28006KT 10SM CLR 01/M04 A2995 RMK AO2 SLP143
     T00111044

1997/11/12 12:56
KRGK 121256Z AUTO 00000KT 7SM BKN025 M11/M13 A3014 RMK AO2

1997/11/12 12:56
KSAZ 121256Z AUTO 18004KT 10SM CLR M13/M14 A3002 RMK AO2

1997/11/12 12:55
KSGS 121255Z AUTO 25003KT 10SM CLR M11/M13 A3012 RMK AO2

1997/11/12 12:57
KSTE 121257Z AUTO 28006KT 10SM OVC007 M09/M11 A3010 RMK AO2

1997/11/12 12:56
KSUW 121256Z AUTO 22006KT 10SM CLR M13/M13 A3009 RMK AO2

1997/11/12 12:57
KULM 121257Z AUTO 00000KT 10SM CLR M12/M14 A3011 RMK AO2

1997/11/12 12:57
KUNU 121257Z AUTO 30006KT 10SM CLR M09/M11 A3012 RMK AO2

1997/11/12 12:57
KVVV 121257Z AUTO 16004KT 10SM CLR M12/M13 A3007 RMK AO2

1997/11/12 12:56
KRDD 121256Z 00000KT M1/4SM FG VV001 07/07 A2979 RMK AO2 SLP088
     T00670067

1997/11/12 12:56
K87Q 121256Z AUTO 09007KT 13/07 A2977 RMK AO2 SLP079 T01280067
     PWINO TSNO

1997/11/12 12:56
KIGM 121256Z AUTO 15007KT 10SM OVC110 07/01 A2971 RMK AO2 SLP028
     T00670006 TSNO

1997/11/12 12:56
KORD 121256Z COR 25004KT 10SM FEW045 SCT200 M07/M09 A3016 RMK AO2
     SLP222 T10671094

1997/11/12 12:56
KNUQ 121256Z AUTO 21003KT 10SM CLR 09/08 A2980 RMK AO2 SLP095
     T00890078 TSNO

1997/11/12 12:56
KSFO 121256Z 26004KT 10SM FEW070 09/09 A2979 RMK AO2 SLP088 SOSF
     09/03005KT T00940089

1997/11/12 12:56
KGRI 121256Z 00000KT 7SM CLR M10/M12 A3008 RMK AO2 SLP212
     T11001117

1997/11/12 12:56
KYKM 121256Z AUTO 28007KT CLR M06/M07 A2989 RMK AO2 SLP131
     T10561067 TSNO $

1997/11/12 12:53
KGNT 121253Z AUTO 15004KT 02/02 A2981 RMK AO2 SLP074 T00220017
     PWINO FZRANO TSNO

1997/11/12 12:56
KGEG 121256Z 00000KT 8SM BCFG CLR M08/M09 A2984 RMK AO2 SLP128
     BCFG NE-S T10781089

1997/11/12 12:48
KGCC 121248Z AUTO 17006KT M11/M14 RMK AO1 000 T11061138

1997/11/12 12:56
KBIL 121256Z 22014KT 10SM CLR M10/M12 A2975 RMK AO2 SLP129
     T11001117

1997/11/12 12:56
K0Y7 121256Z AUTO 20005KT 10SM CLR M05/M06 A3012 RMK AO2 SLP213
     T10501061 TSNO

1997/11/12 12:56
KHLN 121256Z 00000KT 9SM CLR M12/M13 A2985 RMK AO2 SLP182
     T11171128 $

1997/11/12 12:56
KLND 121256Z 30005KT 10SM CLR M12/M14 A2977 RMK AO2 SLP140
     T11221144

1997/11/12 12:56
KSHR 121256Z 00000KT 10SM CLR M13/M15 A2975 RMK AO2 SLP137
     T11331150

1997/11/12 12:56
KLGB 121256Z AUTO 29004KT 10SM OVC100 15/13 A2969 RMK AO2 SLP055
     T01500128 TSNO

1997/11/12 12:56
KFLG 121256Z AUTO 00000KT 10SM BKN006 BKN012 OVC031 02/01 A2977
     RMK AO2 RAE11B28E52 SLP048 P0001 T00170011 TSNO

1997/11/12 12:56
KLWS 121256Z AUTO 06005KT 8SM OVC005 01/00 A2989 RMK AO2 SLP131
     T00060000 TSNO

1997/11/12 12:55
KMFR 121255Z 00000KT 10SM BKN012 OVC060 07/00 A2980 RMK SLP092
     T00680000

1997/11/12 12:58
KFOZ 121258Z AUTO 19004KT 10SM CLR M12/M13 A2996 RMK AO2

1997/11/12 12:47
KABY 121247Z 08003KT 6SM BR OVC040 11/10 A3005

1997/11/12 12:48
KADM 121248Z 36008KT 2SM -SHRA BR BKN007 OVC015 A3004
     RMK/FIRST

1997/11/12 12:50
KAMG 121250Z 00000KT 5SM HZ BKN050 OVC065 10/09 A3007 RMK
     SLP179

1997/11/12 12:50
KAND 121250Z 00000KT 6SM BR FEW025 OVC250 06/05 A3009

1997/11/12 12:53
KBFD 121253Z 28011KT 7SM SCT017 OVC024 M03/M06 A2990 RMK AO2 SNE46
     SLP144 P0000 T10281061

1997/11/12 12:53
KBJJ 121253Z AUTO 25006KT 6SM HZ CLR M04/M08 A3008 RMK AO2 SLP198
     T10391078 TSNO

1997/11/12 12:53
KBKV 121253Z AUTO 06005KT 4SM BR CLR 16/16 A3004 RMK AO2 SLP171
     T01610156 TSNO

1997/11/12 12:50
KBLF 121250Z 26006KT 7SM OVC028 01/M02 A3004 RMK SLP189
     T00111017

1997/11/12 12:51
KBOW 121251Z 10006KT 7SM SCT100 SCT250 17/15 A3006

1997/11/12 12:50
KBQK 121250Z 00000KT 7SM BKN035 OVC150 12/09 A3007

1997/11/12 12:53
KBWG 121253Z 03004KT 8SM OVC050 03/M01 A3019 RMK AO2 SLP225
     T00281011

1997/11/12 12:45
KCHO 121245Z 22004KT 15SM FEW070 BKN150 07/00 A3004

1997/11/12 12:57
KCKC 121257Z AUTO 29004KT 10SM -SN SCT010 SCT014 M12/M14 A2989 RMK
     AO2

1997/11/12 12:50
KCRE 121250Z 00000KT 4SM BR BKN150 08/08 A3008

1997/11/12 12:50
KCRG 121250Z 00000KT 7SM BKN060 16/13 A3006

1997/11/12 12:50
KDAN 121250Z 23004KT 10SM BKN047 OVC060 08/06 A3007

1997/11/12 12:53
KDKK 121253Z AUTO 26010G18KT 10SM SCT039 OVC055 00/M07 A2996 RMK
     AO2 SLP152 T00001067 TSNO

1997/11/12 12:46
KFAY 121246Z 00000KT 4SM BR BKN150 09/08 A3008

1997/11/12 12:50
KFLO 121250Z 00000KT 6SM BR BKN050 BKN150 08/08 A3008

1997/11/12 12:45
KFOK 121245Z 00000KT 15SM OVC060 00/ A3000 RMK RY24

1997/11/12 12:50
KFPR 121250Z 00000KT 7SM FEW120 A3004

1997/11/12 12:45
KFRG 121245Z 21005KT 10SM OVC060 04/M04 A2998

1997/11/12 12:47
KFTY 121247Z 00000KT 5SM BR OVC180 06/04 A3008

1997/11/12 12:50
KFXE 121250Z 00000KT 8SM FEW040 A3005

1997/11/12 12:53
KGIF 121253Z AUTO 12005KT 7SM CLR 18/15 A3005 RMK AO2 SLP174
     T01830150 TSNO $

1997/11/12 12:53
KGKJ 121253Z AUTO 24007KT 8SM FEW014 SCT060 OVC070 M03/M06 A2998
     RMK AO2 SLP165 T10281056 TSNO

1997/11/12 12:53
KGNV 121253Z 11004KT 7SM OVC038 15/12 A3008 RMK SLP185
     T01480123

1997/11/12 12:48
KGUP 121248Z 00000KT 15SM FEW025 OVC050 03/02 A2979 RMK SLP066
     T00310022

1997/11/12 12:53
KGWO 121253Z 07009KT 8SM -RA SCT042 OVC060 08/07 A3002 RMK AO2
     SLP166 P0000 T00830067

1997/11/12 12:45
KHGR 121245Z 28003KT 10SM BKN070 OVC080 03/M03 A3003

1997/11/12 12:45
KHLG 121245Z 30008KT 8SM SCT018 OVC032 M01/M04 A3007

1997/11/12 12:47
KINT 121247Z 29007KT 5SM BR OVC035 09/03 A3010

1997/11/12 12:50
KISO 121250Z 00000KT 10SM 0VC160 09/07 A3010

1997/11/12 12:45
KISP 121245Z 00000KT 15SM BKN030 BKN050 03/M00 A2999 RMK
     SLP159

1997/11/12 12:57
KLCK 121257Z AUTO 27006KT 7SM CLR M02/M04 A3015 RMK AO2

1997/11/12 12:53
KLEE 121253Z AUTO 10005KT 8SM CLR 17/15 A3006 RMK AO2 SLP176
     T01720150 TSNO

1997/11/12 12:50
KLNS 121250Z 29010KT 15SM OVC100 04/00 A3001

1997/11/12 12:51
KLVS 121251Z 18014KT 5SM -SN BR VV002 M03/M03 A2980 RMK FIRST 19
     HR DATA 70005 4/001 10087 21039

1997/11/12 12:45
KLWB 121245Z 24008KT 10SM BKN050 02/M01 A3004

1997/11/12 12:57
KMDZ 121257Z AUTO 30007KT 10SM OVC011 M09/M11 A3005 RMK AO2

1997/11/12 12:45
KMGW 121245Z 29008KT 10SM BKN022 OVC042 02/M01 A3006

1997/11/12 12:50
KMIV 121250Z 00000KT 10SM OVC070 04/01 A3005 RMK SLP177

1997/11/12 12:53
KMKL 121253Z 05005KT 10SM OVC035 06/02 A3013 RMK AO2 SLP205
     T00560017

1997/11/12 12:53
KMLB 121253Z 00000KT 7SM FEW200 19/17 A3006

1997/11/12 12:53
KMLP 121253Z AUTO 16006KT 10SM CLR M03/M16 A2976 RMK AO2 SLP104
     T10281161 TSNO $

1997/11/12 12:50
KMRB 121250Z VRB03KT 15SM OVC050 05/M01 A3003 RMK SLP165

1997/11/12 12:53
KMSL 121253Z 00000KT 4SM BR OVC036 07/06 A3011 RMK AO2 SLP196
     T00720056

1997/11/12 12:45
KMTN 121245Z 29007KT 7SM OVC065 07/M02 A3004

1997/11/12 12:57
KMVE 121257Z AUTO 18004KT 10SM CLR M12/M13 A3009 RMK AO2

1997/11/12 12:52
KMWH 121252Z AUTO 36003KT 1/2SM FZFG VV001 M01/M01 A2990 RMK AO2
     SLP132 T10111011 FZRANO TSNO

1997/11/12 12:50
KOPF 121250Z 06004KT 12SM SCT030 SCT100 A3004

1997/11/12 12:50
KORL 121250Z 08004KT 5SM HZ FEW100 17/15 A3007

1997/11/12 12:47
KPDK 121247Z 00000KT 4SM BR FEW085 OVC200 07/06 A3009

1997/11/12 12:53
KPFN 121253Z 09008KT 7SM BKN024 BKN070 15/12 A2998

1997/11/12 12:53
KPGD 121253Z AUTO 10006KT 5SM BR CLR 18/17 A3005 RMK AO2 SLP174
     T01830172 TSNO

1997/11/12 12:50
KPHF 121250Z 33005KT 7SM OVC070 08/06 A3009

1997/11/12 12:50
KPIE 121250Z 15007KT 6SM BR HZ FEW150 19/18 A3002

1997/11/12 12:49
KPIR 121249Z 20005KT 12SM FEW250 M09/M11 A2996 RMK SLP175
     T10921112

1997/11/12 12:49
KPKB 121249Z 30006KT 7SM SCT020 BKN050 01/M03 A3012

1997/11/12 12:57
KPNM 121257Z AUTO 00000KT 10SM CLR M14/M17 A3009 RMK AO2

1997/11/12 12:50
KPNS 121250Z 07007KT 4SM -RA OVC020 14/11 A2994

1997/11/12 12:57
KPQN 121257Z AUTO 00000KT 5SM FG CLR M11/M12 A3005 RMK AO2

1997/11/12 12:53
KRBG 121253Z AUTO 00000KT 6SM BR BKN006 OVC065 09/09 A2979 RMK AO2
     SLP088 T00940089 TSNO $

1997/11/12 12:45
KRDG 121245Z 00000KT 15SM 0VC068 03/02 A3000

1997/11/12 12:53
KRRF 121253Z AUTO VRB03KT 2SM BR CLR 18/17 A3003 RMK AO2 SLP169
     T01780172 TSNO

1997/11/12 12:47
KRSW 121247Z 10006KT 10SM BKN150 18/17 A3005

1997/11/12 12:50
KRWF 121250Z 19005KT 12SM FEW250 M13/M16 A3012 RMK SLP219
     T11331155

1997/11/12 12:49
KRWI 121249Z 00000KT 5SM BR FEW046 SCT065 OVC250 08/06 A3008

1997/11/12 12:50
KSBY 121250Z VRB04KT 9SM SCT070 OVC200 07/04 A3005 RMK SLP176

1997/11/12 12:58
KSME 121258Z AUTO 34005KT 10SM OVC039 04/M01 A3013 RMK AO2

1997/11/12 12:50
KSPG 121250Z 16011KT 8SM SCT200 21/19 A3005

1997/11/12 12:50
KSRQ 121250Z 12006KT 10SM SCT100 20/18 A3004

1997/11/12 12:51
KSSI 121251Z 02005KT 7SM OVC080 13/10 A3009 RMK SLP190

1997/11/12 12:57
KSTE 121257Z AUTO 28006KT 10SM OVC007 M09/M11 A3010 RMK AO2

1997/11/12 12:50
KTIX 121250Z 00000KT 7SM FEW200 17/ A3009

1997/11/12 12:52
KTMB 121252Z E12005KT 10SM SCT100 SCT200 21/20 A3004

1997/11/12 12:45
KTTN 121245Z 00000KT 12SM OVC110 02/M02 A3002

1997/11/12 12:58
KTWM 121258Z AUTO 25006KT 10SM CLR M12/M14 A3002 RMK AO2

1997/11/12 12:53
KUAO 121253Z AUTO 01003KT 10SM OVC039 08/04 A2980 RMK AO2 SLP090
     T00780044 TSNO

1997/11/12 12:52
KVLD 121252Z 09004KT 7SM BKN040 OVC200 13/10 A3008 RMK SLP186

1997/11/12 12:54
KVRB 121254Z 00000KT 7SM SCT180 19/16 A3005 RMK SLP176

1997/11/12 12:53
KVUO 121253Z AUTO 00000KT 10SM BKN060 03/01 A2981 RMK AO2 SLP096
     T00280011 TSNO

1997/11/12 12:50
KWDG 121250Z 02008KT 4SM SCT005 OVC015 00/00 A3007

1997/11/12 12:48
TJPS 121248Z 02005KT 15SM SCT040 BKN120 27/23 A2997

1997/11/12 12:50
TJMZ 121250Z 13004KT 10SM OVC020 24/21 A3003

1997/11/12 12:53
PAWD 121253Z AUTO 00000KT 10SM OVC023 02/02 A2956 RMK AO2 RAE50
     PRESRR SLP001 P0015 T00220017 TSNO

1997/11/12 12:53
PAMR 121253Z VRB03KT 10SM FEW070 BKN120 BKN200 00/M02 A2953 RMK
     AO2 SLP002 T00001022 PNO $

1997/11/12 12:53
PAAQ 121253Z AUTO 01007KT 10SM FEW080 02/M03 A2954 RMK AO2 SLP007
     T00171033 TSNO PNO

1997/11/12 12:54
PASM 121254Z AUTO 00000KT 1 1/2SM OVC001 M01/M01 A2929 RMK AO1

1997/11/12 12:54
PAMY 121254Z AUTO 19005KT 7SM SCT001 BKN035 OVC049 M02/M04 A2932
     RMK AO1

1997/11/12 12:53
PASI 121253Z 02004KT 10SM CLR 03/02 A2986 RMK AO2 SLP109
     T00280017

1997/11/12 12:53
PAKW 121253Z AUTO 00000KT 10SM CLR 05/04 A2984 RMK AO2 SLP105
     T00500044 TSNO

1997/11/12 12:53
PASO 121253Z AUTO 18012G17KT 150V210 9SM FEW025 BKN031 BKN039
     06/04 A2940 RMK AO2 SLP955 T00610039 PWINO TSNO PNO $

1997/11/12 12:53
PASI 121253Z 02004KT 10SM CLR 03/02 A2986 RMK AO2 SLP109
     T00280017

1997/11/12 12:54
PAVD 121254Z AUTO 00000KT 10SM BKN023 BKN060 OVC100 02/01 A2971
     RMK AO1

1997/11/12 12:50
PABI 121250Z AUTO 15013KT 03/M09 A2951 RMK AO1 PK WND 30 M
     T00331094

1997/11/12 12:54
PFYU 121254Z AUTO 06003KT 10SM CLR M15/M17 A2957 RMK AO1

1997/11/12 12:50
PABR 121250Z 18009KT 7SM FEW002 OVC035 M05/M06 A2930 RMK SLP923
     T10481061 1ST

1997/11/12 12:48
PASC 121248Z 22015KT 10SM SCT090 M02/M05 A2940

1997/11/12 12:54
PAEM 121254Z AUTO 24005KT 2SM OVC001 M01/M02 A2927 RMK AO1

1997/11/12 12:53
PAGM 121253Z AUTO 15010KT 10SM OVC035 M02/M07 A2920 RMK AO1

1997/11/12 12:54
PAFM 121254Z AUTO 14010G16KT 10SM FEW070 02/M23 A2938 RMK AO1

1997/11/12 12:55
PANI 121255Z AUTO 00000KT 10SM BKN009 OVC015 01/01 A2934 RMK
     AO1

1997/11/12 12:53
PAKW 121253Z AUTO 00000KT 10SM CLR 05/04 A2984 RMK AO2 SLP105
     T00500044 TSNO

1997/11/12 12:54
PAMH 121254Z AUTO 06003KT 9SM CLR M08/M10 A2939 RMK AO1

1997/11/12 12:54
PAUN 121254Z AUTO 10010KT 10SM FEW027 02/M01 A2929 RMK AO1

1997/11/12 12:50
K27U 121250Z 00000KT 25SM SKC M08/M11 RMK SLP165 NOSPECI
     T10831111

1997/11/12 12:51
K3R5 121251Z AUTO 02010KT 10SM OVC024 09/08 A2985 RMK AO2 RAE42
     SLP108 P0001 T00890078 TSNO

1997/11/12 12:54
K3SZ 121254Z AUTO 09003KT 10SM SCT100 M01/M03 A3020 RMK AO2 SLP228
     T10061033 TSNO

1997/11/12 12:50
KAEX 121250Z 04008KT 3SM BR OVC005 10/10 A2992

1997/11/12 12:53
KAFW 121253Z 04008KT 3SM -RA BR OVC004 07/07 A2995 RMK AO2 SLP146
     P0005 T00720072

1997/11/12 12:53
KAIA 121253Z AUTO 17011KT 10SM OVC036 M06/M11 A2985 RMK AO2 SLP155
     T10561106 FZRANO TSNO

1997/11/12 12:56
KAIZ 121256Z AUTO 00000KT 10SM FEW044 M01/M04 A3016 RMK AO1

1997/11/12 12:50
KALN 121250Z 00000KT 10SM OVC130 M01/M03 A3020

1997/11/12 12:50
KALW 121250Z 11005KT 15SM SKC M01/M02 A2988 RNK BCFG DSNT SW

1997/11/12 12:50
KAOO 121250Z 26006KT 2SM -SN BR OVC020 01/M01 A2998 RMK SLP158

1997/11/12 12:47
KAPA 121247Z 32007KT 3SM -SN BR VV003 M06/M06 A2977

1997/11/12 12:50
KARA 121250Z 05010KT 2SM RA BR BKN005 OVC020 14/ A2985

1997/11/12 12:47
KASH 121247Z 36004KT 40SM FEW200 M04/M06 A2995

1997/11/12 12:45
KATW 121245Z 30012KT 12SM SKC M10/M11 A3009

1997/11/12 12:51
KAUW 121251Z 29005KT 10SM BKN007 OVC015 M08/M12 A3008 RMK SLP208
     T10841116

1997/11/12 12:45
KAZO 121245Z 30008KT 10SM BKN065 A3007

1997/11/12 12:45
KBAF 121245Z 00000KT 25SM BKN095 M03/M04 A2995

1997/11/12 12:50
KBAK 121250Z 32004KT 15SM SCT070 M03/ A3018

1997/11/12 12:45
KBED 121245Z 00000KT 30SM SCT200 M02/M03 A2995

1997/11/12 12:53
KBFM 121253Z 05010KT 6SM RA BR OVC023 14/12 A2995 RMK AO2 SLP141
     P0007 T01390117

1997/11/12 12:45
KBGR 121245Z 28008KT 15SM OVC150 M01/M07 A2986

1997/11/12 12:55
KBHB 121255Z AUTO 31004KT 10SM CLR M01/M08 A2987 RMK AO1

1997/11/12 12:50
KBHM 121250Z 07006KT 6SM HZ FEW070 OVC160 08/05 A3009 RMK SLP187
     T00820047

1997/11/12 12:56
KBID 121256Z AUTO 34005KT 10SM CLR 03/M07 A2996 RMK AO1

1997/11/12 12:46
KBJC 121246Z 32008KT 2SM BR VV004 M06/M07 A2978

1997/11/12 12:50
KBKE 121250Z 00000KT 1SM BR FEW001 M06/M07 A2984 RMK VSBY 1/4V11/2
     VSBY N- NE 1/2 SLP128 T10651068

1997/11/12 12:45
KBKL 121245Z 24018KT 6SM -SN BR BKN055 M02/M06 A3006

1997/11/12 12:50
KBLH 121250Z 04003KT 15SM SCT100 OVC180 14/05 A2968 RMK SLP047

1997/11/12 12:47
KBMG 121247Z 00000KT 7SM SCT150 M03/ A3017

1997/11/12 12:45
KBMI 121245Z 00000KT 20SM SCT200 M05/M10 A3018

1997/11/12 12:53
KBMQ 121253Z AUTO 03008KT 10SM BKN004 OVC029 07/06 A2988 RMK AO2
     PRESFR SLP115 T00670061 TSNO

1997/11/12 12:53
KBRL 121253Z AUTO 24003KT 5SM BR CLR M07/M08 A3017 RMK AO2 SLP227
     T10671078 TSNO $

1997/11/12 12:53
KBSM 121253Z 36008KT 10SM BKN007 OVC028 08/08 A2988 RMK AO2 RAE41
     SLP121 P0001 T00830083

1997/11/12 12:45
KBTL 121245Z 26010KT 1 1/2SM -SN OVC015 M03/ A3005

1997/11/12 12:51
KBTM 121251Z VRB04KT 10SM SKC M13/M16 A2982 RMK SLP160
     T11351160

1997/11/12 12:57
KBTP 121257Z AUTO 29011G17KT 260V330 10SM OVC022 M02/M05 A3002 RMK
     AO1

1997/11/12 12:46
KBUR 121246Z 33003KT 10SM SCT100 OVC150 13/10 A2972

1997/11/12 12:45
KBVY 121245Z 30006KT 15SM SCT200 A2995

1997/11/12 12:52
KBYI 121252Z 03006KT 15SM FEW013 OVC050 M01/M04 A2981 RMK SLP107
     FIRST 10010 21017

1997/11/12 12:53
KCAG 121253Z AUTO 00000KT 10SM OVC009 M04/M06 A2981 RMK AO2 SLP123
     T10391061 TSNO $

1997/11/12 12:50
KCDC 121250Z 00000KT 25SM SCT200 M02/M03 A2976 RMK SLP077

1997/11/12 12:53
KCDS 121253Z AUTO 07010KT 5SM BR OVC006 02/01 A3000 RMK AO2 SLP161
     T00220011 TSNO

1997/11/12 12:53
KCEW 121253Z 06005KT 9SM -RA OVC026 13/10 A2998 RMK AO2 RAB38
     SLP139 P0000 T01330100

1997/11/12 12:53
KCEZ 121253Z AUTO 08004KT 10SM BKN060 M02/M02 A2979 RMK AO2 SLP084
     T10171022 FZRANO TSNO PNO

1997/11/12 12:45
KCGF 121245Z 23012KT 3SM -SHSN BKN035 OVC060 M03/M06 A3003

1997/11/12 12:53
KCGI 121253Z AUTO 06008KT 10SM OVC065 02/M04 A3019 RMK AO2 SLP224
     T00221039 FZRANO TSNO

1997/11/12 12:45
KCGX 121245Z 28006KT 10SM SCT080 M04/M08 A3018

1997/11/12 12:55
KCIU 121255Z AUTO 00000KT 10SM SCT035 SCT042 M09/M09 A2994 RMK
     AO1

1997/11/12 12:53
KCMI 121253Z 01004KT 10SM SCT100 M06/M09 A3019 RMK AO2 SLP233
     T10611094 $

1997/11/12 12:51
KCMX 121251Z 28009KT 5SM -SN OVC035 M05/M12 A2996 RMK SLP165
     T10501122

1997/11/12 12:55
KCOD 121255Z AUTO 00000KT 10SM CLR M11/M16 A2974 RMK AO1

1997/11/12 12:53
KCPS 121253Z 09003KT 10SM FEW085 BKN110 M01/M02 A3021 RMK AO2
     SLP233 T10061022

1997/11/12 12:53
KCRS 121253Z AUTO 02008KT 7SM -RA OVC003 09/08 A2992 RMK AO2 CIG
     003V007 SLP132 P0004 T00890083 TSNO

1997/11/12 12:53
KCSM 121253Z AUTO 08011KT 5SM BR BKN005 OVC008 01/M01 A3003 RMK
     AO2 SLP177 T00061011 TSNO

1997/11/12 12:51
KCSV 121251Z 00000KT 1 1/2SM BR SCT018 OVC040 03/02 A3010 RMK
     SLP198

1997/11/12 12:55
KCTB 121255Z 29007KT 10SM OVC120 M08/M09 A2970 RMK AO1 SLP125

1997/11/12 12:55
KCVN 121255Z AUTO 11007KT 1 1/2SM OVC001 02/M01 A2988 RMK AO1

1997/11/12 12:45
KCWA 121245Z 29011KT 10SM OVC008 M09/M12 A3009 RMK AO2

1997/11/12 12:55
KCWI 121255Z AUTO 00000KT 10SM OVC036 M07/M09 A3018 RMK AO1

1997/11/12 12:53
KCXO 121253Z AUTO 01003KT 3SM RA BR OVC005 12/12 A2982 RMK AO2 CIG
     003V008 SLP095 P0002 T01220117 TSNO

1997/11/12 12:50
KCXY 121250Z 25008KT 15SM BKN080 04/M03 A3002

1997/11/12 12:50
KDAG 121250Z 26005KT 15SM FEW080 OVC250 11/06 A2971 RMK SLP053

1997/11/12 12:50
KDEC 121250Z 02004KT 10SM SCT050 M05/M08 A3020

1997/11/12 12:53
KDEN 121253Z 29007KT 1/4SM BR OVC003 M06/M07 A2977 RMK AO2 SFC VIS
     4 SNE01 SLP117 R16/P6000FT P0000 T10611067

1997/11/12 12:50
KDHN 121250Z 09010KT 10SM OVC030 13/08 13001

1997/11/12 12:50
KDIK 121250Z 23009KT 20SM BKN250 M06/M12 A2975 RMK SLP116
     T10581117

1997/11/12 12:53
KDLN 121253Z AUTO 21007KT CLR M11/M13 A2981 RMK AO2 SLP159
     T11111128 TSNO $

1997/11/12 12:53
KDMO 121253Z AUTO 08003KT 10SM OVC085 M01/M04 A3015 RMK AO2 SLP218
     T10111039 FZRANO TSNO PNO

1997/11/12 12:53
KDNL 121253Z AUTO 00000KT 7SM CLR 08/05 A3009 RMK AO2 PRESRR
     SLP190 T00780050 TSNO

1997/11/12 12:53
KDRO 121253Z AUTO 00000KT 10SM BKN007 OVC013 01/01 A2980 RMK AO2
     CIG 005V011 SLP095 T00060006 FZRANO TSNO PNO

1997/11/12 12:53
KDTN 121253Z AUTO VRB06KT 5SM -RA BR OVC005 09/08 A2994 RMK AO2
     CIG 004V009 SLP139 P0002 T00890083 TSNO

1997/11/12 12:53
KDTS 121253Z AUTO 08010KT 10SM BKN023 OVC031 15/11 A2994 RMK AO2
     SLP139 T01500111 TSNO

1997/11/12 12:52
KDUG 121252Z 13004KT 20SM SCT050 BKN080 BKN200 10/09 A2975 RMK
     SLP033

1997/11/12 12:56
KDUJ 121256Z 27010G16KT 10SM SCT019 BKN025 OVC033 M02/M06 A2995
     RMK AO1 SNE12SHSNB21E37B47 WEA: -SHSN

1997/11/12 12:54
KDVN 121254Z AUTO 00000KT OVC036 M06/M08 A3017 RMK AO2 SLP226
     T10561078 TSNO $

1997/11/12 12:45
KDVT 121245Z 00000KT 35SM OVC080 15/07 A2968

1997/11/12 12:45
KDXR 121245Z 00000KT 15SM BKN060 OVC200 01/M03 A2997

1997/11/12 12:55
KEAU 121255Z 25004KT 20SM FEW200 M11/M13 A3013 RMK SLP221
     T11121131

1997/11/12 12:56
KEEN 121256Z AUTO 00000KT 10SM CLR M06/M07 A2993 RMK AO1

1997/11/12 12:55
KEGE 121255Z AUTO 00000KT 10SM SCT016 SCT034 BKN045 M01/M02 A2974
     RMK AO1

1997/11/12 12:58
KEGV 121258Z AUTO 28007KT 10SM OVC007 M09/M11 A2999 RMK AO2

1997/11/12 12:55
KEHR 121255Z AUTO 04008KT 10SM FEW080 01/M05 A3020 RMK AO1

1997/11/12 12:50
KEKM 121250Z 32015KT 10SM SCT050 M01/ A3010

1997/11/12 12:50
KELM 121250Z 00000KT 7SM SCT030 OVC045 M02/M02 A2989 RMK SLP133
     T10161025

1997/11/12 12:53
KENW 121253Z AUTO 25005KT 10SM SCT046 M08/M10 A3013 RMK AO2 SLP214
     T10831100 TSNO

1997/11/12 12:55
KESC 121255Z AUTO 28008KT 10SM CLR M08/M11 A3003 RMK AO1

1997/11/12 12:55
KEVM 121255Z AUTO 22005KT 7SM CLR M14/M17 A2998 RMK AO1

1997/11/12 12:50
KEVW 121250Z 00000KT 20SM OVC050 M08/M09 A2977

1997/11/12 12:53
KEYE 121253Z AUTO 34007KT 10SM CLR M04/M08 A3017 RMK AO2 SLP227
     T10441078 FZRANO TSNO

1997/11/12 12:55
KFAM 121255Z AUTO 07003KT 10SM CLR 01/M03 A3016 RMK AO1

1997/11/12 12:50
KFDY 121250Z 22007KT 10SM SKC M04/M08 A3008 RMK SLP196

1997/11/12 12:53
KFFC 121253Z AUTO 00000KT 5SM BR CLR 06/05 A3008 RMK AO2 SLP189
     T00610050 TSNO

1997/11/12 12:57
KFFM 121257Z AUTO 17007KT 10SM CLR M11/M13 A3002 RMK AO2

1997/11/12 12:53
KFFT 121253Z AUTO 35005KT 9SM FEW120 01/M04 A3017 RMK AO2 SLP220
     T00061044 TSNO

1997/11/12 12:50
KFFZ 121250Z 00000KT 30SM BKN100 A2968

1997/11/12 12:56
KFKL 121256Z 23008KT SCT040 SCT048 SCT055 M03/M06 A2999 RMK AO1
     WEA: -SHSN VIS 7SM

1997/11/12 12:53
KFLD 121253Z AUTO 29011KT 270V010 10SM CLR M09/M12 A3012 RMK AO2
     SLP212 T10891117 TSNO

1997/11/12 12:49
KFMN 121249Z VRB02KT 15SM BKN060 02/01 A2979

1997/11/12 12:54
KFNL 121254Z AUTO 02005KT 10SM SCT003 OVC019 M05/M06 A2978 RMK
     AO1

1997/11/12 12:53
KFTW 121253Z 03007KT 6SM RA BR OVC003 07/07 A2995 RMK AO2 CIG
     002V006 SLP143 P0010 T00720072

1997/11/12 12:54
KGCK 121254Z AUTO 13013KT 5SM BR OVC003 M03/M03 A2996 RMK AO2
     SLP167 T10281028 TSNO $

1997/11/12 12:54
KGCN 121254Z AUTO 00000KT 10SM OVC110 M04/M06 A2979 RMK AO2 SLP077
     T10391061 TSNO

1997/11/12 12:56
KGDV 121256Z AUTO 20013KT 10SM CLR M08/M12 A2971 RMK AO1

1997/11/12 12:52
KGFK 121252Z 20012KT 15SM BKN070 OVC090 M08/M10 A2989

1997/11/12 12:50
KGLH 121250Z 06007KT 3SM -RA OVC050 10/08 A3001

1997/11/12 12:52
KGLS 121252Z AUTO 07018KT 10SM OVC006 16/16 A2977 RMK AO2 SLP081
     T01610156 TSNO $

1997/11/12 12:45
KGON 121245Z 10005KT 10SM OVC110 02/M04 A2998

1997/11/12 12:53
KGSH 121253Z AUTO 29008KT 10SM FEW048 M04/M09 A3012 RMK AO2 SLP208
     T10391089 FZRANO TSNO

1997/11/12 12:54
KGTU 121254Z AUTO 36008KT 10SM BKN005 OVC031 07/07 A2990 RMK AO1
     P0003

1997/11/12 12:56
KGUC 121256Z AUTO 00000KT 10SM CLR M04/M07 A2978 RMK AO1

1997/11/12 12:53
KGVL 121253Z AUTO 00000KT 4SM BR CLR 06/04 A3008 RMK AO2 SLP186
     T00560044 TSNO

1997/11/12 12:56
KGXY 121256Z AUTO 05004KT 10SM OVC008 M04/M07 RMK AO1

1997/11/12 12:55
KGYR 121255Z 32005KT 30SM FEW030 BKN050 OVC100 A2968 RMK FIRST

1997/11/12 12:52
KGYY 121252Z 27007KT 12SM FEW030 M05/ A3016

1997/11/12 12:53
KGZH 121253Z AUTO 01005KT 10SM -RA OVC038 11/09 A3001 RMK AO2
     RAB1156E06B35 SLP160 P0000 T01060089 TSNO

1997/11/12 12:53
KHAO 121253Z AUTO 30004KT 7SM CLR M02/M08 A3018 RMK AO2 SLP225
     T10221078 TSNO

1997/11/12 12:53
KHBR 121253Z AUTO 07014KT 10SM OVC035 01/M02 A3004 RMK AO2 SLP179
     T00061017 TSNO

1997/11/12 12:55
KHDN 121255Z AUTO 27004KT 10SM OVC012 M05/M07 A2983 RMK AO1

1997/11/12 12:51
KHDO 121251Z AUTO 01011KT 10SM OVC020 08/08 A2986 RMK AO2 SLP106
     T00830078 TSNO

1997/11/12 12:55
KHEF 121255Z AUTO 00000KT 10SM FEW120 04/01 A3004 RMK AO1

1997/11/12 12:54
KHIB 121254Z 21008KT 15SM FEW250 M14/M16 A3000 RMK SLP190
     T11441161

1997/11/12 12:47
KHIO 121247Z 00000KT 10SM SCT044 BKN110 09/04 A2981

1997/11/12 12:55
KHNB 121255Z AUTO 02004KT 10SM M01/M07 A3021 RMK AO1

1997/11/12 12:48
KHOB 121248Z 05005KT 10SM OVC008 03/02 A2992 RMK SLPNO 70002
     400890029 FIRST

1997/11/12 12:53
KHRL 121253Z 32010KT 10SM BKN007 OVC018 11/11 A2982 RMK AO2 CIG
     005V010 SLP098 T01110106

1997/11/12 12:45
KHUF 121245Z 32004KT 7SM SCT150 M04/M07 A3020

1997/11/12 12:47
KHUM 121247Z 07008KT 1SM -RA BR VV003 15/15 A2981

1997/11/12 12:45
KHVN 121245Z 27005KT 20SM OVC085 02/ A3000

1997/11/12 12:55
KHYI 121255Z AUTO 01011KT 10SM OVC025 08/06 A2986 RMK AO1
     P0002

1997/11/12 12:55
KIAG 121255Z 24013KT 12SM VCSH FEW026 SCT048 BKN075 M01/M04 A2993
     RMK SLP144 8/470 9/410 IRSLR10

1997/11/12 12:56
KILE 121256Z AUTO 02008KT 10SM OVC004 08/06 A2992 RMK AO1

1997/11/12 12:57
KILL 121257Z AUTO 19005KT 10SM CLR M12/M14 A3010 RMK AO2

1997/11/12 12:53
KIOW 121253Z AUTO 00000KT 9SM BKN042 OVC055 M03/M05 A3017 RMK AO2
     SLP226 T10331050 TSNO $

1997/11/12 12:50
KIPL 121250Z 20005KT 20SM FEW100 BKN200 17/07 A2964 RMK SLP039
     T01680074

1997/11/12 12:50
KITH 121250Z S17005KT 10SM BKN025 BKN100 M01/M02 A2988

1997/11/12 12:53
KITR 121253Z AUTO 17009KT 6SM BR OVC002 M03/M04 A2987 RMK AO2 CIG
     001V005 SLP138 T10331039 TSNO

1997/11/12 12:50
KIWA 121250Z 09004KT 20SM SCT050 14/12 A2968

1997/11/12 12:55
KIWD 121255Z AUTO 23008KT 10SM BKN012 M11/M14 A3001 RMK AO1

1997/11/12 12:53
KIXD 121253Z 11003KT 10SM OVC046 M01/M04 A3013 RMK AO2 SLP212
     T10111044 PNO $

1997/11/12 12:50
KIYK 121250Z 00000KT 20SM FEW150 08/ A2974

1997/11/12 12:56
KJAC 121256Z AUTO 03004KT 10SM CLR M14/M17 A2976 RMK AO1

1997/11/12 12:47
KJMS 121247Z 20008KT 15SM FEW110 OVC200 M07/M09 A2991 RMK SLP156
     T10721094

1997/11/12 12:48
KJST 121248Z 28010KT 7/8SM -SN BR BKN004 OVC010 M03/M03 A2994 RMK
     CIG 003V008

1997/11/12 12:45
KJXN 121245Z 27006KT 2SM -SN OVC010 M03/M04 A3004

1997/11/12 12:53
KLAA 121253Z AUTO 14008KT 8SM OVC006 M02/M03 A2990 RMK AO2 CIG
     004V008 SLP141 T10171028 FZRANO TSNO

1997/11/12 12:45
KLAF 121245Z 26005KT 10SM FEW150 M06/M09 A3019

1997/11/12 12:52
KLAR 121252Z 00000KT 8SM SCT050 BKN100 M13/M15 A2972 RMK SLP132
     T11331149

1997/11/12 12:53
KLAW 121253Z AUTO 03013KT 10SM FEW012 BKN024 OVC036 02/00 A3005
     RMK AO2 SLP180 T00220000 TSNO

1997/11/12 12:45
KLBE 121245Z 26007KT 2SM -SN SCT011 BKN014 OVC022 00/M04 A3004 VIS
     1V3

1997/11/12 12:54
KLCI 121254Z AUTO 25007KT 10SM CLR M01/M08 A2990 RMK AO1

1997/11/12 12:47
KLEB 121247Z 00000KT 25SM SCT100 M03/M06 A2993

1997/11/12 12:55
KLEW 121255Z AUTO 00000KT 10SM CLR M02/M07 A2986 RMK AO1

1997/11/12 12:53
KLHQ 121253Z AUTO 28007KT 6SM HZ CLR M02/M07 A3013 RMK AO2 SLP212
     T10221067 TSNO

1997/11/12 12:48
KLNR 121248Z 27006KT 10SM FEW100 M08/M12 A3015

1997/11/12 12:51
KLOL 121251Z 00000KT 6SM FZFG FEW048 SCT080 M03/M04 A2981 RMK VIS
     E-SW 1 1/2 SLP105

1997/11/12 12:52
KLOU 121252Z 32003KT 7SM SCT120 BKN250 02/M06 A3020

1997/11/12 12:53
KLOZ 121253Z 33003KT 10SM OVC033 03/M01 A3013 RMK AO2 SLP208
     T00281011 $

1997/11/12 12:46
KLRD 121246Z 31008KT 5SM OVC003 09/07 A2985

1997/11/12 12:50
KLSE 121250Z 29006KT 15SM FEW020 FEW100 M10/M13 A3017

1997/11/12 12:53
KLUK 121253Z 34005KT 10SM CLR M01/M08 A3020 RMK AO2 SLP229
     T10061078

1997/11/12 12:52
KLVM 121252Z 31011KT 15SM FEW100 M13/M15 A2979 RMK SLP158 FIRST LO
     TEMP 21142 410661122

1997/11/12 12:54
KLWC 121254Z AUTO 00000KT 10SM OVC085 M01/M04 A3014 RMK AO2 SLP212
     T10111039 FZRANO TSNO PNO

1997/11/12 12:56
KLWT 121256Z 12005KT 10SM CLR M09/M13 A2969 RMK AO1 SLP107

1997/11/12 12:53
KLWV 121253Z AUTO 04004KT 6SM HZ CLR M01/M05 A3021 RMK AO2 SLP234
     T10111050 TSNO

1997/11/12 12:53
KMAI 121253Z AUTO 09006KT 10SM OVC030 12/11 A3002 RMK AO2 SLP165
     T01220106 TSNO $

1997/11/12 12:55
KMBL 121255Z AUTO 29013G19KT 10SM SCT035 BKN044 M02/M09 A3003 RMK
     AO1

1997/11/12 12:51
KMBS 121251Z 28006KT 12SM FEW025 BKN250 M04/M06 A3000 RMK SLP168
     T10421056

1997/11/12 12:46
KMCB 121246Z 07008KT 11/2SM RA BR BKN006 OVC025 11/10 A2993 RMK
     SLP133

1997/11/12 12:53
KMCK 121253Z AUTO 12008KT 6SM BR OVC007 M02/M03 A3000 RMK AO2
     SLP181 T10171033 TSNO PNO $

1997/11/12 12:50
KMDT 121250Z 28010KT 12SM FEW060 BKN110 05/M04 A3002 RMK
     SLP168

1997/11/12 12:52
KMEM 121252Z 06010KT 7SM RA- OVC035 06/04 A3009 RMK RAB1155 SLP190
     T00620044

1997/11/12 12:53
KMFE 121253Z 32006KT 7SM OVC009 11/11 A2984 RMK AO2 CIG 005V011
     SLP103 T01110106

1997/11/12 12:53
KMGY 121253Z AUTO 28005KT 6SM HZ CLR M03/M07 A3014 RMK AO2 SLP215
     T10281072 TSNO

1997/11/12 12:55
KMHR 121255Z 00000KT 1/4SM FG SCT000 06/06 A2979 RMK VIS SW 1/2 FG
     SCT000

1997/11/12 12:50
KMIE 121250Z 24010KT 7SM SKC M06/M08 A3013

1997/11/12 12:53
KMIW 121253Z AUTO 02004KT 10SM CLR M08/M09 A3015 RMK AO2 SLP224
     T10781094 FZRANO TSNO

1997/11/12 12:53
KMKO 121253Z AUTO 36008KT 4SM -RA BR OVC008 04/04 A3009 RMK AO2
     SLP191 P0006 T00440044 TSNO

1997/11/12 12:53
KMLC 121253Z AUTO 01007KT 4SM -RA BR OVC002 05/05 A3004 RMK AO2
     SLP172 P0000 T00500050 TSNO $

1997/11/12 12:50
KMLS 121250Z 00000KT 10SM FEW130 SCT200 M10/M12 A2980 RMK
     SLP131

1997/11/12 12:55
KMNM 121255Z AUTO 28005KT 10SM CLR M08/M13 A3004 RMK AO1

1997/11/12 12:46
KMOT 121246Z 21018KT 20SM OVC100 M03/M08 A2972

1997/11/12 12:45
KMQI 121245Z 00000KT 7SM BKN065 12/06 A3007

1997/11/12 12:51
KMQT 121251Z 28008KT 10SM OVC038 M08/M11 A2995 RMK SLP171
     T10781106

1997/11/12 12:50
KMQY 121250Z 00000KT 10SM SCT025 OVC085 04/02 A3013

1997/11/12 12:55
KMRF 121255Z AUTO 00000KT 1/4SM OVC001 06/05 A2986 RMK AO1

1997/11/12 12:53
KMTJ 121253Z AUTO 00000KT M1/4SM FZFG VV001 M01/M01 A2979 RMK AO2
     SLP079 T10061006 TSNO

1997/11/12 12:55
KMTW 121255Z AUTO 29008KT 10SM CLR M07/M11 A3008 RMK AO1

1997/11/12 12:57
KMVE 121257Z AUTO 18004KT 10SM CLR M12/M13 A3009 RMK AO2

1997/11/12 12:55
KMVN 121255Z AUTO 05005KT 10SM CLR M01/M06 A3023 RMK AO1

1997/11/12 12:45
KMWA 121245Z 03006KT 10SM OVC080 01/ A3019

1997/11/12 12:45
KMWC 121245Z 29008KT 10SM SKC M08/ A3012

1997/11/12 12:56
KOAJ 121256Z AUTO 04004KT 3SM CLR 07/04 A3006 RMK AO1

1997/11/12 12:50
KOAK 121250Z 05005KT 15SM SCT200 11/08 A2980 RMK T01110078 0117
     0111

1997/11/12 12:55
KOCH 121255Z AUTO 04004KT 3SM OVC006 10/08 A2987 RMK AO1 P0006

1997/11/12 12:53
KOGB 121253Z AUTO 00000KT 5SM BR FEW110 07/06 A3007 RMK AO2 PRESFR
     SLP182 T00720061 TSNO

1997/11/12 12:53
KOJC 121253Z 11003KT 10SM OVC048 M01/M05 A3012 RMK AO2 SLP196
     T10111050 PNO $

1997/11/12 12:53
KONO 121253Z AUTO 00000KT 9SM CLR M06/M06 A2986 RMK AO2 SLP132
     T10561061 FZRANO TSNO

1997/11/12 12:48
KONT 121248Z 00000KT 10SM OVC060 15/10 A2967

1997/11/12 12:45
KOQU 121245Z 30005KT 15SM FEW090 BKN130 01/ A2999

1997/11/12 12:53
KOSU 121253Z AUTO 27007KT 7SM CLR M04/M07 A3012 RMK AO2 SLP210
     T10391072 TSNO

1997/11/12 12:57
KOWA 121257Z AUTO 22005KT 10SM CLR M11/M13 A3010 RMK AO2

1997/11/12 12:45
KOWB 121245Z 030010Z 7SM BKN100 01/ A3023

1997/11/12 12:45
KOWD 121245Z VRB03KT 7SM SCT160 M01/ A2996

1997/11/12 12:56
KOXC 121256Z AUTO 00000KT 10SM SCT029 BKN038 OVC049 M01/M06 A2994
     RMK AO1

1997/11/12 12:49
KPIR 121249Z 20005KT 12SM FEW250 M09/M11 A2996 RMK SLP175
     T10921112

1997/11/12 12:50
KPLN 121250Z 00000KT 10SM SCT015 SCT035 BKN080 M05/M05 A2998 RMK
     SNE20 SLP164

1997/11/12 12:45
KPOU 121245Z VRB05KT 12SM BKN040 BKN070 M02/M03 A3001

1997/11/12 12:53
KPQL 121253Z AUTO 02008KT 5SM RA BR OVC017 13/12 A2992 RMK AO2
     SLP135 P0013 T01280122 TSNO $

1997/11/12 12:50
KPRB 121250Z 32004KT 10SM FEW000 09/08 A2978 RMK FU FEW000
     SLP184

1997/11/12 12:57
KPRX 121257Z AUTO 06008KT 7SM BKN006 OVC024 07/06 A2998 RMK
     AO1

1997/11/12 12:48
KPTK 121248Z 27008KT 10SM SCT060 BKN080 M03/M05 A2999

1997/11/12 12:45
KPUW 121245Z 00000KT 10SM SKC M04/M08 A2986

1997/11/12 12:56
KPVC 121256Z AUTO 30012G17KT SCT035 SCT120 03/M07 A2998 RMK
     AO1

1997/11/12 12:53
KPWA 121253Z AUTO 05010KT 10SM OVC043 01/M01 A3007 RMK AO2 PRESFR
     SLP187 T00111011 TSNO $

1997/11/12 12:58
KPWC 121258Z AUTO 21003KT 10SM CLR M12/M15 A3002 RMK AO2

1997/11/12 12:55
KPWG 121255Z AUTO 01010KT 4SM SCT004 BKN019 08/06 A2991 RMK AO1
     P0003

1997/11/12 12:53
KRBD 121253Z AUTO 04008KT 7SM RA OVC005 08/08 A2995 RMK AO2 SLP141
     P0010 T00780078 TSNO $

1997/11/12 12:55
KRKD 121255Z AUTO 29003KT 10SM CLR M03/M06 A2988 RMK AO1

1997/11/12 12:53
KRKP 121253Z AUTO 34012KT 8SM -RA BKN004 OVC017 13/13 A2980 RMK
     AO2 SLP092 P0004 T01280128 TSNO

1997/11/12 12:56
KRKS 121256Z 00000KT 10SM SCT070 M09/ A2978 RMK AO1 WEA:
     SLP136

1997/11/12 12:58
KRPD 121258Z AUTO 26005KT 10SM BKN016 M10/M12 A3009 RMK AO2

1997/11/12 12:58
KRRT 121258Z AUTO 20008G14KT 10SM BKN080 BKN090 M09/M12 A2982 RMK
     AO2

1997/11/12 12:50
KRWF 121250Z 19005KT 12SM FEW250 M13/M16 A3012 RMK SLP219
     T11331155

1997/11/12 12:57
KRYV 121257Z AUTO 29006KT 10SM CLR M07/M09 A3013 RMK AO2

1997/11/12 12:45
KSAC 121245Z 27006KT 1/16SM FG VV000 09/08 A2979

1997/11/12 12:53
KSBM 121253Z AUTO 27007KT 10SM CLR M08/M11 A3011 RMK AO2 SLP207
     T10831106 TSNO

1997/11/12 12:50
KSBP 121250Z 00000KT 7SM OVC050 13/10 A2976 RMK FIRST

1997/11/12 12:45
KSCH 121245Z 00000KT 10SM OVC100 M01/M04 A2994 RMK FIRST

1997/11/12 12:47
KSDL 121247Z 13003KT 35SM BKN060 BKN100 15/09 A2968

1997/11/12 12:55
KSDY 121255Z AUTO 20011KT 10SM CLR M06/M11 A2975 RMK AO1

1997/11/12 12:50
KSFF 121250Z 23005KT 11/2SM BR SCT010 M06/M07 A2989 RMK VIS SW-W
     1/2

1997/11/12 12:56
KSFM 121256Z AUTO 25003KT 10SM CLR M03/M06 A2991 RMK AO1

1997/11/12 12:55
KSFZ 121255Z AUTO 00000KT 10SM CLR M01/M05 A2993 RMK AO1

1997/11/12 12:50
KSGR 121250Z 06004KT 2SM -RA BR BKN004 OVC008 13/ A2977

1997/11/12 12:54
KSKX 121254Z AUTO 23004KT 5SM OVC003 01/M04 A2981 RMK AO1

1997/11/12 12:53
KSLN 121253Z AUTO 00000KT 10SM FEW120 00/M02 A3010 RMK AO2 SLP202
     T00001022 TSNO

1997/11/12 12:47
KSMF 121247Z 00000KT 1/16SM R16R/1000FT FG VV001 07/07 A2978

1997/11/12 12:50
KSNS 121250Z 00000KT 35SM FEW002 09/08 A2979 RMK BR SW-N

1997/11/12 12:53
KSNY 121253Z AUTO 14009KT OVC007 M06/M08 A2986 RMK AO2 SLP153
     T10561078 TSNO $

1997/11/12 12:55
KSQI 121255Z AUTO 24003KT 10SM BKN038 M07/M11 A3019 RMK AO1

1997/11/12 12:47
KSSF 121247Z 35007KT 10SM OVC020 A2984

1997/11/12 12:56
KSUE 121256Z AUTO 30010KT 10SM SCT023 M05/M09 A3006 RMK AO1

1997/11/12 12:45
KSWF 121245Z 24007KT 15SM OVC060 00/M05 A3000

1997/11/12 12:53
KT02 121253Z AUTO 06009KT 6SM BR OVC004 14/13 A2980 RMK AO2 SLP089
     T01390133 TSNO $

1997/11/12 12:50
KTCL 121250Z 36005KT 5SM -RA OVC050 09/00 A3006 RMK FIRST

1997/11/12 12:50
KTPH 121250Z 36010KT 25SM FEW090 BKN200 M00/M02 A2975 RMK
     SLP071

1997/11/12 12:55
KTPL 121255Z 01010KT 3SM OVC004 07/07 A2991 RMK AO1 WEA: R-
     P0002

1997/11/12 12:50
KTRM 121250Z 030004T 25SM FEW060 BKN085 16/08 A2965 RMK SLP041

1997/11/12 12:50
KTVC 121250Z 28007KT 8SM -SN BKN040 OVC060 M02/M06 A3001

1997/11/12 12:53
KTWF 121253Z AUTO 00000KT 10SM SCT060 OVC070 M01/M02 A2980 RMK AO2
     SLP087 T10061022 FZRANO TSNO

1997/11/12 12:53
KTXK 121253Z AUTO 05009KT 4SM -RA BR OVC003 08/07 A2998 RMK AO2
     SLP152 P0004 T00780072 TSNO

1997/11/12 12:59
KTZR 121259Z AUTO 28003KT 7SM CLR M03/M05 A3013 RMK AO2

1997/11/12 12:53
KU73 121253Z AUTO 06014KT 10SM CLR M02/M06 A2981 RMK AO2 SLP107
     T10221061 FZRANO TSNO

1997/11/12 12:47
KUNV 121247Z 29012G18KT 15SM -SNSH SCT027 BKN038 OVC048 01/M06
     A2994

1997/11/12 12:53
KUTS 121253Z AUTO 36007KT 350V050 2 1/2SM RA BR OVC002 11/11 A2985
     RMK AO2 CIG 001V005 SLP106 P0008 T01110106 TSNO

1997/11/12 12:53
KVIH 121253Z AUTO 11004KT 10SM OVC060 M01/M04 A3013 RMK AO2 SLP214
     T10111044 TSNO PNO

1997/11/12 12:50
KWRL 121250Z 00000KT 15SM SKC M13/M16 A2983 RMK SLP166 LO M13.8
     FIRST T11351162

1997/11/12 12:54
KWVL 121254Z AUTO 32004KT 10SM CLR M02/M07 A2985 RMK AO1

1997/11/12 12:50
KYIP 121250Z 28012KT 8SM BKN041 A3004

1997/11/12 12:50
KZZV 121250Z 26009KT 7SM SCT030 OVC040 00/M05 A3010 RMK SLP202

1997/11/12 12:53
PASI 121253Z 02004KT 10SM CLR 03/02 A2986 RMK AO2 SLP109
     T00280017

1997/11/12 12:52
PAJV 121252Z 08006KT 5SM BR SCT020 OVC045 01/M05 A2955 RMK
     NOSPECI

1997/11/12 12:54
PASX 121254Z AUTO 08004KT 10SM SCT026 BKN034 BKN039 03/M01 A2946
     RMK AO1 P0001

1997/11/12 12:54
PADU 121254Z AUTO 00000KT 10SM SCT026 SCT042 01/M02 A2966 RMK
     AO1

1997/11/12 12:54
PAGS 121254Z AUTO 00000KT 10SM SCT006 OVC041 01/00 A2993 RMK
     AO1

1997/11/12 12:54
PAEN 121254Z VRB05 10 -RA SCT025 BKN110 04/02 A2949 RMK SLP980

1997/11/12 12:55
PASD 121255Z AUTO 00000KT 10SM CLR 01/M04 A2958 RMK AO1

1997/11/12 12:54
PATG 121254Z AUTO 27009KT 10SM SCT016 01/M02 A2942 RMK AO1

1997/11/12 12:54
PASK 121254Z AUTO 09006KT 10SM BKN075 01/M01 A2937 RMK AO1

1997/11/12 12:54
PAFM 121254Z AUTO 14010G16KT 10SM FEW070 02/M23 A2938 RMK AO1

1997/11/12 12:54
PAJC 121254Z AUTO 26011G22KT 10SM SCT060 03/M06 A2950 RMK AO1

1997/11/12 12:54
PAFE 121254Z AUTO 00000KT 10SM SCT024 OVC040 04/03 A2990 RMK
     AO1

1997/11/12 12:54
PAMD 121254Z AUTO 15014KT 10SM BKN015 07/03 A2965 RMK AO1

1997/11/12 12:54
PAPG 121254Z AUTO 00000KT 5SM SCT005 BKN049 05/04 A2989 RMK
     AO1

1997/11/12 12:54
PAWG 121254Z AUTO 30005KT 10SM SCT006 BKN050 04/03 A2988 RMK
     AO1

1997/11/12 12:50
KACV 121250Z 09006KT 10SM SKC 07/06 A2978 RMK SLP085 T00710056

1997/11/12 12:55
KAFJ 121255Z AUTO 28005KT 10SM BKN019 BKN023 M01/M03 A3005 RMK
     AO1

1997/11/12 12:50
KAGC 121250Z 30006KT 5SM -SN BR BKN020 OVC045 M01/M03 A3004 RMK
     70009

1997/11/12 12:55
KARG 121255Z AUTO 03011KT 10SM OVC041 03/M02 A3014 RMK AO1

1997/11/12 12:53
KARR 121253Z 00000KT 12SM BKN045 M08/M10 A3019

1997/11/12 12:55
KAUO 121255Z AUTO 03004KT 9SM FEW046 SCT065 BKN070 08/04 A3007 RMK
     AO1

1997/11/12 12:54
KAWO 121254Z AUTO 00000KT 1/4SM VV002 M03/M04 A2984 RMK AO1

1997/11/12 12:55
KBFI 121255Z 00000KT 4SM BR SCT005 03/03 A2986

1997/11/12 12:56
KBJI 121256Z AUTO 20008KT 10SM CLR M13/M18 A2994 RMK AO1

1997/11/12 12:56
KBKX 121256Z AUTO 20004KT 10SM CLR M13/M17 A3005 RMK AO1

1997/11/12 12:55
KBLM 121255Z AUTO 00000KT 10SM SCT070 BKN110 02/M04 A2999 RMK
     AO1

1997/11/12 12:56
KBVX 121256Z AUTO 03003KT 10SM SCT026 OVC037 03/M02 A3011 RMK AO1
     P0002

1997/11/12 12:56
KCEC 121256Z AUTO 10006KT 10SM CLR 07/04 A2978 RMK AO1

1997/11/12 12:55
KCGZ 121255Z AUTO 00000KT 10SM CLR 13/07 A2969 RMK AO1

1997/11/12 12:55
KCMA 121255Z AUTO 00000KT 10SM BKN047 OVC060 14/10 A2973 RMK
     AO1

1997/11/12 12:56
KCOE 121256Z AUTO 09007KT 10SM CLR M03/M06 A2986 RMK AO1

1997/11/12 12:56
KCVO 121256Z AUTO 00000KT 7SM SCT011 BKN065 09/06 A2978 RMK
     AO1

1997/11/12 12:50
KDET 121250Z 27010KT 5SM -SN OVC025 00/M04 A3001

1997/11/12 12:55
KDTL 121255Z AUTO 21009KT 7SM CLR M11/M14 A2996 RMK AO1

1997/11/12 12:55
KDYR 121255Z AUTO 05008KT 10SM OVC040 04/M01 A3015 RMK AO1

1997/11/12 12:56
KEAT 121256Z 00000KT 10SM CLR M02/M08 A2989 RMK AO1 SLP132

1997/11/12 12:55
KEKO 121255Z 00000KT 10SM BKN019 OVC033 01/M02 A2977 RMK AO1
     SLP082

1997/11/12 12:55
KENV 121255Z AUTO 00000KT 10SM OVC020 04/02 A2977 RMK AO1

1997/11/12 12:56
KEUL 121256Z AUTO 00000KT 2SM CLR M04/M04 A2984 RMK AO1

1997/11/12 12:56
KEWK 121256Z AUTO 15005KT 10SM SCT004 BKN040 BKN055 M02/M02 A3009
     RMK AO1

1997/11/12 12:48
KF39 121248Z 01006KT 4SM -RA OVC005 07/06 A2997

1997/11/12 12:50
KFDY 121250Z 22007KT 10SM SKC M04/M08 A3008 RMK SLP196

1997/11/12 12:50
KFLV 121250Z 00000KT 15SM OVC100 M02/ A3014

1997/11/12 12:50
KFMY 121250Z 09006KT 5SM BR SCT120 19/17 A3003

1997/11/12 12:56
KFOD 121256Z AUTO 10005KT 10SM OVC015 M08/M11 A3013 RMK AO1

1997/11/12 12:55
KGAD 121255Z AUTO 00000KT 7SM CLR 06/02 A3014 RMK AO1

1997/11/12 12:56
KAST 121256Z AUTO 09003KT 10SM SCT080 OVC110 09/05 A2977 RMK AO2
     SLP081 T00890050 TSNO $

1997/11/12 12:56
KHVR 121256Z AUTO 00000KT 10SM CLR M07/M09 A2972 RMK AO2 SLP103
     T10721094 TSNO $

1997/11/12 12:56
KBFL 121256Z 35003KT 9SM SCT033 SCT075 BKN110 11/11 A2976 RMK AO2
     SLP076 T01110106

1997/11/12 12:53
KPSX 121253Z 31010KT 290V350 2 1/4SM -DZ BR OVC004 15/14 A2980 RMK
     SHRAB05E30 DZB30 SLP091

1997/11/12 12:56
KSXT 121256Z AUTO 11007KT 1/4SM FG FEW001 OVC037 04/04 A2976 RMK
     AO2 SLP081 T00390039 TSNO

1997/11/12 12:56
KSCK 121256Z 00000KT M1/4SM FG VV001 11/11 A2979 RMK AO2 SLP086
     T01110111

1997/11/12 12:57
KCLI 121257Z AUTO 00000KT 10SM CLR M09/M09 A3009 RMK AO2

1997/11/12 12:50
KCNM 121250Z 18006KT 1SM BR BKN009 OVC030 04/04 A2990 RMK
     SLP116

1997/11/12 12:50
KGCC 121250Z 17006KT 20SM SKC M11/M14 A2975 RMK FIRST

1997/11/12 12:50
KJLN 121250Z 06008KT 2 1/2SM -SN BR OVC003 01/00 A3011 RMK SLP202
     T00060001

1997/11/12 12:50
KMCW 121250Z 00000KT 12SM SCT030 M09/M13 A3014 RMK SLP229
     T10941128

1997/11/12 12:50
KOTM 121250Z 23005KT 7SM OVC040 M03/M06 A3016 RMK SLP223
     T10331056

1997/11/12 12:50
PATK 121250Z 03009KT 7SM OVC085 01/M05 A2955 RMK SLP012 NOSPECI
     T00141050

1997/11/12 12:53
PADQ 121253Z 20008KT 10SM CLR 04/02 A2944 RMK AO2 SLP971
     T00440017

1997/11/12 12:53
PASN 121253Z AUTO 24017KT 10SM CLR 01/M02 A2940 RMK AO2 SLP956
     T00061017 TSNO $

1997/11/12 12:49
PACV 121249Z 06004KT 6SM -RA BR BKN023 OVC029 04/03 A2970 RMK
     SLP058

1997/11/12 12:53
PAYA 121253Z 09007KT 6SM -RA BR FEW012 BKN017 OVC025 05/04 A2984
     RMK AO2 SLP102 P0007 T00500044

1997/11/12 12:56
KSDM 121256Z AUTO 15005KT 10SM CLR 12/10 A2968 RMK AO2 SLP047
     T01220100 TSNO

1997/11/12 12:56
KOLM 121256Z 00000KT 1/4SM FG VV001 00/00 A2983 RMK AO2 SLP101
     T00000000 $

1997/11/12 12:56
KBIH 121256Z AUTO 31005KT 10SM OVC065 04/02 A2975 RMK AO2 SLP060
     T00440017 TSNO

1997/11/12 12:54
KDTW 121254Z COR 24012KT 7SM SCT023 OVC044 M01/M06 A3004 RMK AO2
     SNB11E22 SLP180 P0000 T10111056

1997/11/12 12:56
KFAT 121256Z AUTO 29004KT 10SM CLR 09/08 A2977 RMK AO2 SLP080
     T00940083 TSNO

1997/11/12 12:50
PABT 121250Z 32005KT 25SM FEW060 SCT080 OVC120 M12/M13 A2951 RMK
     OVC IS PR THIN SLP008

1997/11/12 12:53
PADQ 121253Z 20008KT 10SM CLR 04/02 A2944 RMK AO2 SLP971
     T00440017

1997/11/12 12:53
PASN 121253Z AUTO 24017KT 10SM CLR 01/M02 A2940 RMK AO2 SLP956
     T00061017 TSNO $

1997/11/12 12:51
PAMC 121251Z 26003KT 25SM FEW080 BKN100 BKN210 M04/M04 A2935 RMK
     SLP949 T10371042

1997/11/12 12:50
PAOM 121250Z 08009KT 5SM BR SCT003 BKN011 OVC021 M01/M02 A2925 RMK
     SLP905 T10131019 3ST2ST3SC

1997/11/12 12:50
KAID 121250Z 27005KT 12SM FEW200 M04/ A3015

1997/11/12 12:53
KBZN 121253Z AUTO 19003KT 10SM CLR M13/M16 A2985 RMK AO2 SLP175
     T11331156 TSNO

1997/11/12 12:52
KCID 121252Z 35005KT 10SM OVC018 M05/M07 A3015 RMK AO2 SLP222
     T10501072

1997/11/12 12:53
KCLL 121253Z AUTO 35009KT 3SM RA BR BKN006 OVC012 10/09 A2986 RMK
     AO2 SLP110 P0025 T01000094 TSNO

1997/11/12 12:54
KCNU 121254Z AUTO 00000KT 1SM -SN BR FEW003 OVC007 00/M01 A3011
     RMK AO2 SLP203 P0000 T00001006 TSNO

1997/11/12 12:53
KHLC 121253Z AUTO 15006KT 10SM FEW003 OVC023 M01/M02 A3003 RMK AO2
     SLP188 T10111022 TSNO

1997/11/12 12:54
KMHK 121254Z AUTO 00000KT 10SM CLR M01/M04 A3011 RMK AO2 SLP209
     T10111039 TSNO

1997/11/12 12:53
KUIN 121253Z 00000KT 15SM FEW110 OVC180 M04/M07 A3018 RMK SLP228
     T10441067

1997/11/12 12:56
KMHS 121256Z AUTO 06003KT 10SM OVC005 04/03 A2978 RMK AO2 SLP103
     T00440028 TSNO

1997/11/12 12:53
PASN 121253Z AUTO 24017KT 10SM CLR 01/M02 A2940 RMK AO2 SLP956
     T00061017 TSNO $

1997/11/12 12:45
PAJN 121245Z 00000KT 1/4SM FG VV002 03/03 A2992 RMK T00250025

1997/11/12 12:55
KDVL 121255Z AUTO 24012KT 10SM SCT036 SCT047 OVC090 M04/M10 A2982
     RMK AO1

1997/11/12 12:56
KEAR 121256Z AUTO 07003KT 10SM OVC029 M08/M08 A3005 RMK AO1

1997/11/12 12:56
KGPZ 121256Z AUTO 00000KT 10SM CLR M13/M17 A3001 RMK AO1

1997/11/12 12:45
KSUS 121245Z VRB04KT 7SM OVC110 M00/M03 A3021

1997/11/12 12:51
KJBR 121251Z 06015KT 7SM -RA OVC040 04/00 A3011 RMK RAB18
     SLP202

1997/11/12 12:54
KGBD 121254Z AUTO 14007KT 7SM OVC006 M01/M03 A3005 RMK AO1

1997/11/12 12:47
KGGG 121247Z 04008KT 2SM RA BR OVC008 09/09 A2993

1997/11/12 12:54
KGTR 121254Z AUTO 05005KT 9SM OVC045 07/06 A3004 RMK AO1

1997/11/12 12:55
KHCD 121255Z AUTO 00000KT 7SM CLR M13/M14 A3010 RMK AO1

1997/11/12 12:55
KHEZ 121255Z AUTO 07007KT 040V100 10SM BKN006 OVC036 11/07 A2990
     RMK AO1 P0007

1997/11/12 12:56
KSLG 121256Z AUTO 05003KT 7SM OVC006 03/01 A3009 RMK AO1

1997/11/12 12:56
KSMN 121256Z AUTO 00000KT 10SM CLR M08/M11 A2989 RMK AO1

1997/11/12 12:54
KSOP 121254Z AUTO 00000KT 5SM FEW048 07/06 A3007 RMK AO1

1997/11/12 12:58
KTTF 121258Z AUTO 26005KT 5SM FG SCT075 M03/M05 A3006 RMK AO2

1997/11/12 12:47
KTYR 121247Z 04010KT -2SM RA BR SCT002 OVC036 08/07 A2996

1997/11/12 12:56
KUKI 121256Z AUTO 00000KT 4SM OVC001 06/06 A2981 RMK AO1

1997/11/12 12:55
KVBT 121255Z AUTO 04004KT 10SM OVC006 03/01 A3006 RMK AO1

1997/11/12 12:50
KWJF 121250Z 29008KT 30SM FEW095 BKN180 09/M02 A2973 RMK
     T00941019

1997/11/12 12:54
KWWD 121254Z AUTO 27006KT 10SM SCT110 07/01 A3005 RMK AO1

1997/11/12 12:55
KYKN 121255Z AUTO 00000KT 10SM SCT003 M12/M13 A3009 RMK AO1

1997/11/12 12:45
KHPN 121245Z 30006KT 10SM SCT050 OVC070 02/M03 A2996 RMK
     SLP146

1997/11/12 12:55
KHYS 121255Z AUTO 12004KT 10SM SCT036 OVC110 M02/M03 A3007 RMK
     AO1

1997/11/12 12:55
KJMR 121255Z AUTO 24003KT 7SM CLR M13/M16 A3010 RMK AO1

1997/11/12 12:56
KKLS 121256Z AUTO 00000KT 10SM CLR 01/M01 A2982 RMK AO1

1997/11/12 12:56
KLBL 121256Z AUTO 13012KT 1/2SM OVC001 M02/ A2995 RMK AO1

1997/11/12 12:55
KLGD 121255Z AUTO 19004KT 3/4SM OVC001 M01/M02 A2987 RMK AO1

1997/11/12 12:55
KLKV 121255Z AUTO 00000KT 10SM 03/01 A2977 RMK AO1 P0001

1997/11/12 12:56
KLPC 121256Z AUTO 00000KT 10SM SCT070 BKN100 12/09 A2976 RMK
     AO1

1997/11/12 12:50
KLRU 121250Z 00000KT 3SM SHRA OVC008 07/04 A2986

1997/11/12 12:55
KLXL 121255Z AUTO 17003KT 7SM CLR M13/M15 A3005 RMK AO1

1997/11/12 12:55
KMDH 121255Z 07006KT 7SM -SN OVC080 02/M02 A3019 RMK SNB30

1997/11/12 12:56
KMHE 121256Z AUTO 15005KT 10SM CLR M13/M14 A3006 RMK AO1

1997/11/12 12:47
KMHT 121247Z 00000KT 30SM SCT200 M02/M06 A2996

1997/11/12 12:55
KMJQ 121255Z AUTO 18004KT 7SM CLR M11/M13 A3009 RMK AO1

1997/11/12 12:50
KMKC 121250Z 13004KT 10SM OVC120 01/M05 A3014

1997/11/12 12:55
KMKT 121255Z AUTO 23003KT 10SM M11/M14 A3014 RMK AO1

1997/11/12 12:56
KMML 121256Z AUTO 22007KT 10SM CLR M11/M14 A3008 RMK AO1

1997/11/12 12:55
KMYR 121255Z 00000KT 10SM CLR 09/07 A3008 RMK AO1 METAR KMYR
     121245Z 00000KT 7SM BKN150 09/07 A3007

1997/11/12 12:56
KOAJ 121256Z AUTO 04004KT 3SM CLR 07/04 A3006 RMK AO1

1997/11/12 12:55
KOCF 121255Z AUTO 00000KT 10SM OVC036 16/12 A3005 RMK AO1

1997/11/12 12:54
KOFP 121254Z AUTO 21005KT 7SM OVC060 06/03 A3006 RMK AO2 SLP179
     T00610033 TSNO

1997/11/12 12:56
KOLU 121256Z AUTO 00000KT 1/2SM OVC001 M08/M08 A3012 RMK AO1

1997/11/12 12:55
KONA 121255Z AUTO 32003KT 7SM CLR M12/M14 A3016 RMK AO1

1997/11/12 12:58
KORB 121258Z AUTO 17003KT 10SM CLR M15/M16 A2995 RMK AO2

1997/11/12 12:55
KOTG 121255Z AUTO 00000KT 10SM SCT021 M12/M13 A3010 RMK AO1

1997/11/12 12:55
KOTH 121255Z 16006KT 10SM OVC065 09/08 A2977 RMK AO1 SLP081

1997/11/12 12:56
KPIB 121256Z AUTO 04006KT 4SM BKN006 OVC036 10/08 A2998 RMK AO1
     P0005

1997/11/12 12:45
KPLB 121245Z 00000KT 20SM BKN090 M05/M06 A2991

1997/11/12 12:56
KPTN 121256Z AUTO 03012G21KT 4SM SCT007 BKN011 BKN017 14/12 A2984
     RMK AO1 P0031

1997/11/12 12:56
KPTV 121256Z AUTO 00000KT 10SM SCT055 11/08 A2977 RMK AO1

1997/11/12 12:56
KPVU 121256Z AUTO 00000KT 10SM BKN019 OVC039 03/01 A2978 RMK
     AO1

1997/11/12 12:55
KPWT 121255Z AUTO 00000KT 1 3/4SM CLR M01/M03 A2983 RMK AO1

1997/11/12 12:55
KRDM 121255Z AUTO 00000KT 10SM OVC014 04/01 A2981 RMK AO1

1997/11/12 12:59
KRMY 121259Z AUTO 27005KT 2SM -SN FG BKN009 OVC017 M04/M04 A3005
     RMK AO2

1997/11/12 12:56
KROG 121256Z AUTO 06008KT 10SM OVC005 02/00 A3007 RMK AO1

1997/11/12 12:58
KRRT 121258Z AUTO 20008G14KT 10SM BKN080 BKN090 M09/M12 A2982 RMK
     AO2

1997/11/12 12:50
KSBA 121250Z 05005KT 7SM SCT030 BKN065 OVC100 13/12 A2975

1997/11/12 12:56
KSFB 121256Z AUTO 08003KT 10SM SCT046 BKN110 16/12 A3007 RMK
     AO1

1997/11/12 12:56
KSGJ 121256Z AUTO 00000KT 8SM CLR 14/12 A3007 RMK AO1

1997/11/12 12:55
KSGT 121255Z AUTO 04010KT 1SM OVC039 06/05 A3004 RMK AO1

1997/11/12 12:55
KSGU 121255Z AUTO 00000KT 10SM CLR 05/01 A2978 RMK AO1

1997/11/12 12:56
KPGA 121256Z AUTO 00000KT 10SM CLR 03/01 A2976 RMK AO2 SLP063
     T00280011 TSNO $

1997/11/12 12:56
KAMA 121256Z 14008KT 1/4SM BR VV001 M01/M01 A2994 RMK AO2 SFC VIS
     3/4 SNB09E53 SLP146 P0000 T10061011

1997/11/12 12:58
KCFV 121258Z AUTO 01005KT 1 1/2SM -SN BR FEW006 OVC014 00/00 A3012
     RMK AO2 P0000 TSNO

1997/11/12 12:58
KFZY 121258Z AUTO 16005KT 1SM -SN BR BKN012 OVC017 M01/M03 A2987
     RMK AO2 P0000 TSNO

1997/11/12 12:57
KMLF 121257Z AUTO 00000KT 2SM BR BKN001 BKN017 M02/M03 A2977 RMK
     AO2 TSNO

1997/11/12 12:50
EBAW 121250Z 30002KT 3000 BR FEW050 SCT100 BKN200 09/07 Q1001

1997/11/12 12:50
EBBR 121250Z 33004KT 6000 FEW060 BKN200 08/06 Q1001 NOSIG

1997/11/12 12:50
EBCI 121250Z 36002KT 3500 BR SCT006 BKN035 08/07 Q1000

1997/11/12 12:50
EBOS 121250Z 17002KT 3000 BR SCT008 09/07 Q1001

1997/11/12 12:50
ELLX VRB01KT 3500 -RA SCT006 BKN015 07/05 Q0999 NOSIG

1997/11/12 12:50
EDDF 15002KT 9999 -RA FEW045 SCT070 OVC110 08/06 Q0998 NOSIG

1997/11/12 12:50
EDDH 05007KT CAVOK 09/04 Q1000 NOSIG

1997/11/12 12:50
EDDK 32004KT 300V360 9999 SCT011 BKN050 BKN130 09/07 Q0999 TEMPO
     4000 BKN009

1997/11/12 12:50
EDDL 32005KT 7000 FEW005 BKN046 09/07 Q0999 NOSIG

1997/11/12 12:50
EDDM 27011KT 9999 FEW040 OVC100 07/03 Q0997 NOSIG

1997/11/12 12:50
EDDN 32003KT CAVOK 07/04 Q0998 NOSIG

1997/11/12 12:50
EDDS 16002KT 6000 RA FEW007 SCT021 OVC100 07/06 Q0997 TEMPO
     BKN007

1997/11/12 12:50
EDDW 05008KT 9999 FEW040 SCT070 BKN140 09/05 Q0999 NOSIG

1997/11/12 12:50
EDHL 06007KT 7000 FEW022 SCT070 BKN090 08/04 Q1002

1997/11/12 12:50
EDLN 31005KT 7000 BKN042 08/07 Q1000

1997/11/12 12:50
EDLP 28003KT CAVOK 08/04 Q0998

1997/11/12 12:50
EDLW 31004KT CAVOK 08/06 Q0999

1997/11/12 12:50
EDMA 26007KT 8000 FEW045 BKN100 06/04 Q0997

1997/11/12 12:50
EDVE 09006KT 7000 FEW035 SCT050 BKN080 08/02 Q0998

1997/11/12 12:50
EDDG 33006KT 9999 FEW020 BKN080 BKN240 09/07 Q0999 NOSIG

1997/11/12 12:50
EDDI 08010KT 3700 BR BKN004 05/04 Q1001 NOSIG

1997/11/12 12:50
EDDR 25004KT 2000 -DZ BR BKN003 OVC013 07/06 Q0999 NOSIG

1997/11/12 12:50
EDDT 09009KT 5000 BR FEW005 BKN006 06/04 Q1000 BECMG 4000
     BKN005

1997/11/12 12:50
EDDV 09004KT 7000 BR FEW010 BKN050 OVC120 07/04 Q0999 NOSIG

1997/11/12 12:50
EDDW 05008KT 9999 FEW040 SCT070 BKN140 09/05 Q0999 NOSIG

1997/11/12 12:50
EDNY 23005KT 4000 RA BKN010 06/06 Q0999

1997/11/12 12:50
EDVK VRB02KT 9999 SCT048 BKN120 07/04 Q0997

1997/11/12 12:50
EDXW 15007KT 8000 FEW040 BKN090 06/06 Q1002

1997/11/12 12:50
EKVA 12004KT CAVOK 08/07 Q1003 RMK SCT050 SCT130 BKN200

1997/11/12 12:50
LOWG 121250Z 16011KT 9999 FEW030 SCT050 16/10 Q1003 NOSIG

1997/11/12 12:50
LOWI 121250Z 06008KT 030V110 9999 -RA FEW040 SCT050 BKN070 10/06
     Q0998 NOSIG

1997/11/12 12:50
LOWK 121250Z VRB02KT 9999 -RA FEW005 SCT040 BKN060 10/09 Q1004
     RERA WS TEMPO 4000 TSRA

1997/11/12 12:50
LOWL 121250Z 10008KT CAVOK 15/05 Q0997 NOSIG

1997/11/12 12:50
LOWS 121250Z VRB01KT 9999 FEW060 SCT130 BKN250 15/08 Q0996
     NOSIG

1997/11/12 12:50
LOWW 121250Z 17021KT 9999 FEW030 SCT140 BKN300 17/09 Q1002
     NOSIG

1997/11/12 12:50
EETN 16004KT 8000 OVC009 04/04 Q1016 TEMPO BKN003 09190060

1997/11/12 12:50
EVRA 121250Z 12005KT 6000 FEW007 OVC024 05/04 Q1014 NOSIG
     36290150

1997/11/12 12:50
EYVI 121250Z 12008KT 8000 BKN013 09/07 Q1015 NOSIG 201///55

1997/11/12 12:45
MMPR 121245Z 00000KT P6SM SCT100 SCT200 22/22 A2987 RMK 03890 CU
     DIST SW

1997/11/12 12:45
MMAS 121245Z 00000KT P6SM OVC020 13/M A3014 RMK 1///9

1997/11/12 12:45
MMZC 121245Z 18010KT P6SM SCT030 BKN090 10/M A3000 RMK 33099

1997/11/12 12:55
EHAM 121255Z VRB02KT 0400 R19R/0750V1100U R27/0800D R01R/0225N
     R06/0250V0375N FG BKN002 07/07 Q1000 BECMG 0800

1997/11/12 12:55
EHBK 121255Z 35004KT 9999 FEW028 BKN060 BKN100 08/07 Q1000 TEMPO
     7000

1997/11/12 12:55
EHEH 121255Z 32003KT 3500 R22/2900 BR FEW005 BKN220 08/08
     Q1000

1997/11/12 12:55
EHGG 121255Z VRB03KT 9000 FEW010 BKN250 09/08 Q1000 NOSIG

1997/11/12 12:55
EHKD 121255Z 25004KT 4500 BR FEW007 SCT024 10/10 Q1000 GRN GRN
     BECMG WHT

1997/11/12 12:55
EHRD 121255Z VRB02KT 0150 R24/0225N R06/0250V0350N FG VV003 06/06
     Q1001 BECMG 0400

1997/11/12 12:50
ENAT 16009KT 6000 -SN VV020 M05/M08 Q1011

1997/11/12 12:50
ENBN 12014KT CAVOK 06/M00 Q1004

1997/11/12 12:50
ENBV 22013KT 9999 SCT020 M05/M07 Q1011

1997/11/12 12:50
ENDI 07004KT 9000 -DZ FEW006 SCT008 BKN012 01/01 Q1000

1997/11/12 12:50
ENEK 23016KT 9999 SCT015TCU 10/07 Q0997

1997/11/12 12:50
ENEV 14003KT 9999 FEW050 M00/M07 Q1008

1997/11/12 12:50
ENFG VRB03KT 1000S BCFG FEW001 BKN010 01/01 Q1002

1997/11/12 12:50
ENFL 11013KT 9999 FEW040 BKN060 10/03 Q0999

1997/11/12 12:50
ENFR 14018KT 9999 BKN015 09/07 Q0996

1997/11/12 12:50
ENGC 16029KT 9999 VCSH SCT012 BKN017 09/07 Q0996

1997/11/12 12:50
ENHF 24004KT 9999 VCSN FEW015 BKN040 M04/M06 Q1009

1997/11/12 12:50
ENHV 23019KT 200V260 9999 FEW012 BKN040 M04/M07 Q1009

1997/11/12 12:50
ENLK 09003KT 9999 FEW025 SCT0560 04/00 Q1006

1997/11/12 12:50
ENMH 20015KT 9999 SCT025 M06/M08 Q1010

1997/11/12 12:50
ENMS VRB02KT 9999 FEW035 BKN045 M00/M07 Q1006

1997/11/12 12:50
ENNK 06009KT CAVOK M00/M06 Q1007

1997/11/12 12:50
ENNO 31002KT 9999 RA FEW004 BKN020 04/--Q1004

1997/11/12 12:50
ENOV 09004KT 020V140 9999 FEW050 SCT070 10/06 Q1000

1997/11/12 12:50
ENRA 08011KT 030V150 9999 FEW040 BKN070 02/M06 Q1008

1997/11/12 12:50
ENRM 13012KT CAVOK 06/01 Q1003

1997/11/12 12:50
ENRO 15008KT 9999 SCT014 BKN020 03/M01 Q1003

1997/11/12 12:50
ENRS 13006KT CAVOK 05/02 Q1005

1997/11/12 12:50
ENSD VRB02KT 9999 FEW045 SCT080 08/02 Q1000

1997/11/12 12:50
ENSG 06006KT 9999 FEW025 BKN035 05/M02 Q1001

1997/11/12 12:50
ENSH 07011KT 9999 FEW050 04/M03 Q1006

1997/11/12 12:50
ENSK 06008KT CAVOK 02/M03 Q1006

1997/11/12 12:50
ENSN 12004KT 8000 -RA SCT003 BKN012 06/06 Q1003

1997/11/12 12:50
ENSR 15007KT 9999 -SN FEW018 BKN030 M04/M09 Q1010

1997/11/12 12:50
ENST 11007KT 040V150 9999 FEW050 SCT070 06/01 Q1004

1997/11/12 12:50
ENVD 24011KT 200V260 9999 FEW020 BKN040 M04/M09 Q1012

1997/11/12 12:46
PMDY 121246Z 06016KT 10SM BKN016 BKN021 BKN048 21/18 A3008

1997/11/12 12:50
LSGG 121250Z 25004KT 9999 -SHRA FEW008 SCT020 BKN050 05/04 Q1002
     NOSIG

1997/11/12 12:50
LSZA 121250Z 02003KT 9999 -RA SCT007 BKN020 OVC035 06/06 Q1000
     TEMPO NOSIG

1997/11/12 12:50
LSZH 121250Z 28008KT 7000 RA FEW005 BKN012 OVC030 05/05 Q1000 WS
     RWY14 NOSIG

1997/11/12 12:50
EGBJ 30002KT 6000 FEW010 FEW020 09/08 Q1002

1997/11/12 12:45
KU78 121245Z 12018KT 20SM OVC060 M02/M03 RMK SLPNO NOSPECI
     FIRST

1997/11/12 12:59
KAVC 121259Z AUTO 00000KT 7SM OVC048 08/04 A3011 RMK AO1

1997/11/12 12:55
KBLI 121255Z VRB03KT 15SM SKC 02/02 A2982

1997/11/12 12:49
KBVI 121249Z 28008KT 5SM BR SCT010 SCT050 M02/M08 A3005 RMK
     SNE38

1997/11/12 12:59
KFKN 121259Z AUTO 00000KT 10SM SCT050 OVC065 09/07 A3007 RMK
     AO1

1997/11/12 12:59
KFVX 121259Z AUTO 00000KT 7SM OVC060 05/04 A3006 RMK AO1

1997/11/12 12:59
KHLX 121259Z AUTO 28008KT 10SM BKN026 03/M02 A3005 RMK AO1

1997/11/12 12:59
KHSP 121259Z AUTO 29016G26KT 10SM SCT023 M01/M07 A2995 RMK AO1

1997/11/12 12:53
KLNP 121253Z AUTO 00000KT 10SM BKN021 BKN026 OVC032 02/M01 A3006
     RMK AO1

1997/11/12 13:00
KMWM 121300Z AUTO 00000KT 10SM CLR M14/M15 A3009 RMK AO2

1997/11/12 12:59
KONZ 121259Z AUTO 26006KT 7SM SCT029 SCT037 BKN050 M02/M03 A3002
     RMK AO2

1997/11/12 12:59
KPGV 121259Z AUTO 00000KT 4SM CLR 08/06 A3009 RMK AO2

1997/11/12 12:59
PAWR 121259Z 12010KT 3SM -RA BR OVC035 03/03 A2966 RMK SLP044
     NOSPECI

1997/11/12 12:50
PAGK 121250Z AUTO 33004KT M11/M16 A2959 RMK AO1 649 T11061161

1997/11/12 12:55
PABA 121255Z AUTO 21010KT 10SM CLR M03/M07 A2946 RMK AO1
     T10281066

1997/11/12 12:53
KELY 121253Z AUTO 21005KT 10SM OVC036 M01/M02 A2977 RMK AO2 SLP071
     T10061017 TSNO $

1997/11/12 12:56
KWMC 121256Z AUTO 00000KT 1/4SM FZFG SCT038 OVC080 M02/M02 A2979
     RMK AO2 SLP094 T10221022 TSNO $

1997/11/12 12:56
KLND 121256Z 30005KT 10SM CLR M12/M14 A2977 RMK AO2 SLP140
     T11221144

1997/11/12 12:56
KSLE 121256Z 00000KT 8SM BKN028 OVC110 08/07 A2978 RMK AO2 SLP086
     T00780067

1997/11/12 12:56
KPDX 121256Z 00000KT 9SM BKN060 BKN110 06/03 A2983 RMK AO2 SLP100
     T00610028

1997/11/12 12:48
K77M 121248Z 36007KT 5SM -SHSN BR VV009 01/00 RMK SLPNO
     NOSPECI

1997/11/12 12:56
KINW 121256Z AUTO 14004KT 10SM BKN042 OVC110 05/03 A2976 RMK AO2
     SLP058 T00500028 TSNO $

1997/11/12 12:53
KPSX 121253Z COR 31010KT 290V350 2SM -DZ BR OVC004 15/14 A2980 RMK
     SHRAB05E30 DZB30 SLP091

1997/11/12 12:58
K22G 121258Z AUTO 25012KT 1 1/2SM -SN FEW021 BKN039 OVC065 M03/M06
     A3007 RMK AO2 SNB56 P0000 TSNO

1997/11/12 12:58
KHTL 121258Z 01003KT 1 3/4SM -SN BR FEW020 BKN041 OVC055 M04/M05
     A2998 RMK AO2 P0000 $

1997/11/12 13:00
KHTL 121300Z 01004KT 4SM -SN BR SCT020 BKN043 OVC055 M04/M05 A2998
     RMK AO2 P0000 $

1997/11/12 12:59
KMLF 121259Z AUTO 00000KT 1 1/2SM BR BKN001 BKN017 M02/M02 A2977
     RMK AO2 TSNO

1997/11/12 12:58
KANB 121258Z 11006KT 4SM BR OVC090 07/05 A3010 RMK SLP197

1997/11/12 13:00
KPSK 121300Z AUTO 28005KT 10SM OVC035 04/M01 A3006 RMK AO1

1997/11/12 12:50
PABI 121250Z AUTO 15013KT 03/M09 A2951 RMK AO1 PK WND 30 M
     T00331094

1997/11/12 12:56
KBVO 121256Z 04005KT 3/4SM -SN BR OVC004 00/M02 A3010 RMK
     T00001017

1997/11/12 12:54
KEWN 121254Z 00000KT 6SM BR SKC 09/08 A3009 RMK AO2 SLP187
     T00890078

1997/11/12 12:59
KEZF 121259Z AUTO 00000KT 7SM CLR 03/03 A3004 RMK AO1

1997/11/12 12:57
KJYO 121257Z AUTO 00000KT 10SM OVC070 04/M01 A3003 RMK AO1

1997/11/12 13:00
KOKV 121300Z AUTO 33004KT 10SM OVC050 04/01 A3001 RMK AO1

1997/11/12 13:00
KPSK 121300Z AUTO 28005KT 10SM OVC035 04/M01 A3006 RMK AO1

1997/11/12 13:00
KSHD 121300Z AUTO 00000KT 10SM CLR 04/02 A3000 RMK AO1

1997/11/12 13:02
KMKJ 121302Z AUTO 27011G14KT 10SM OVC032 02/M03 A3008 RMK AO1

1997/11/12 13:01
KVJI 121301Z AUTO 25003KT 7SM OVC037 03/01 A3008 RMK AO1

1997/11/12 12:50
KS14 121250Z 34011KT 15SM SKC M11/M13 RMK SLPNO NOSPECI 400001122
     FIRST

1997/11/12 12:55
PAPB 121255Z AUTO 24022KT 3SM -SN BR SCT018 BKN034 OVC065 00/M02
     A2946 RMK AO2 TSNO PNO

1997/11/12 12:55
PAPB 121255Z AUTO 24022KT 3SM -SN BR SCT018 BKN034 OVC065 00/M02
     A2946 RMK AO2 TSNO PNO

1997/11/12 13:00
KF54 121300Z AUTO 04008KT 5SM RA BR BKN003 BKN025 OVC042 08/08
     A2994 RMK AO2 P0001 TSNO

1997/11/12 13:00
KWLD 121300Z AUTO 07005KT 3SM -SN BR SCT005 BKN015 OVC090 00/M01
     A3010 RMK AO2 P0000 TSNO

1997/11/12 13:00
PASN 121300Z AUTO 26013KT 10SM CLR 00/M03 A2940 RMK AO2 WSHFT 1239
     TSNO $

1997/11/12 13:00
PASN 121300Z AUTO 26013KT 10SM CLR 00/M03 A2940 RMK AO2 WSHFT 1239
     TSNO $

1997/11/12 13:00
PASN 121300Z AUTO 26013KT 10SM CLR 00/M03 A2940 RMK AO2 WSHFT 1239
     TSNO $

1997/11/12 12:50
KDWH 121250Z 01008KT 3SM -RA BR OVC006 13/13 A2983

1997/11/12 13:00
KOZW 121300Z AUTO 24004KT 7SM SCT055 M04/M07 A3002 RMK AO1

1997/11/12 12:45
KU78 121245Z 12018KT 20SM OVC060 M02/M03 RMK SLPNO NOSPECI
     FIRST

1997/11/12 12:50
KEFD 121250Z 05007KT 4SM BR OVC006 15/14 A2977

1997/11/12 12:53
KJHW 121253Z 27008KT 5SM -SN SCT010 BKN023 OVC042 M03/M06
     A2990

1997/11/12 13:00
KPHN 121300Z AUTO 22003KT 7SM CLR M03/M06 A3001 RMK AO1

1997/11/12 12:45
KU78 121245Z 12018KT 20SM OVC060 M02/M03 RMK SLPNO NOSPECI
     FIRST

1997/11/12 12:55
PPIZ 121255Z AUTO 19005KT 10SM BKN060 M03/M05 A2932 RMK AO1
     T10331049

1997/11/12 13:02
KLAM 121302Z 21005KT 00BR VV000 M02/M08 A2988

1997/11/12 13:01
KMFV 121301Z AUTO 00000KT 10SM BKN060 07/06 A3007 RMK AO1

1997/11/12 13:02
KMTV 121302Z AUTO 00000KT 2SM CLR 04/02 A3009 RMK AO1

1997/11/12 13:02
KPTB 121302Z AUTO 00000KT 10SM SCT050 SCT065 06/05 A3007 RMK
     AO1

1997/11/12 13:01
KDCU 121301Z AUTO 02003KT 3SM BR SCT043 06/05 A3009 RMK AO2
     TSNO

1997/11/12 13:01
KFZY 121301Z AUTO 16005KT 3/4SM -SN BR BKN008 OVC017 M01/M02 A2987
     RMK AO2 P0000 TSNO

1997/11/12 13:01
KPPF 121301Z AUTO 00000KT 1 1/4SM -SN BR OVC002 01/00 A3012 RMK
     AO2 CIG 001V004 P0001 TSNO

1997/11/12 13:01
KLHX 121301Z 13008KT 10SM BKN007 BKN015 OVC034 M02/M03 A2986 RMK
     AO2

1997/11/12 13:01
KSAD 121301Z AUTO 12005KT 10SM BKN028 10/09 A2972 RMK AO2 TSNO

1997/11/12 12:59
KGMU 121259Z 01004KT 10SM BKN140 07/00 A3006

1997/11/12 12:50
PAGK 121250Z AUTO 33004KT M11/M16 A2959 RMK AO1 649 T11061161

1997/11/12 12:55
PABA 121255Z AUTO 21010KT 10SM CLR M03/M07 A2946 RMK AO1
     T10281066

1997/11/12 13:00
KBCB 121300Z AUTO 27006KT 7SM OVC036 03/M02 A3005 RMK AO1

1997/11/12 12:52
KLAL 121252Z 12005KT 5SM BR SCT100 BKN300 19/16 A3004

1997/11/12 12:54
KRWL 121254Z 00000KT 10SM OVC015 M09/M11 A2978 RMK SLP135 FIRST
     LOW TEMP M11.1 T10891107

1997/11/12 12:47
TISX 121247Z 11010KT 15SM SCT020 SCT100 30/24 A3001

1997/11/12 12:50
TJBQ 121250Z 12005KT 14SM SCT020 SCT040 25/23 A3003

1997/11/12 12:54
KBDR 121254Z COR 01003KT 10SM BKN095 OVC110 03/M05 A2998 RMK AO2
     SLP151 T00281050 $

1997/11/12 13:02
KHQM 121302Z 09007KT 7SM SCT040 03/02 A2980 RMK SLP091 FIRST
     T00260021 10057 20026

1997/11/12 13:02
KCXO 121302Z AUTO 01005KT 2 1/2SM RA BR OVC005 12/12 A2981 RMK AO2
     CIG 003V008 P0002 TSNO

1997/11/12 13:05
KIML 13009KT 5SM -SN BKN007 OVC030 M05/M07 A2995 RMK BKN000
     T10501074

1997/11/12 13:04
KICT 121304Z 07007KT 10SM FEW009 OVC080 M01/M02 A3009 RMK AO2

1997/11/12 12:50
TIST 121250Z 09010KT 40SM SCT020 A3004

1997/11/12 13:04
KDNS 121304Z AUTO 00000KT 1/4SM OVC001 M07/M09 A3013 RMK AO1

1997/11/12 13:04
KFSW 121304Z AUTO 18004KT 7SM CLR M04/M08 A3017 RMK AO1

1997/11/12 13:04
KICL 121304Z AUTO 34005KT 4SM BKN014 M04/M05 A3011 RMK AO1

1997/11/12 13:03
PAOM 121303Z 08008KT 2SM -SN BR SCT003 SCT011 OVC019 M01/M02
     A2925

1997/11/12 13:05
KSGF 121305Z 06006KT 3SM -SN BR FEW005 BKN022 OVC075 M01/M01 A3009
     RMK AO2 P0000

1997/11/12 13:04
KMHS 121304Z AUTO 00000KT 10SM OVC003 04/03 A2979 RMK AO2 TSNO

1997/11/12 13:05
KRNO 121305Z 00000KT 5SM -RA BR FEW011 OVC021 01/01 A2980 RMK AO2
     P0001 $

1997/11/12 13:05
KABQ 121305Z 35006KT 10SM OVC008 04/03 A2982 RMK AO2 CIG
     006V013

1997/11/12 13:05
KLCH 121305Z 08011KT 2SM RA BR OVC006 13/13 A2984 RMK AO2 CIG
     004V008 P0003

1997/11/12 13:00
MMVR 121300Z 32005KT 1SM BRHZ FEW025 OVC070 23/22 A2982 RMK 57/99

1997/11/12 13:00
FLLS 121300Z 31004KT CAVOK 35/12 Q1013 NSG

1997/11/12 13:00
FBSK 121300Z 05005KT 9999 SCT030 30/18 Q1013 NOSIG

1997/11/12 13:00
FDMS 121300Z 14008KT 9999 BKN030 24/18 Q1014 NOSIG

1997/11/12 13:00
GMFF 121300Z 26012KT 6000 SCT010 BKN026 BKN100 FEW033CB 15/12
     Q1019 TEMPO SHRA

1997/11/12 13:00
GMFO 121300Z 28019KT 8000 FEW020 BKN030 FEW040CB 13/08 Q1016
     NOSIG

1997/11/12 13:00
GMME 121300Z 32008KT 9999 SCT015 20/14 Q1019 NOSIG

1997/11/12 13:00
GMMN 121300Z 34008KT 9999 SCT016 BKN020 20/14 Q1020 NOSIG

1997/11/12 13:00
GMMX 121300Z 04004KT 8000 FEW020 19/11 Q1020 NOSIG

1997/11/12 13:00
GMTN 121300Z 30015KT 9999 SCT020 FEW023CB SCT100 18/11 Q1018

1997/11/12 13:00
GMTT 121300Z 32010KT 9999 FEW016 SCT01

1997/11/12 13:00
OJAI 33010KT CAVOK 22/02 Q1020

1997/11/12 13:00
OJAM 30010KT 9999 FEW030 20/01 Q1020

1997/11/12 13:00
OKBK 121300Z 32012KT 9999 SCT030 24/13 Q1016 NOSIG

1997/11/12 13:00
OOMA 121300Z 07013KT 9999 SCT010 28/23 Q1012

1997/11/12 13:00
OOMS 121300Z 05012KT 9999 FEW030 28/19 Q1013 NOSIG

1997/11/12 12:50
OOSA 121250Z 15007KT 9999 FEW025 BKN100 28/22 Q1011 NOSIG RH
     68

1997/11/12 13:00
OPKC 121300Z 07010KT CAVOK 30/08 Q1012.6 A29.90 NOSIG

1997/11/12 13:00
OPLA 121300Z 00000KT 6000 SKC 19/14 Q1014 A29.94 NOSIG

1997/11/12 13:00
OPRN 27010 4000 FU SKC 19/07 1015

1997/11/12 13:00
OJAQ 36918KT 8000 SKC 27/09 Q1015

1997/11/12 13:00
SBBR 121300Z 07014KT 9999 -RA FEW030CB BKN070 BKN200 22/21
     Q1019

1997/11/12 13:00
SBCG 121300Z 33016KT 9999 FEW030 SCT100 BKN200 30/25 Q1011

1997/11/12 13:00
SBGR 121300Z 34010KT 8000 BKN150 31/22 Q1012 WS RWY09R

1997/11/12 13:00
SBKP 121300Z 12014KT 5000 HZ SCT100 28/20 Q1012

1997/11/12 13:00
SBPA 121300Z 13013KT 9999 FEW009 BKN020 OVC080 22/20 Q1003

1997/11/12 13:00
MKJS 121300Z 00000KT 9999 FEW022 32/27 Q1014

1997/11/12 13:00
MYGF 121300Z 08006KT CAVOK 21/18 A3007

1997/11/12 13:00
MYNN 121300Z 11008KT 9999 FEW020 BKN150 23/20 Q1017

1997/11/12 12:50
TJBQ 121250Z 12005KT 14SM SCT020 SCT040 25/23 A3003

1997/11/12 12:50
TJMZ 121250Z 13004KT 10SM OVC020 24/21 A3003

1997/11/12 12:56
TJSJ 121256Z 10005KT 10SM CLR 28/23 A3003 RMK AO2 SLP169
     T02780228

1997/11/12 13:00
TKPK 121300Z 07010KT 9999 BKN018 30/24 Q1016

1997/11/12 12:47
TISX 121247Z 11010KT 15SM SCT020 SCT100 30/24 A3001

1997/11/12 12:48
TJPS 121248Z 02005KT 15SM SCT040 BKN120 27/23 A2997

1997/11/12 13:00
TFFR 121300Z 09010KT 060V130 9999 SCT023 30/24 Q1016 NOSIG

1997/11/12 13:00
TGPY 121300Z 06015KT 9999 FEW020 29/26 Q1015

1997/11/12 13:00
TLPL 121300Z 07015KT 9999 FEW024 30/23 Q1014

1997/11/12 13:00
TNCM 121300Z 13008KT 100V160 9999 FEW020 30/24 Q1017

1997/11/12 13:00
TVSV 121300Z 10010KT 9999 FEW021 29/25 Q1014

1997/11/12 13:00
MHTG 121300Z 00000KT 7000 SCT020 20/18 Q1019 7 KMS E NW HZ

1997/11/12 13:00
MPTO 1300Z 04006KT 9999 FEW020 SCT300 27/24 Q1013

1997/11/12 12:50
MSLP 121250Z 30003KT 8000SW FEW010 SCT037 SCT120 25/24 Q1013 A2992
     VVG RED. S/SW/WSW POR SH Y NUBE BAJA AL NE

1997/11/12 12:50
MSLP 121250Z 30003KT 8000 FEW010 SCT037 SCT0120 25/24 Q1013

1997/11/12 12:50
MSSS 121250Z 00000KT 9999 FEW013 BKN130 22/21 Q1017

1997/11/12 13:00
MZBZ 121300Z 11003KT 9999 FEW018 BKN045 BKN300 27/25 A2986

1997/11/12 13:00
MGGT 24006KT 4000 BKN003 BKN012 18/17 Q1022 BESTA APCH N MTN E/W
     CUB/CL VIS RED/BR

1997/11/12 13:00
MHAM 121300Z 00000KT NSW 27/24 SCT070 SCT250

1997/11/12 13:00
MHCA 121300Z 00000KT 9999 FEW004 BKN080 23/21

1997/11/12 13:00
MHRO 121300Z 07010KT 9999 FEW022 27/22 MHLC 121300Z NIL

1997/11/12 13:00
MHSR 121300Z 00000KT 99999 FEW020 SCT100 BKN250 20/18 MHNO 121300Z
     NIL

1997/11/12 13:00
MHTE 121300Z 32002KT 9999 FEW022TCU SCT080 23/23 TCU S

1997/11/12 13:00
MHYR 121300Z 00000KT 9999 SCT020 SCT080 20/20

1997/11/12 13:00
MNMG 121300 00000KT 9999 FEW018CB SCT020 25/23 Q1012 A2989 CB
     NW

1997/11/12 12:50
MSAC 121250Z 00000KT 5000 -SHRA BKN027 SCT040 BKN170 24/23
     Q1013

1997/11/12 12:50
EDDV 09004KT 7000 FEW010 BKN050 OVC120 07/04 Q0999 NOSIG

1997/11/12 13:00
UMMM 121300Z 15004MPS 5000 BR OVC010 08/07 Q1015 NOSIG RMK QFE741
     12290050

1997/11/12 13:00
LFAT 121300Z VRB02KT 7000 SCT015 11/09 Q1001

1997/11/12 13:00
LFBD 121300Z 26010KT 6000 -RA FEW007 FEW026CB SCT040 BKN100 10/09
     Q1005 TEMPO 25015G25KT 3000 TSRA SCT005 BKN015CB

1997/11/12 13:00
LFBI 121300Z 31007KT 9999 SCT012 BKN043 10/08 Q1003 NOSIG

1997/11/12 13:00
LFBO 121300Z 28021KT 9999 SCT019 SCT027 BKN093 10/06 Q1006
     NOSIG

1997/11/12 13:00
LFBP 121300Z 28005KT 8000 -RA SCT030 BKN080 08/07 Q1008 NOSIG

1997/11/12 13:00
LFBT 121300Z 30014KT 9999 -RA FEW013 SCT025TCU BKN040 08/06 Q1007
     TEMPO 30015G25KT

1997/11/12 13:00
LFBZ 121300Z 24009KT 9999 -RA SCT010 BKN021 08/07 Q1009 NOSIG

1997/11/12 13:00
LFKJ 121300Z 00000KT 9999 FEW020 BKN033 BKN083 15/12 Q1004 TEMPO
     5000 SHRA

1997/11/12 13:00
LFLB 121300Z 36005KT 9999 FEW003 SCT008 BKN033 07/05 Q1003

1997/11/12 13:00
LFLC 121300Z 21003KT 9999 FEW020 BKN043 10/04 Q1002 NOSIG

1997/11/12 13:00
LFLL 121300Z 15006KT 9999 FEW020CB SCT036TCU BKN046 10/07 Q1002
     NOSIG

1997/11/12 13:00
LFLS 121300Z 12006KT 9999 SCT020 BKN060 07/06 Q1003 NOSIG

1997/11/12 13:00
LFLY 121300Z 10006KT 9999 SCT011 BKN033 09/07 Q1002

1997/11/12 13:00
LFMH 121300Z 34006KT 5000 -SHRA SCT015TCU FEW016CB BKN043 07/05
     Q1003

1997/11/12 13:00
LFML 121300Z 26008KT 9999 FEW026 14/05 Q1003 NOSIG

1997/11/12 13:00
LFMN 121300Z 24015KT 9999 FEW036TCU 15/09 Q1000 NOSIG

1997/11/12 13:00
LFMP 121300Z 32020G32KT 9999 FEW030 SCT046 BKN100 13/04 Q1004
     NOSIG

1997/11/12 13:00
LFMT 121300Z 30011KT 260V330 CAVOK 14/05 Q1003 NOSIG

1997/11/12 13:00
LFOT 121300Z 26004KT 220V290 9999 BKN005 07/07 Q1003

1997/11/12 13:00
LFPB 121300Z 24003KT 4200 BR SCT011 BKN050 09/09 Q1001 NOSIG

1997/11/12 13:00
LFPG 121300Z 27004KT 9999 SCT006 SCT010 BKN050 09/08 Q1001
     NOSIG

1997/11/12 13:00
LFPN 121300Z 31004KT 6000 BKN060 08/08 Q1001

1997/11/12 13:00
LFPO 121300Z 31005KT 9000 SCT010 BKN050 10/08 Q1001 NOSIG

1997/11/12 13:00
LFQQ 121300Z 27005KT 0100 R26/0200N FG VV/// 06/06 Q1001 NOSIG

1997/11/12 13:00
LFRB 121300Z 17007KT 9999 R26/1400VP1500N FEW020CB SCT023 11/07
     Q1002 NOSIG

1997/11/12 13:00
LFRD 121300Z 33003KT 9999 SCT028 13/05 Q1002 NOSIG

1997/11/12 13:00
LFRK 121300Z 29006KT 9999 FEW020TCU FEW025CB 11/07 Q1002 NOSIG

1997/11/12 13:00
LFRN 121300Z VRB01KT 9999 SCT018TCU FEW020CB 13/07 Q1003 NOSIG

1997/11/12 13:00
LFRQ 121300Z 16004KT 9999 FEW020CB 11/08 Q1003 NOSIG

1997/11/12 13:00
LFRS 121300Z 00000KT 8000 BKN005 09/09 Q1003 NOSIG

1997/11/12 13:00
LFRT 121300Z 27005KT 9999 FEW020 11/06 Q1002 NOSIG

1997/11/12 13:00
LFSB 121300Z 16005KT 120V190 9999 -RA SCT020 BKN030 BKN060 06/06
     Q1001 NOSIG

1997/11/12 13:00
LFSF 121300Z 00000KT 5000 -RA SCT006 BKN018 08/07 Q0999

1997/11/12 13:00
LFSR 121300Z 32006KT 7000 BKN009 BKN053 BKN100 09/08 Q1000
     NOSIG

1997/11/12 13:00
LFST 121300Z 19006KT 3000 -RA BR SCT003 SCT013 BKN040 08/07 Q0999
     NOSIG

1997/11/12 12:47
LFTW 121247Z VRB01KT 9999 BKN036 SCT073 13/04 Q1003 NOSIG

1997/11/12 13:00
LFBA 121300Z 25015KT 9999 SCT016 FEW020CB SCT043 BKN100 11/08
     Q1005

1997/11/12 13:00
LFBL 121300Z 25006KT 8000 -RA BKN005 BKN020 07/07 Q1003 NOSIG

1997/11/12 13:00
LFKF 121300Z 26009KT 9999 FEW013 FEW036TCU SCT036 OVC083 16/12
     Q1003 TEMPO SHRA

1997/11/12 13:00
LFLD 121300Z 31005KT 9999 BKN016 BKN026 09/07 Q1003

1997/11/12 13:00
LFOE 121300Z 30002KT 8000 BKN053 09/07 Q1001

1997/11/12 13:00
LFOP 121300Z 25002KT 2500 BR FEW005 BKN050 Q1001 BECMG 6000

1997/11/12 13:00
LFPB 121300Z 24003KT 4200 BR SCT011 BKN050 09/09 Q1001 NOSIG

1997/11/12 13:00
LFPG 121300Z 27004KT 9999 SCT006 SCT010 BKN050 09/08 Q1001
     NOSIG

1997/11/12 13:00
LFQB 121300Z 30010KT 9999 BKN016 BKN050 10/08 Q1001

1997/11/12 13:00
LFQQ 121300Z 27005KT 0100 R26/0200N FG VV/// 06/06 Q1001 NOSIG

1997/11/12 13:00
LFSC 121300Z 20008KT 9000 -RA FEW013 BKN040 OVC090 07/06 Q1000

1997/11/12 13:00
LFSD 121300Z 22007KT 9999 -RA SCT018 BKN030 BKN100 09/07 Q1001

1997/11/12 13:00
LFSI 121300Z 27006KT 5000 -RADZ BKN004 BKN017 08/08 Q1000

1997/11/12 13:00
LFSO 121300Z 27004KT 6000 -RA SCT002 BKN003 BKN020 07/07 Q0999

1997/11/12 13:00
LFSX 121300Z 22006KT 8000 -RA FEW004 BKN010 BKN020 07/07 Q1001

1997/11/12 12:50
LGAD 121250Z 19014KT 9999 FEW010 SCT020 21/16 Q1017 NOSIG

1997/11/12 12:50
LGAT 121250Z 17005KT 8000 FEW008 BKN200 19/16 Q1018 NOSIG

1997/11/12 12:50
LGEL 121250Z 00000KT 3500 FEW020 BKN180 19/15 Q1018 NOSIG

1997/11/12 12:50
LGIR 121250Z 08007KT CAVOK 20/16 Q1018 NOSIG

1997/11/12 12:50
LGKL 121250Z 18007KT 8000 FEW018 SCT025 BKN180 21/17 Q1018
     NOSIG

1997/11/12 12:50
LGKO 121250Z 29008KT 9999 FEW020 BKN200 20/15 Q1019 NOSIG

1997/11/12 12:50
LGKR 121250Z 18011KT 9999 SCT015 SCT080 22/16 Q1016 NOSIG

1997/11/12 12:50
LGKV 121250Z 00000KT 4000 BR SCT006 BKN010 15/12 Q1019 NOSIG

1997/11/12 12:50
LGLM 121250 16006KT 8000 BKN009 17/16 Q1020 NOSIG

1997/11/12 12:50
LGMT 121250Z 15004KT 9999 FEW025 SCT170 21/15 Q1019 NOSIG

1997/11/12 12:50
LGRP 121250Z 24010KT 9999 SCT020 BKN180 21/17 Q1018 NOSIG

1997/11/12 12:50
LGSA 121250Z 32004KT 9999 FEW025 SCT100 BKN180 22/14 Q1019
     NOSIG

1997/11/12 12:50
LGSM 121250Z 16005KT 9999 FEW020 SCT180 21/15 Q1019 NOSIG

1997/11/12 12:50
LGSR 121250Z 23010KT 9999 SCT015 SCT180 20/17 Q1019 NOSIG

1997/11/12 12:50
LGTS 121250Z 00000KT 5000 BR BKN010 OVC015 15/10 Q1019 NOSIG

1997/11/12 12:50
LGPZ 121250Z 13004KT 9999 SCT020 22/15 Q1018 NOSIG

1997/11/12 12:50
LGRX 121250Z 19004KT 9999 SCT015 23/15 Q1017 NOSIG

1997/11/12 12:50
LGSK 121250Z 00000KT 7000 FEW015 BKN070 16/14 Q1019 NOSIG

1997/11/12 12:50
LGZA 121250Z 17008KT 9999 SCT015 SCT025 21/19 Q1017 NOSIG

1997/11/12 13:00
EICK 121300Z 31010KT 9999 FEW015 BKN042 09/05 Q1002 NOSIG

1997/11/12 13:00
EIDW 121300Z 25010KT 9999 FEW010 08/07 Q1001 NOSIG

1997/11/12 13:00
EIKN 121300Z 30009KT 9999 FEW011 FEW015CB BKN028 07/05 Q1000
     NOSIG

1997/11/12 13:00
EINN 121300Z 29006KT 9999 FEW010 SCT020 10/07 Q1002 NOSIG

1997/11/12 12:50
LIBD 121250Z 17016G31KT 9999 FEW030 SCT180 22/17 Q1010

1997/11/12 12:50
LIBR 16018KT 9999 BKN023 SCT100 21/16 Q1013 NOSIG

1997/11/12 12:50
LICC 07010KT 6000 SCT020 SCT060 22/20 Q1010

1997/11/12 12:50
LICJ 23014KT CAVOK 25/17 Q1007

1997/11/12 12:50
LIEA 121250Z 25004KT 9999 SCT020TCU SCT030 BKN070 16/12 Q1005

1997/11/12 12:50
LIEE 27013KT 9999 SCT022CB BKN035 17/13 Q1006 NOSIG

1997/11/12 12:50
LIEO 121250Z 25007KT 9999 -RA SCT015 SCT040 BKN070 14/12 Q1005

1997/11/12 12:50
LIMC 121250Z VRB01KT 7000 -RA SCT007 BKN020 08/06 Q0999

1997/11/12 12:50
LIME 121250Z 12011KT 5000 -TSRA SCT010CB SCT015TCU 13/10 Q0999

1997/11/12 12:50
LIMF 121250Z 09004KT 8000 SCT010 BKN035 10/08 Q1000

1997/11/12 12:50
LIMJ 121250Z 18016KT 9999 BKN020TCU 17/13 Q0999

1997/11/12 12:50
LIML 121250Z 14005KT 9999 BKN010 11/10 Q1000 NOSIG

1997/11/12 12:50
LIPE 121250Z 19011KT 9999 FEW050 BKN080 17/10 Q1000

1997/11/12 12:50
LIPH 13002KT 9999 BKN025 SCT070 15/15 Q1002

1997/11/12 12:50
LIPK 121250Z 17006KT 9999 BKN030 18/12 Q1001

1997/11/12 12:50
LIPQ 121250Z 00000KT 4000 RA FEW010 BKN035 OVC050 15/14 Q1003

1997/11/12 12:50
LIPR 16012KT 9999 SCT020 SCT070 17/16 Q1002

1997/11/12 12:50
LIPX 09010KT 9999 SCT035 BKN070 13/10 Q1000

1997/11/12 12:50
LIPZ 121250Z 16017KT 9999 BKN025 BKN070 15/11 Q1001 RERA

1997/11/12 12:50
LIRA 19017KT 9999 BKN016 FEW018CB 19/18 Q1005

1997/11/12 12:50
LIRF 121250Z 18016KT 9999 SCT012 SCT033 BKN090 20/19 Q1005
     NOSIG

1997/11/12 12:50
LIRN 17009G20KT 9999 SCT018 BKN070 21/17 Q1010

1997/11/12 12:50
LIRP 23006KT 9999 FEW020 SCT030 BKN060 14/13 Q1003 NOSIG

1997/11/12 12:50
LIRQ 121250Z VRB03KT 5000 -RA FEW015 BKN020 BKN035 13/13 Q1003

1997/11/12 12:50
LIMC 121250Z VRB01KT 7000 -RA SCT007 BKN020 08/06 Q0999

1997/11/12 12:50
LIPX 09010KT 9999 SCT035 BKN070 13/10 Q1000

1997/11/12 13:00
RJAA VRB02KT 8000 FEW150 BKN/// 13/10 Q1015 NOSIG

1997/11/12 13:00
RJCC 31011KT 9999 FEW015 SCT060 BKN/// 04/M05 Q1013

1997/11/12 13:00
RJFF 05006G16KT 020V120 7000 VCTS SHRA FEW008 BKN020 FEW020CB
     18/16 Q1014

1997/11/12 13:00
RJNN 06003KT 8000 FEW030 BKN120 14/05 Q1017

1997/11/12 13:00
RJOO VRB03KT 8000 -SHRA FEW030 BKN040 BKN100 18/14 Q1016

1997/11/12 13:00
RJTT 30007KT 8000 BKN/// 15/10 Q1015

1997/11/12 13:00
ROAH 13004KT 9999 FEW013 24/21 Q1016

1997/11/12 13:00
LCLK 18005KT 140V220 9999 FEW040 23/15 Q1018 NOSIG

1997/11/12 13:00
LCPH 29012KT 9999 FEW020 SCT250 22/16 Q1019

1997/11/12 12:45
MMAA 121245Z 03003KT P6SM SCT020 BKN100 OVC300 24/22 A2986 RMK
     47299 ARCOIRIS W

1997/11/12 12:45
MMCZ 121245Z 00000KT P6SM SCT015 SCT100 BKN200 27/23 A2991 RMK
     13691

1997/11/12 12:45
MMMD 121245Z 09006KT 6SM HZFU SCT140 BKN300 23/22 A2990 RMK
     07890

1997/11/12 12:45
MMMX 121245Z 00000KT P6SM FEW015 BKN030 BKN070 13/07 A3023 RMK
     57099

1997/11/12 12:45
MMMY 121245Z 35012KT P6SM BKN010 11/11 A2986 RMK 50009

1997/11/12 12:45
MMTM 121245Z 00000KT 6SM BRHZ SCT030 BKN080 18/17 A2973 RMK
     57099

1997/11/12 12:45
MMUN 121245Z 12010KT P6SM SCT015 27/24 A2989 RMK 20009 AC TRCS

1997/11/12 12:45
MMVR 121245Z 24005KT 2SM BRHZ BKN040 OVC070 23/22 A2982 RMK
     57/99

1997/11/12 12:45
MMBT 121245Z 00000KT P6SM FEW140 SCT250 24/21 A2986 RMK 04190

1997/11/12 12:45
MMMT 121245Z 00000KT P6SM BKN250 22/22 A2986 RMK 00290 HZY

1997/11/12 12:45
MMTO 121245Z 00000KT 6SM HZ BKN015 BKN070 OVC200 08/08 A3026 RMK
     57799

1997/11/12 12:55
EHVB 121255Z VRB01KT 0300 R23/0800D BR SCT002 BKN003 08/08 Q1000
     RED RED BECMG AMB

1997/11/12 12:55
EHVB 121255Z VRB01KT 0300 R23/0800D FG SCT002 BKN003 08/08 Q1000
     RED RED BECMG AMB

1997/11/12 12:50
ENOA 15030KT 9999 FEW010 SCT025 09/07 Q0997

1997/11/12 13:00
BGBW 24003KT 9999 FEW150 M07/M14 Q1009

1997/11/12 13:00
BGCO 35014KT 9999 BKN060 M11/M17 Q1019

1997/11/12 13:00
BGGH 07013KT 9999 SCT100 BKN180 M07/M10 Q1011

1997/11/12 13:00
BGJN 10013KT 9999 FEW050 M11/M15 Q1014

1997/11/12 13:00
BGKK 21006KT 9999 SCT080 M04/M09 Q1012

1997/11/12 13:00
BGSF 07008KT 9999 FEW070 M14/M20 Q1015

1997/11/12 13:00
BIEG 35009KT 9999 VCFG BKN005 OVC020 03/// Q1001

1997/11/12 13:00
BIKF 07006KT 9999 -DZ FEW013 BKN025 03/02 Q1000 02190077

1997/11/12 13:00
BIRK 07006KT 9999 -DZ FEW028 BKN040 BKN070 04/// Q1000

1997/11/12 12:55
TXKF 121255Z 00000KT 7SM FEW020 FEW090 OVC300 22/17 A3008 RMK
     SLP186

1997/11/12 13:00
BIRK 07006KT 9999 -DZ FEW028 BKN040 BKN070 04/// Q1000
     02790195

1997/11/12 12:50
OOTH 121250Z 07012KT CAVOK 32/06 Q1012 RH 20

1997/11/12 13:00
OOSQ 121300Z 00000KT 9999 BKN020 17/10 QFE 0805

1997/11/12 12:50
PGSN 121250Z 09011KT 7SM FEW020 SCT250 27/24 A2997 RMK SLP149

1997/11/12 12:53
PGUM 121253Z 09006KT 7SM FEW018 SCT250 25/24 A2997 RMK SHRAB05E15
     SLP150 T02540237

1997/11/12 12:50
PKMJ 121250Z 07008KT 15SM FEW015TCU SCT300 27/24 A2993 RMK TCU VC
     E-SE SLP137 T02710242

1997/11/12 12:50
PKWA 121250Z 08008KT 15SM FEW023 27/23 A2994 RMK SLP138
     T02740232

1997/11/12 12:56
PTKK 121256Z 06003KT 15SM FEW018 OVC280 28/24 A2992 RMK SLP135
     T02750243

1997/11/12 12:52
PTPN 121252Z 14003KT 15SM SCT018TCU BKN300 25/24 A2996 RMK TCU NE
     AND S-NW SLP143 T02500237 403140222

1997/11/12 12:55
PTRO 121255Z 18008KT 15SM FEW018TCU BKN300 28/24 A2992 RMK TCU
     NE-E SLP133 T02790240

1997/11/12 12:53
PTYA 121253Z 09008KT 12SM SCT016 BKN140 OVC300 27/24 A2992 RMK
     SLP131 T02720243

1997/11/12 13:00
NFFN 121300Z 11007KT 40KM SCT030 23/19 Q1017 NOSIG

1997/11/12 12:56
NSTU 121256Z 09014KT 7SM SHRA BKN020 OVC040 28/25 A2993 RMK SLP139
     T02770251

1997/11/12 13:00
NWWW 121300Z 06005KT 9999 FEW040 22/15 Q1019 NOSIG

1997/11/12 13:00
NFFN 121300Z 11007KT 40KM SCT030 23/17 Q1017 NOSIG

1997/11/12 13:00
RPLB 02005KT 9999 FEW020 26/21 Q1013.NOSIG

1997/11/12 13:00
RPLL 12007KT 080V150 9999 FEW023 SCT300 27/22 Q1015 LHAQ

1997/11/12 13:00
UHHH 121300Z 27007MPS CAVOK M05/M11 Q1018 NOSIG RMK QFE757/1009
     23090070

1997/11/12 13:00
UHPP MATAR 121300Z 02004MPS 9999 BKN250 M08/ M11 Q1003 RMK QFE 748
     SC 07 NOSIG

1997/11/12 13:00
UHWW 121300Z 01003MPS 9999 SKC M02/M16 Q1024 NOSIG RMK QFE767/1023
     75CLRD80

1997/11/12 13:00
SKBQ 121300Z 00000KT 3000 BR OVC006 27/26 A2989

1997/11/12 13:00
SOCA 121300Z 06008KT 8000 VCSH FEW016CB SCT020 28/25 Q1013 BECMG
     9999

1997/11/12 13:00
SPIM 121300Z 12010KMH 9999 SCT012 OVC030 21/17 Q1016 AVIADA
     RWY-15

1997/11/12 13:00
SPQT 121300Z 03010KMH 9999 FEW015 SCT200 27/25 Q1014 NOSIG

1997/11/12 13:00
SPQU 121300Z VRB06KMH CAVOK 16/02 Q1028

1997/11/12 13:00
SPSO 121300Z 18014KMH CAVOK 22/17 Q1017

1997/11/12 13:00
SPTN 121300Z 00000KMH 9999 OVC030 18/14 Q1023

1997/11/12 13:00
SPYL 121300Z 15024KMH 9999 SCT025 BKN100 24/20 Q1016

1997/11/12 13:00
SPZO 121300Z 00000KMH 9999 SKC 13/05 Q1026 PASOS OPEN

1997/11/12 13:00
SVMC 121300Z NIL

1997/11/12 13:00
SVMG 121300Z 09009KT 8000 -DZ BKN010 SCT080 27/27 Q1014

1997/11/12 13:00
SVMI 121300Z 05002KT 9999 FEW020 29/23 Q1014

1997/11/12 13:00
SYCJ 121300Z 03006KT 9999 SCT020 29/25 Q1013 NOSIG

1997/11/12 13:00
SCDA 121300Z 20013KT 9999 BKN040 21/16 Q1019 NOSIG

1997/11/12 13:00
SCIE 121300Z 12006KT 9999 SCT015 13/09 Q1024 NOSIG

1997/11/12 13:00
SCTE 121300Z 26006KT 9999 BKN018 BKN070 11/08 Q1022 NOSIG

1997/11/12 13:00
SGES 121300Z 34008KT CAVOK 31/24 Q1003

1997/11/12 13:00
SGES 121300Z 03008KT 9999 SCT033 FEW040TCU BKN200 28/23Q1006

1997/11/12 13:00
SLCB 00000KT 8000 SCT200 20/10 Q1022

1997/11/12 13:00
SLLP 21005KT 160V300 9999 FEW200 08/M12 Q1036

1997/11/12 13:00
SLVR 31022G32KT 9999 BKN013 SCT200 28/22 Q1005

1997/11/12 13:00
SUMU 121300Z 11018KT 9999 SCT007 OVC090 17/16 Q1007

1997/11/12 13:00
SMJP 121300Z 06004KT 9999 SCT018 29/25 Q1013

1997/11/12 12:50
ESDF 12006KT 090V150 0600 FG VV002 06/06 Q1007

1997/11/12 12:50
ESGP 13005KT 9999 FEW020 BKN073 09/07 Q1004

1997/11/12 12:50
ESMX 13005KT 090V180 1500 BR SCT002 BKN003 06/06 Q1006

1997/11/12 12:50
ESNN 36001KT 0300 R34/0750 FG VV001 04/03 Q1010

1997/11/12 12:50
ESNQ 20009KT CAVOK M07/M09 Q1009

1997/11/12 12:50
ESNU 07002KT 2500 -DZ BR BKN002 01/00 Q1012

1997/11/12 13:00
LEJR 30009KT 9999 FEW030 18/10 Q1019

1997/11/12 12:50
LSZB 121250Z 12004KT 5000 RA SCT006 BKN018 BKN025 02/02 Q1001
     NOSIG

1997/11/12 12:50
EGBB 25005KT CAVOK 11/06 Q1001

1997/11/12 12:50
EGCC 23007KT 190V260 9999 FEW015CB 11/06 Q1000 NOSIG

1997/11/12 12:50
EGFF 13003KT 9999 FEW003 FEW020TCU 09/06 Q1002

1997/11/12 12:50
EGGD 24005KT 9999 FEW025 12/07 Q1002

1997/11/12 12:50
EGGP 25004KT 9999 FEW020 11/06 Q1000

1997/11/12 12:50
EGGW 29006KT 9999 FEW020 10/04 Q1001

1997/11/12 12:50
EGHH 27002KT 8000 FEW025 SCT200 11/06 Q1002

1997/11/12 12:50
EGHI 35004KT 9999 FEW020 11/04 Q1002

1997/11/12 12:50
EGJB 34002KT 9999 -SHRA SCT022 SCT025CB 10/05 Q1002

1997/11/12 12:50
EGJJ 29003KT 9999 SCT015CB SCT045 11/07 Q1002 NOSIG

1997/11/12 12:50
EGKB 28003KT 9999 FEW015 09/06 Q1000

1997/11/12 12:50
EGKK 34003KT 9999 FEW024 11/05 Q1001 NOSIG

1997/11/12 12:50
EGLL 25002KT 6000 FEW018 SCT300 09/05 Q1002 NOSIG

1997/11/12 12:50
EGMC 29004KT CAVOK 11/05 Q1001

1997/11/12 12:50
EGNH 00000KT 9999 FEW012 SCT025CB 10/07 Q1000

1997/11/12 12:50
EGNJ 23007KT 8000 FEW025 09/06 Q1000

1997/11/12 12:50
EGNM 28007KT 9999 SCT015 SCT030CB 08/05 Q0999

1997/11/12 12:50
EGNS 26007KT 9999 FEW020 11/06 Q1000 NOSIG

1997/11/12 12:50
EGNT 25007KT 9999 SCT020 10/06 Q0998

1997/11/12 12:50
EGNV 20006KT 9999 FEW040 10/05 Q0999

1997/11/12 12:50
EGNX 27005KT 9999 FEW040 10/05 Q1001

1997/11/12 12:50
EGPB 17009KT 9999 FEW014 FEW016 SCT045 10/08 Q0992 NOSIG

1997/11/12 12:50
EGPD 23007KT 200V260 9999 FEW020 11/04 Q0994 NOSIG

1997/11/12 12:50
EGPF 26014KT 220V290 9999 -SHRA FEW010 SCT018CB FEW021TCU 13/07
     Q0997 NOSIG

1997/11/12 12:50
EGPH 24011KT 180V280 9999 FEW020 SCT220 11/07 Q0997 NOSIG

1997/11/12 12:50
EGPK 25011KT 9999 SCT016 FEW020CB 10/06 Q0997

1997/11/12 12:50
EGSH 25005KT 220V280 8000 SKC 12/07 Q1001

1997/11/12 12:50
EGTE 00000KT 9999 FEW020 SCT030 11/06 Q1002

1997/11/12 12:50
EGAC 21010KT 9999 FEW010 09/06 Q0999

1997/11/12 12:50
EGGP 25004KT 9999 FEW020 11/06 Q1000

1997/11/12 12:50
EGGW 29006KT 9999 FEW020 10/04 Q1001

1997/11/12 12:50
EGNC 26012KT 9999 SCT018 12/// Q0999

1997/11/12 12:50
EGNT 25007KT 9999 SCT020 10/06 Q0998

1997/11/12 12:50
EGPC 22008KT 9999 FEW014CB SCT040 07/05 Q0992

1997/11/12 12:50
EGPE 23017KT 9999 FEW025 SCT032CB 09/04 Q0993

1997/11/12 12:50
EGPF 26014KT 220V290 9999 -SHRA FEW010 SCT018CB FEW021TCU 13/07
     Q0997 NOSIG

1997/11/12 12:50
EGPL 26021KT 9999 VCSHRA SCT015CB SCT030 10/05 Q0994

1997/11/12 12:50
EGPM 15011KT 9999 FEW014 SCT030 09/06 Q0992

1997/11/12 12:50
EGPN 24008KT 9999 FEW015 11/05 QO996

1997/11/12 12:50
EGPO 24008KT 9999 -SHRA SCT017CB SCT050 08/07 Q0992

1997/11/12 12:50
EGPU 29015KT 260V320 9999 FEW016CB FEW018TCU 10/06 Q0997

1997/11/12 12:50
EGPW 15015KT 9999 SCT012TCU SCT070 10/08 Q0993

1997/11/12 12:50
EGSS 28005KT CAVOK 10/06 Q1001

1997/11/12 12:55
KADW 121255Z VRB03KT 7SM FEW040 BKN060 06/01 A3003 RMK SLP173
     8/500 9/700

1997/11/12 12:59
KAVC 121259Z AUTO 00000KT 7SM OVC048 08/04 A3011 RMK AO1

1997/11/12 12:55
KCEF 121255Z 17001KT 20SM BKN090 BKN150 M03/M05 A2996 RMK SLP149
     8/070 9/070

1997/11/12 12:55
KCTB 121255Z 29007KT 10SM OVC120 M08/M09 A2970 RMK AO1 SLP125

1997/11/12 12:59
KHLX 121259Z AUTO 28008KT 10SM BKN026 03/M02 A3005 RMK AO1

1997/11/12 12:55
KJWX 121255Z 22005KT 9999 OVC040 04/M02 A3004 RMK MTN TOP WND
     25015G19 SLPNO ESTMD ALSTG 8/5// 9/8//

1997/11/12 12:55
KMUI 121255Z 23005KT 20SM OVC085 03/00 A2999 RMK SLP161 ESTMD SLP
     8/07/ 9/08/

1997/11/12 12:56
KNBC 121256Z 29003KT 4SM BR SCT120 BKN150 BKN250 10/08 A3010 RMK
     SLP191 T01000083

1997/11/12 12:55
KNBG 121255Z 06015KT 2SM SHRA BR BKN006 OVC015 15/14 A2983 RMKS
     SLP103 T1SET T01500139

1997/11/12 12:56
KNCA 121256Z 00000KT 4SM HZ BKN180 11/07 A3008 RMK SLP188
     T01110072

1997/11/12 12:56
KNGP 121256Z 32016KT 7SM -RA BKN003 OVC006 13/13 A2978 RMK SLP085
     P0000 T01330128

1997/11/12 12:55
KNGU 121255Z 24005KT 6SM BR BKN070 OVC120 09/M02 A3007 RMK A02
     SLP182 T00941022

1997/11/12 12:55
KNIP 121255Z 03003KT 6SM HZ BKN080 BKN100 BKN250 16/12 A3007
     SLP178 T01610122

1997/11/12 12:56
KNKX 121256Z 07005KT 15SM BKN150 13/10 A2967 RMK SLP044
     T01280100

1997/11/12 12:55
KNMM 121255Z 00000KT 4SM RABR OVC024 08/07 A3004 RMK SLP183
     T00780072

1997/11/12 12:56
KNPA 121256Z 04009KT 2SM RA FEW015 OVC021 13/12 A2993 RMK SLP135
     P0016 T01330122

1997/11/12 12:55
KNQI 121255Z 33012KT 2SM -RA BR OVC005 11/11 A2982 RMK SLP087
     P0001 T01060106

1997/11/12 12:55
KNRB 121255Z 05009KT 7SM SCT080 BKN150 BKN250 18/13 A3006 RMK
     SLP179 T01780128

1997/11/12 12:55
KNTK 121255Z 00000KT 7SM BKN100 13/11 A2967 RMK SLP049
     T01280111

1997/11/12 12:55
KNUW 121255Z 11006KT 7SM SKC M00/M01 A2983 RMK SLP106
     T10051011

1997/11/12 12:55
KOFF 121255Z 34004KT 2SM BR OVC003 M05/M05 A3014 RMK SLP220E ESTMD
     ALSTG/SLP 8/6// 9/8//

1997/11/12 13:02
KPTB 121302Z AUTO 00000KT 10SM SCT050 SCT065 06/05 A3007 RMK
     AO1

1997/11/12 12:55
KVAD 121255Z 07003KT 7SM SCT046 OVC100 12/10 A3006 RMK SLP178
     8/57/ 9/62/ WR//

1997/11/12 12:55
KVBG 121255Z 07003KT 7SM SCT015 SCT030 OVC080 11/09 A2974 RMK
     SLP071 8/72/ 9/44/

1997/11/12 12:55
KWRB 121255Z 05002KT 5SM BR FEW100 BKN170 BKN250 07/05 A3008 RMK
     SLP188 8/076 9/052

1997/11/12 13:00
MMPB 121300Z 00000KT 5SM FG SCT003 OVC005 12/08 A3018 RMK
     6///9

1997/11/12 12:55
MMQT 121255Z 23008KT P6SM BKN080 OVC210 12/10 A3011 RMK 07790 SC
     ISOL

1997/11/12 12:50
MSSA 121250Z 28002KT 9999 SCT030 BKN110 21/20

1997/11/12 12:50
PGSN 121250Z 09011KT 7SM FEW020 SCT250 27/24 A2997 RMK SLP149

1997/11/12 12:53
PGUM 121253Z 09006KT 7SM FEW018 SCT250 25/24 A2997 RMK SHRAB05E15
     SLP150 T02540237

1997/11/12 12:50
PKMJ 121250Z 07008KT 15SM FEW015TCU SCT300 27/24 A2993 RMK TCU VC
     E-SE SLP137 T02710242

1997/11/12 12:50
PKWA 121250Z 08008KT 15SM FEW023 27/23 A2994 RMK SLP138
     T02740232

1997/11/12 12:45
MMCM 121245Z 13018KT P6SM BKN020 BKN070 27/26 A2992 RMK 51099
     HZY

1997/11/12 12:45
MMCP 121245Z 00000KT 5SM BR SCT030 23/22 A2987 RMK 80009 082
     984

1997/11/12 12:45
MMOX 121245Z 00000KT 5SM BRHZ SCT008 SCT100 14/13 A3015 RMK 54099
     VSBY 1/2SM N MIFG MOV S FEW LWR SC N S

1997/11/12 12:49
MMPG 121249Z 00000KT P6SM OVC020 08/08 A2984 RMK 5///9

1997/11/12 12:45
MMPS 121245Z 07006KT P6SM SCT090 SCT200 23/20 A2994 RMK 04690 DSTN
     CU S

1997/11/12 12:45
MMTL 121245Z 26007KT P6SM FEW025 BKN080 14/07 A3018 RMK 57090

1997/11/12 12:58
KCLM 121258Z 00000KT 5SM BR SCT006 BKN010 OVC040 06/03 A2983 RMK
     FIRST

1997/11/12 12:55
KJVL 121255Z 27004KT 15SM SKC A3016

1997/11/12 13:06
KAIO 121306Z AUTO 35004KT 1/4SM OVC002 M06/M08 A3012 RMK AO1

1997/11/12 13:05
KAXA 121305Z AUTO 00000KT 10SM OVC025 M09/M11 A3010 RMK AO1

1997/11/12 13:05
KADU 121305Z AUTO 00000KT M1/4SM OVC001 M08/M11 A3010 RMK AO1

1997/11/12 13:05
KAWG 121305Z AUTO 00000KT 7SM SCT038 M07/M09 A3015 RMK AO1

1997/11/12 13:05
KBNW 121305Z AUTO 03003KT 10SM CLR M12/M14 A3010 RMK AO1

1997/11/12 13:06
KCAV 121306Z AUTO 10004KT 10SM CLR M09/M12 A3011 RMK AO1

1997/11/12 13:06
KCCY 121306Z AUTO 00000KT 10SM SCT029 M09/M12 A3011 RMK AO1

1997/11/12 13:06
KCIN 121306Z AUTO 00000KT M1/4SM OVC002 M07/M09 A3012 RMK AO1

1997/11/12 13:04
KCNC 121304Z AUTO 00000KT 10SM OVC035 M03/M07 A3011 RMK AO1

1997/11/12 13:06
KEOK 121306Z AUTO 00000KT 10SM CLR M06/M08 A3019 RMK AO1

1997/11/12 13:06
KSHL 121306Z AUTO 14003KT 10SM OVC010 M08/M10 A3011 RMK AO1

1997/11/12 12:55
K7R8 121255Z 14030KT 10SM OVC005 22/21 A2974 SEAS4-6

1997/11/12 12:50
K9F2 121250Z 10008KT 3SM -RABR OVC007 22/21 A2977

1997/11/12 13:04
KCDS 121304Z AUTO 06010KT 4SM BR OVC004 02/02 A2999 RMK AO2 CIG
     002V007 TSNO

1997/11/12 13:04
KLHX 121304Z 13008KT 10SM SCT007 OVC034 M02/M03 A2986 RMK AO2

1997/11/12 13:01
KTVR 121301Z AUTO 09007KT 4SM BR BKN008 OVC040 10/09 A2995 RMK AO2
     TSNO

1997/11/12 13:04
KUTS 121304Z AUTO VRB05KT 4SM -RA BR OVC002 11/11 A2985 RMK AO2
     P0001 TSNO

1997/11/12 13:05
KLMT 121305Z AUTO 19004KT 9SM BR SCT005 OVC013 02/02 A2978 RMK AO2
     TSNO

1997/11/12 13:06
KGJT 121306Z 28006KT 10SM SCT004 OVC010 02/02 A2978 RMK AO2

1997/11/12 13:05
KMLF 121305Z AUTO 00000KT 2SM BR BKN001 BKN017 M02/M03 A2977 RMK
     AO2 TSNO

1997/11/12 13:06
KSLE 121306Z 29003KT 8SM FEW022 SCT028 OVC110 08/07 A2978 RMK
     AO2

1997/11/12 13:06
KSDB 121306Z AUTO 31008KT 10SM -RA BKN034 04/03 A2975 RMK AO2
     P0000 TSNO

1997/11/12 13:00
RJBB 20021KT 9999 -SHRA SCT015 BKN030 19/17 Q1016 NOSIG

1997/11/12 13:00
RJTT 30007KT 8000 BKN/// 15/10 Q1015

1997/11/12 13:00
RJOO VRB03KT 8000 -SHRA FEW030 BKN040 BKN100 18/14 Q1016

1997/11/12 13:00
ROAH 13004KT 9999 FEW013 24/21 Q1016

1997/11/12 13:00
RJFF 05006G16KT 020V120 7000 VCTS SHRA FEW008 BKN020 FEW020CB 18/16
     Q1014

1997/11/12 13:00
RJNN 06003KT 8000 FEW030 BKN120 14/05 Q1017

1997/11/12 13:00
RJCC 31011KT 9999 FEW015 SCT060 BKN/// 04/M05 Q1013

1997/11/12 13:00
RJNK 12004KT 9999 FEW030 BKN040 BKN080 16/10 Q1015

1997/11/12 13:07
KIKV 121307Z AUTO 05004KT 5SM BKN006 M04/M07 A3013 RMK AO1

1997/11/12 13:04
KLRJ 121304Z AUTO 00000KT M1/4SM OVC001 M10/M11 A3010 RMK AO1

1997/11/12 13:07
KMXO 121307Z AUTO 00000KT 10SM BKN033 M08/M11 A3014 RMK AO1

1997/11/12 13:06
KOLZ 121306Z AUTO 36004KT 10SM CLR M10/M13 RMK AO1

1997/11/12 13:07
KOXV 121307Z AUTO 00000KT 10SM OVC035 M02/M06 A3011 RMK AO1

1997/11/12 13:08
KCSQ 121308Z AUTO 02006KT 5SM OVC006 M04/M06 A3011 RMK AO1

1997/11/12 13:08
KEBS 121308Z AUTO 08003KT 10SM CLR M08/M11 A3012 RMK AO1

1997/11/12 13:08
KSLB 121308Z AUTO 00000KT 1/4SM OVC002 M11/M13 A3009 RMK AO1

1997/11/12 13:07
KTNU 121307Z AUTO 03004KT 10SM SCT037 SCT055 M06/M08 A3012 RMK
     AO1

1997/11/12 12:56
KSPS 121256Z 03015KT 3SM DZ BR OVC005 02/02 A3001 RMK AO2
     RAE52DZB52 CIG 004V010 PRESFR SLP165 WR// P0001 T00220017

1997/11/12 13:06
KROC 121306Z 27007KT 5SM -SN BR BKN007 BKN012 OVC021 00/M01 A2990
     RMK AO2 P0000

1997/11/12 13:08
KSJT 121308Z 03010KT 7SM BKN004 OVC009 05/04 A2992 RMK AO2 CIG
     003V007

1997/11/12 12:55
KAPG 121255Z 24004KT 7SM BKN060 OVC150 06/01 A3006

1997/11/12 12:55
PAGA 121255Z AUTO 08006KT 10SM OVC100 01/M05 A2936 RMK AO1
     T00111049

1997/11/12 12:55
PACZ 121255Z AUTO 15012KT 10SM SCT034 M02/M07 A2925 RMK AO1
     T10221066

1997/11/12 12:55
PALU 121255Z AUTO 20015KT 10SM SCT022 BKN026 OVC060 02/M01 A2926
     RMK AO1 T00171011

1997/11/12 12:55
PATC 121255Z AUTO 00000KT 1SM OVC006 M01/M02 A2922 RMK AO1
     T10111016

1997/11/12 12:55
PAIM 121255Z AUTO 00000KT 10SM SCT080 M04/M07 A2943 RMK AO1
     T10391072

1997/11/12 12:55
PAEH 121255Z AUTO 25006KT 10SM BKN043 02/M06 A2943 RMK AO1
     T00171061

1997/11/12 12:55
PASV 121255Z AUTO 10008KT 070V140 10SM BKN060 BKN065 OVC090 04/M04
     A2932 RMK AO1 4 T00391038

1997/11/12 12:45
KFLV 121245Z 16005KT 12SM BKN060 M01/M05 A3011

1997/11/12 13:08
KRDK 121308Z AUTO 35003KT 4SM OVC002 M04/M08 A3011 RMK AO1

1997/11/12 13:08
KSDA 121308Z AUTO 34003KT 4SM OVC006 M03/M07 A3014 RMK AO1

1997/11/12 13:09
KCBF 121309Z AUTO 00000KT M1/4SM OVC002 M06/M10 A3011 RMK AO1

1997/11/12 13:09
KFET 121309Z AUTO 00000KT M1/4SM OVC001 M08/M09 A3012 RMK AO1

1997/11/12 13:09
KHDE 121309Z AUTO 12006KT 10SM BKN017 OVC035 M03/M06 A3002 RMK
     AO1

1997/11/12 13:09
KLXN 121309Z AUTO 10003KT 10SM OVC022 M04/M07 A3001 RMK AO1

1997/11/12 13:09
KANW 121309Z AUTO 20007KT 10SM CLR M10/M13 A2997 RMK AO1

1997/11/12 13:10
KAUH 121310Z AUTO 10003KT M1/4SM OVC001 M08/M09 A3007 RMK AO1

1997/11/12 13:10
KMUT 121310Z AUTO 00000KT 10SM SCT046 OVC055 M07/M09 A3019 RMK
     AO1

1997/11/12 13:08
KONL 121308Z AUTO 18005KT 10SM CLR M12/M16 A3001 RMK AO1

1997/11/12 13:09
KORC 121309Z AUTO 18003KT M1/4SM OVC002 M10/M12 A3009 RMK AO1

1997/11/12 13:07
KDRO 121307Z AUTO 16003KT 6SM BR FEW005 BKN010 OVC047 01/00 A2980
     RMK AO2 FZRANO TSNO PNO

1997/11/12 13:08
KGAG 121308Z AUTO 11006KT 9SM OVC005 M02/M02 A3003 RMK AO2
     TSNO

1997/11/12 13:07
KITR 121307Z AUTO 17009KT 1 3/4SM BR OVC002 M03/M04 A2987 RMK AO2
     CIG 001V004 TSNO

1997/11/12 13:08
KAKO 121308Z 08009KT 5SM -SN BR BKN004 OVC024 M06/M06 A2984 RMK
     AO2 P0000

1997/11/12 13:09
KHUT 121309Z 14009KT 5SM -SN OVC006 M01/M02 A3008 RMK AO2 CIG
     003V011 P0000

1997/11/12 13:09
KLBB 121309Z 06007KT 1 1/2SM BR OVC002 02/02 A2994 RMK AO2 SFC VIS
     3 CIG 002V006

1997/11/12 13:07
KJLN 121307Z 06006KT 1 1/4SM -SN BR OVC004 01/00 A3012

1997/11/12 13:07
SOCA 121307Z 06007KT 8000 VCSH FEW016CB SCT020 28/25 Q1013 BECMG
9999 B2

1997/11/12 12:49
KARB 121249Z 27010KT 5SM -SHSN OVC018 A3004

1997/11/12 12:55
KUES 121255Z 29008KT 10SM BKN040 M07/ A3012

1997/11/12 12:50
KIFP 121250Z 02009G14KT 15SM BKN080 15/ A2966

1997/11/12 13:11
KOGA 121311Z AUTO 15010KT 10SM OVC008 M04/M10 A2992 RMK AO1

1997/11/12 13:11
KSRR 121311Z AUTO 00000KT M1/4SM OVC001 02/02 A2986 RMK AO2

1997/11/12 13:11
KBIE 121311Z AUTO 04003KT 2SM OVC002 M06/M06 A3011 RMK AO1

1997/11/12 13:08
PAKT 121308Z VRB03KT 5SM BR SCT003 03/03 A2985 RMK AO2 HARBOR WND
     27004KT $

1997/11/12 12:59
K7R3 121259Z 03004KT 1/2SM RA FG OVC002 14/14 A2981

1997/11/12 13:09
KGCK 121309Z AUTO 13009KT 4SM BR OVC001 M03/M03 A2997 RMK AO2 TSNO
     $

1997/11/12 13:08
PAKT 121308Z VRB03KT 5SM BR SCT003 03/03 A2985 RMK AO2 HARBOR WND
     27004KT $

1997/11/12 13:08
PAKT 121308Z VRB03KT 5SM BR SCT003 03/03 A2985 RMK AO2 HARBOR WND
     27004KT $

1997/11/12 13:10
PABE 121310Z 25013KT 7SM SCT004 BKN070 OVC100 M01/M01 A2934

1997/11/12 13:10
PABE 121310Z 25013KT 7SM SCT004 BKN070 OVC100 M01/M01 A2934

1997/11/12 13:11
KCYS 121311Z 21011KT 1/4SM FZFG VV001 M07/M07 A2974 RMK AO2 TWR
     VIS 1/2

1997/11/12 13:10
KPIT 121310Z 28011KT 8SM FEW023 SCT030 M02/M05 A3003 RMK AO2
     SNB01E10 P0000

1997/11/12 13:12
KHYR 121312Z AUTO VRB04KT 10SM SCT015 BKN024 M12/M14 A3007 RMK AO2
     TSNO

1997/11/12 13:11
KMAI 121311Z AUTO 08006KT 7SM -RA OVC028 12/11 A3003 RMK AO2
     RAB1256 P0000 TSNO $

1997/11/12 13:12
KCRW 121312Z VRB04KT 10SM BKN020 BKN038 OVC050 03/M01 A3010 RMK
     AO2

1997/11/12 13:09
KWMC 121309Z AUTO 10003KT 3/4SM BR FEW038 OVC080 M02/M03 A2979 RMK
     AO2 TSNO $

1997/11/12 13:13
KSGF 121313Z 06007KT 1 1/2SM -SN BR SCT005 BKN022 OVC075 M01/M01
     A3009 RMK AO2 SFC VIS 2 1/2 P0000

1997/11/12 13:00
HSSS 121300Z 33003KT CAVOK 35/13 Q1007 NOSIG

1997/11/12 13:00
HTDA 121300Z 15010KT 9999 SCT025 FEW027CB 32/27 1008

1997/11/12 13:00
SABE 121300Z 10023KT 9999 BKN013 OVC100 20/17 Q1006

1997/11/12 13:00
SACO 121300Z 18018KT 9999 -REDZ BKN013 OVC017 15/12 Q1011

1997/11/12 13:00
SADD 121300Z 09015KT 9999 BKN010 OVC045 20/17 Q1004

1997/11/12 13:00
SAEZ 121300Z 99999 BKN015 BKN100 20/16 Q1006

1997/11/12 13:00
SARF 121300Z 20014KT 9999 SCT030 SCT040 OVC100 24/20 Q1003

1997/11/12 13:00
SAWE 121300Z 27022 9999 FEW015 SCT040 11/05 Q986

1997/11/12 13:00
SAWG 121300Z 29020KT 9999 FEW050 SCT100 SCT200 14/01 Q0992

1997/11/12 13:00
SAZM 121300Z 11005KT 9999 BKN200 19/11 Q1011

1997/11/12 13:00
SAZS 121300Z 27016KT 9999 SCT033 10/01 Q10171

1997/11/12 13:00
SAOR 121300 200/14KT 8000MTS 50DZ LLOVIZNA SCT005 SCT006 11/11
     Q1016

1997/11/12 13:00
SAVC 121300Z 27022/32KT FEW100 BKN200 16/00 Q1004

1997/11/12 13:00
SAVT 121300Z 27020KT 9999 SKC 16/03 Q1010

1997/11/12 13:00
GCFV 03015KT 9999 SCT025 23/17 Q1020 NOSIG

1997/11/12 13:00
GCLP 02018KT 9000 DZ BKN020 21/19 Q1020 NOSIG

1997/11/12 13:00
GCRR 02020KT 9999 BKN030 24/13 Q1018 NOSIG

1997/11/12 13:00
GCTS 09018KT 9999 SCT030 24/14 Q1020 NOSIG

1997/11/12 13:00
GCXO 33008KT 300V020 9999 FEW008 SCT010 BKN012 17/14 Q1022
     NOSIG

1997/11/12 13:00
GMTA 121300Z 30010KT 9999 FEW016 SCT026 18/13 Q1017

1997/11/12 13:00
RKPC 30007KT 5000 BR SCT007 BKN012 OVC030 17/16 Q1015

1997/11/12 13:00
RKPK 04011KT 6000 FEW006 BKN012 OVC030 16/12 Q1014

1997/11/12 13:00
RKSS 36004KT 7000 SKC 09/09 Q1017 NOSIG

1997/11/12 13:00
VHHH 121300Z 13007KT CAVOK 25/17 Q1016 NOSIG

1997/11/12 13:00
VMMC 121300Z 13005KT 090V200 CAVOK 24/21 Q1016 NOSIG

1997/11/12 13:00
YBAS 1300Z 30010KT //// 33/09 Q1012 REMARKS RF00.0/000.4

1997/11/12 13:00
YBBN 1300Z 03002KT 9999 1CU020 4CS230 23/22 Q1013 REMARKS WBD 0.6
     RF00.0/000.0 INTER 1400/1500 3000 TS 5ST010 2CB040

1997/11/12 13:00
YBCS 1300Z 14006KT 9999 2CU028 4CI300 25/21 Q1016 REMARKS
     RF00.0////./

1997/11/12 13:00
YBTL 1300Z 04007KT 9999 2CU018 25/22 Q1016 REMARKS
     RF00.0/000.0

1997/11/12 13:00
YMML 1300Z 35001KT 9999 4SC040 10/08 Q1018 REMARKS RF00.0/000.0
     NOSIG

1997/11/12 13:00
YPAD 1300Z 14003KT CAVOK 14/07 Q1015 NOSIG

1997/11/12 13:00
YSSY 1300Z 15007KT 9999 1CU025 3CU035 6SC050 19/15 Q1018 REMARKS
     RF00.0/000.0 NOSIG

1997/11/12 13:00
OEDR 121300Z 30005KT 9999 BKN030 23/19 Q1013 NOSIG

1997/11/12 13:00
OEJN 121300Z 30010KT 9999 FEW040 31/14 Q1010 NOSIG

1997/11/12 13:00
OEMA 121300Z 15004KT CAVOK 27/05 Q1014 NOSIG

1997/11/12 13:00
OERK 121300Z 35008KT 9999 OVC030 20/15 Q1018 NOSIG

1997/11/12 13:00
OTBD 121300Z 04009KT 010V080 5000 TSRA FEW018 FEW030CB SCT080
     BKN100 22/20 Q1014 NOSIG

1997/11/12 13:00
OBBI 121300Z 31005KT 9999 FEW030 SCT080 BKN200 22/20 Q1014
     NOSIG

1997/11/12 13:00
OMAA 121300Z 36014KT 9999 FEW040 BKN100 28/18 Q1012 NOSIG

1997/11/12 13:00
OMAL 121300Z 34013KT 8000 FEW040TCU SCT140 29/20 Q1014

1997/11/12 13:00
OMFJ 121300Z 12001KT 9999 FEW030 SCT090 27/21 Q1014

1997/11/12 13:00
OMRK 121300Z 33006KT 9999 SCT040 BKN090 27/18 Q1013

1997/11/12 13:00
OMSJ 121300Z 00000 9999 FEW 040TCU SCT100 27/18 Q1013

1997/11/12 13:00
OBBI 121300Z 31005KT 9999 FEW030 SCT080 BKN200 22/20 Q1014
     NOSIG

1997/11/12 13:00
OMAD 121300Z 36012KT 9999 FEW040 BKN100 28/20 Q1013

1997/11/12 13:00
SBFI 121300Z 35009KT 5000 TS SCT025 FEW030CB OVC090 26/22 Q1005
     RERA

1997/11/12 13:00
SBGL 121300Z 01003KT 8000 SCT300 30/24 Q1007

1997/11/12 12:55
MDPC 121255Z 00000KT 9999 SCT020 OVC070 28/24 Q1014

1997/11/12 12:55
MDPP 121255Z 00000KT 9999 SCT090 BKN100 26/23 Q1015

1997/11/12 12:54
MDSD 121254Z 07006KT 9999 FEW018CB FEW018 27/25 Q1015

1997/11/12 12:53
MDST 121253Z 09005KT 9999 FEW017CB FEW018 SCT080 25/22 Q1016

1997/11/12 13:00
TAPA 121300Z 09013KT 9999 SCT023 30/23 Q1015

1997/11/12 12:50
TIST 121250Z 09010KT 40SM SCT020 A3004

1997/11/12 12:55
TJNR 121255Z 09006KT 9999 SCT020 SCT055 BKN090 28/24 A3003 RMK
     SLP169 WR// T02830244 .

1997/11/12 13:00
TFFF 121300Z 07009KT 030V120 9999 BKN023 28/25 Q1014 NOSIG

1997/11/12 13:00
TNCA 121300Z 09016KT 9999 SCT019 30/25 Q1014

1997/11/12 13:00
TNCC 121300Z 09010KT 060V120 9999 SCT020 30/25 Q1015

1997/11/12 13:00
TNCE 121300Z 07010KT 9999 SCT022 29/25 Q1018

1997/11/12 13:00
MRLB 00000KT 9999 SCT035 OVC250 25/24 Q1015

1997/11/12 13:00
MRLM 23003KT 9999 FEW025 BKN100 26/26 Q1012

1997/11/12 13:00
MROC 06005KT 8000 VCFG FEW003 BKN250 20/20 Q1017

1997/11/12 13:00
MRPV 00000KT 9999 FEW001 BKN250 19/19 Q1017

1997/11/12 13:00
MHRO 121300Z 07010KT 9999 FEW022 27/22

1997/11/12 13:00
MHSR 121300Z 00000KT 99999 FEW020 SCT100 BKN250 20/18

1997/11/12 13:00
MRCH 00000KT 9999 FEW030 SCT250 24/23

1997/11/12 13:00
RCKH 07001KT 6000 FEW012 24/22 Q1015 NOSIG

1997/11/12 13:00
RCTP 15001KT 6000 FEW015 19/19 Q1016 NOSIG

1997/11/12 13:00
ZBAA 121300Z 14001MPS CAVOK 07/00 Q1026 NOSIG

1997/11/12 13:00
ZBTJ 121300Z 00000MPS CAVOK 07/M03 Q1026

1997/11/12 13:00
ZBYN 121300Z 00000MPS 4000 -RA BR SCT013 OVC023 05/05 Q1024

1997/11/12 13:00
ZGGG 121300Z 00000MPS 4500 BR SKC 26/19 Q1017 NOSIG

1997/11/12 13:00
ZGNN 121300Z 00000MPS CAVOK 22/21 Q1017

1997/11/12 13:00
ZPPP 121300Z 23002 9999 SCT040 14/11 Q1023 NOSIG

1997/11/12 13:00
ZSAM 121300Z 07003MPS 7000 FEW160 22/21 Q1017

1997/11/12 13:00
ZSHC 121300Z 31003MPS 6000 BKN030 OVC050 18/17 Q1019

1997/11/12 13:00
ZSSS 121300Z 02005MPS 5000 BR BKN018 OVC060 18/16 Q1018

1997/11/12 13:00
ZUUU 121300Z 30002MPS 7000 BKN040 OVC060 11/08 Q1023

1997/11/12 13:00
ZWWW 121300Z 18001MPS 0800 R25/P1500N FU BKN050 01/M01 Q1024

1997/11/12 13:00
ZYTL 121300Z 36005MPS CAVOK 03/M08 Q1025

1997/11/12 12:48
CYGL 121248Z 27010KT 8SM -SN SCT008 BKN025 BKN220 RMK
     SF3SC2CI1

1997/11/12 12:48
CYQX 121248Z 00000KT 1SM -DZ BR BKN002 OVC006 RMK FG4SF2SF2

1997/11/12 13:00
CYAW 121300Z 27018KT 15SM FEW022 BKN028 02/M04 A2973 RMK CF1SC6
     MCNABS 3020G30 DA-1115FT SLP069

1997/11/12 13:00
CYBG 121300Z 30009KT 20SM FEW030 M06/M09 A2986 RMK SC2 SLP120

1997/11/12 13:00
CYCH 121300Z 28008KT 15SM FEW070 FEW150 SCT250 M01/M07 A2972 RMK
     SLP065

1997/11/12 13:00
CYEG 121300Z 30004KT 15SM SKC M03/M08 A2971 RMK SLP096

1997/11/12 13:00
CYFB 121300Z 01006KT 30SM FEW030 FEW240 M17/M23 A3002 RMK SC2CI1
     SLP170

1997/11/12 13:00
CYFC 121300Z 28008KT 15SM FEW035 SCT220 M01/M06 A2979 RMK SC2CI0
     SLP087

1997/11/12 13:00
CYGL 121300Z 27010KT 10SM -SN FEW008 BKN025 BKN220 M06/M07 A2963
     RMK SF2SC2CI1 SLP048

1997/11/12 13:00
CYHZ 121300Z 26012KT 15SM BKN022 OVC030 01/M03 A2970 RMK SC6SC2
     SLP063

1997/11/12 13:00
CYJT 121300Z 27013KT 12SM SCT008 OVC015 04/03 A2941 RMK SF3SC5
     OCNL R- SLP961

1997/11/12 13:00
CYMX 121300Z 04002KT 45SM FEW020 FEW075 BKN240 M06/M08 A2990 RMK
     CU1AC2CI3 SLP131

1997/11/12 13:00
CYOW 121300Z 06006KT 20SM FEW020 BKN040 OVC060 M04/M09 A2987 RMK
     SC1SC6SC2 SLP120

1997/11/12 13:00
CYQB 121300Z 27005KT 30SM FEW040 M03/M08 A2988 RMK SC2 SLP123

1997/11/12 13:00
CYQG 121300Z 26007KT 7SM -SN SCT020 BKN080 M01/M04 A3003 RMK
     SC4AC1 SLP175

1997/11/12 13:00
CYQM 121300Z 27012KT 15SM FEW070 BKN240 M02/M05 A2971 RMK AC2CI1
     SLP062

1997/11/12 13:00
CYQQ 121300Z 29002KT 1SM BR PRFG BKN003 02/02 A2984 RMK FG1SF6
     SLP105

1997/11/12 13:00
CYQX 121300Z 00000KT 1SM -DZ BR BKN002 OVC006 04/04 A2940 RMK
     FG5SF2SF1 VSBY SW 1/2 SLP962

1997/11/12 13:00
CYQY 121300Z 26015KT 15SM FEW016 BKN065 04/01 A2954 RMK SC2SC5
     SLP005

1997/11/12 13:00
CYTR 121300Z 22006KT 10SM FEW012 SCT040 BKN100 00/M01 A2985 RMK
     CF1SC3AC3 SLP113

1997/11/12 13:00
CYUL 121300Z 09002KT 12SM FEW030 SCT100 OVC230 M02/M07 A2991 RMK
     SC1AC2CI4 SLP131

1997/11/12 13:00
CYVR 121300Z 00000KT 1/8SM FG VV002 M00/M00 A2985 RMK FG8
     SLP108

1997/11/12 13:00
CYWG 121300Z 19019KT 15SM SCT090 BKN250 M07/M10 A2969 RMK AC2CI4
     SLP071

1997/11/12 13:00
CYXX 121300Z 02002KT 15SM SKC 00/M02 A2984 RMK SLP107

1997/11/12 13:00
CYYC 121300Z 31012KT 15SM SCT100 M01/M13 A2971 RMK AC1 SLP102

1997/11/12 13:00
CYYJ 121300Z 22003KT 1/4SM FG VV001 01/M00 A2984 RMK FG8
     SLP106

1997/11/12 13:00
CYYQ 121300Z 11007KT 15SM SCT100 M16/M17 A2989 RMK AC1 SLP139

1997/11/12 13:00
CYYR 121300Z 04012KT 1SM -SN BR OVC004 01/00 A2944 RMK SN3SF5 SNW
     WET SLP970

1997/11/12 13:00
CYYT 121300Z 24003KT 2SM -DZ BR BKN002 OVC005 08/07 A2941 RMK
     SF7SC1 SLP964

1997/11/12 13:00
CYYZ 121300Z 24009KT 12SM -SHSN FEW025 SCT065 BKN100 M01/M04 A2989
     RMK CU1SC4AC1 CU TR VSBY LWR NW SLP128

1997/11/12 13:00
CYZF 121300Z 11006KT 3SM OVC002 M03/M04 A2974 RMK ST8 CIG RGD
     SLP088

1997/11/12 13:00
CYZV 121300Z 32015KT 30SM FEW025 FEW090 BKN220 M03/M09 A2958 RMK
     SC1AC2CI2 WND GST 20 KTS SLP019

1997/11/12 13:00
CYZX 121300Z 29012KT 15SM BKN024 01/M05 A2976 RMK SC6 W.HILL
     2913G20 WND G17 SLP079

1997/11/12 13:00
EPGD 12005MPS 4000 BR SCT005 BKN009 07/06 Q1007

1997/11/12 13:00
EPKK 10007MPS CAVOK 16/07 Q1007 734.2

1997/11/12 13:00
EPPO 09004MPS 6000 BKN200 11/07 Q1001

1997/11/12 13:00
EPWA 12007MPS CAVOK 13/07 Q1008 NOSIG

1997/11/12 13:00
LDPL 121300Z 14008G22KT 9999 BKN040 OVC100 16/14 Q1004 NOSIG

1997/11/12 13:00
LDRI 121300Z 15014KT 9999 BKN020 18/12 Q1005

1997/11/12 13:00
LDSP 121300Z 13010KT 9999 FEW017 SCT033 BKN100 18/16 Q1009
     NOSIG

1997/11/12 13:00
LDZA 121300Z 00000KT 9999 FEW033 BKN060 14/10 Q1005 NOSIG

1997/11/12 13:00
LDZD 121300Z 12010KT 9999 -RA BKN030 OVC080 14/14 Q1008 NOSIG

1997/11/12 13:00
LJLJ VRB03KT 9999 SCT036 BKN050 OVC086 13/10 Q1004 NOSIG

1997/11/12 13:00
LJMB 19008KT 9999 FEW033 BKN050 15/10 Q1004

1997/11/12 13:00
LJPZ 15012G25KT 9999 -RA FEW033 BKN050 OVC080 18/12 Q1003

1997/11/12 13:00
LKMT 121300Z 18008G13MPS 9999 FEW030 BKN200 17/06 Q1003 NOSIG

1997/11/12 13:00
LKPR 121300Z 00000MPS CAVOK 11/07 Q0998 NOSIG RMK REG QNH 996

1997/11/12 13:00
LKTB 121300Z 16010G18MPS 140V200 9999 FEW036 16/10 Q1002 NOSIG

1997/11/12 13:00
LOAV 121300Z 16010G26KT 50KM FEW025CU BKN120AC Q1002 BKN

1997/11/12 13:00
LOIH 121300Z 00000KT 5000 +RA OVC003ST 06/05 Q998 OVC

1997/11/12 13:00
LOWZ 121300Z 12020G30KT 20KM -SHRA SCT060SC BKN100AC 13/03 Q0997
     BKN

1997/11/12 13:00
LQSA 121300Z 14008KT 9999 SCT040 BKN050 16/10 Q1012

1997/11/12 13:00
LZIB 16004MPS 130V190 9999 FEW026 SCT050 BKN200 17/09 Q1004
     NOSIG

1997/11/12 13:00
LZTT 17004MPS 140V210 9999 FEW040 BKN053 BKN200 12/07 Q1009
     NOSIG

1997/11/12 12:50
EFHK 10003KT 4000 -DZ BR SCT002 BKN003 BKN006 03/03 Q1016 TEMPO
     5000

1997/11/12 13:00
LPFR 121300Z 26011KT 9999 FEW020 BKN025 17/10 Q1018

1997/11/12 13:00
LPFU 121300Z 04010KT 9999 FEW020 22/14 Q1023 RS3509KT 060409KT
     240110KT

1997/11/12 13:00
LPPR 121300Z 20009KT 9999 SCT013 FEW025CB BKN250 13/11 Q1015

1997/11/12 13:00
LPPS 121300Z 02009KT 9999 SCT018 21/15 Q1023

1997/11/12 13:00
LFMD 121300Z 27008KT 210V330 9999 FEW026TCU 16/07 Q1000

1997/11/12 13:00
LFOB 121300Z 28004KT 9000 FEW033 BKN053 09/07 Q1001 BECMG 9999

1997/11/12 13:00
LFRM 121300Z 24004KT 210V280 9999 OVC010 08/07 Q1003

1997/11/12 12:50
LGAL 121250Z 21006KT 8000 SCT015 OVC025 17/14 Q1018 NOSIG

1997/11/12 13:00
WAAA 36003KT 4000 HZ FEW020 29/25 Q1010 NOSIG

1997/11/12 13:00
WIIH 121300 WIIH 25004KT 4000 HZ SCT020 29/24 Q1011 NOSIG

1997/11/12 13:00
WIII 121300 21010KT 5000 HZ FEW025 SCT130 27/24 Q1012 NSG

1997/11/12 13:00
WIMM 19005KT 5000 -RA FEW017CB BKN016 25-24 Q1011 NSG

1997/11/12 13:00
WRRR 12006KT 9999 FEW019 28/25 Q1013 NOSIG

1997/11/12 13:00
WRSJ 10005KT 9999 FEW020 29-24 Q1012 NOSIG

1997/11/12 13:00
FIMP 121300Z 15005KT 9999SCZ017 221 (17Q Z

1997/11/12 12:45
LIMG 121245Z 19012KT 9999 FEW030 17/07 Q0998

1997/11/12 12:50
LIBC 18013KT 6000 BKN006 BKN080 19/17 Q1013 RMK OVC

1997/11/12 12:50
LIBP 121250Z 00000KT 9999 FEW020 SCT030 BKN060 18/14 Q1004

1997/11/12 12:50
LICA 09014KT 9999 FEW030 SCT200 22/21 Q1010

1997/11/12 12:50
LICG 22013KT CAVOK 22/11 Q1008 RMK WT08 00000KT WT21 22012KT

1997/11/12 12:50
LICR 17017KT 140V200 9999 SCT020 SCT100 23/18 Q1010 RMK BKN QUK2
     QUL1 S WT15 17017G26KT WT33 15009KT

1997/11/12 12:50
LICT 17016KT 9999 SCT020 SCT200 24/19 Q1007 RMK SCT VIS MAR 14 KM
     WT13 18015KT BLU

1997/11/12 12:50
LIPY 121250Z 15011KT 9999 -RA FEW025CB SCT030 BKN050 15/13 Q1005
     RETS

1997/11/12 12:50
LIRZ 11006KT 9999 -RA SCT018CB BKN040 13/10 Q1005

1997/11/12 12:50
LIBA 07015KT 9999 SCT030 19/18 Q1007 RMK BKN BLU

1997/11/12 12:50
LIBG 16017KT 9999 BKN015 20/18 Q1012

1997/11/12 12:50
LIBN 17020KT 9999 SCT016 SCT200 21/17 Q1013 RMK BKN BLU

1997/11/12 12:50
LIBQ 14007KT CAVOK 13/04 Q1015 RMK SCT200 MON LIB VAL NIL

1997/11/12 12:50
LIBV 14028KT 8000 BKN006 BKN015 17/14 Q1013 RMK OVC YLO

1997/11/12 12:50
LICZ 10017KT 8000 SCT020 23/20 Q1010 RMK SCT BLU

1997/11/12 12:50
LIED 27010G20KT 9000 -RA SCT016 FEW018CB SCT020 16/12 Q1006 RMK
     OVC WIND THR 35 27014G26KT BLU

1997/11/12 12:50
LIMK 00000KT 4000 BR OVC015 06/06 Q0998 RMK OVC VAL FOSCHIA

1997/11/12 12:50
LIMN 06004KT 4500 -RA BR SCT005 BKN015 08/07 Q1000 RMK OVC GRN

1997/11/12 12:50
LIMS 35008KT 4000E BR BKN005 SCT010TCU 10/10 Q1000 RMK BKN YLO

1997/11/12 12:50
LIMT 20021KT 0000 -RA FG VV000 06/06 Q0998 RMK MON INVIS VAL
     INVIS

1997/11/12 12:50
LIMU 25030G40KT CAVOK 13/04 Q0999 RMK SCT080 QUK 4 QUL 1S VIS MAR
     30 KM

1997/11/12 12:50
LIMV 19019KT 9999 FEW013CB BKN015TCU 09/08 Q0998 RMK BKN MON LIB
     VAL NIL

1997/11/12 12:50
LIMY 00000KT CAVOK 08/02 Q0999 RMK VAL NIL

1997/11/12 12:50
LIPA 17008KT 5000 -RA BR SCT010 BKN030 14/14 Q1003 RMK OVC WHT

1997/11/12 12:50
LIPC 16008KT 9999 FEW025 SCT080 BKN200 17/14 Q1002 RMK BKN BLU

1997/11/12 12:50
LIPF 13005KT 9999 BKN017 17/13 Q1001 RMK BKN

1997/11/12 12:50
LIPI 16007KT 5000 -RA BR SCT025 BKN035 14/13 Q1004 RMK OVC WHT

1997/11/12 12:50
LIPL 10007KT 7000 -RA SCT024 SCT033 13/12 Q1000 RMK OVC WHT

1997/11/12 12:50
LIPS 06003KT 3500 -RA BR SCT010 BKN025 13/12 Q1002 RMK OVC YLO

1997/11/12 12:50
LIPT 00000KT 3500 -RA BR BKN008 SCT010 12/11 Q1002 RMK OVC YLO

1997/11/12 12:50
LIQO 21018G29KT 9999 BKN002TCU FEW003CB BKN070 13/10 Q1003 RMK OVC
     VAL NIL DIM

1997/11/12 12:50
LIQW 16005KT 9000 -RA SCT024 SCT026 13/13 Q1002 RMK OVC BLU

1997/11/12 12:50
LIRE 18017KT 9999 RA SCT009 FEW013CB SCT070 20/17 Q1005 RMK BKN
     WIND THR31 17015KT BLU

1997/11/12 12:50
LIRG 23015KT 9999 SCT020CB SCT025TCU 19/16 Q1005 RMK BKN MON NE
     CIME INC WHT

1997/11/12 12:50
LIRH 16010KT 8000 -RA BKN020 FEW025CB 19/14 Q1006 RMK OVC MON CIME
     INC NC BLU

1997/11/12 12:50
LIRK 24043KT 0000 FG VV/// 05/03 Q1008 RMK MON NE INVIS NC VAL
     INVIS NC

1997/11/12 12:50
LIRL 16012KT 9999 SCT020 BKN070 20/19 Q1006 RMK OVC MON LIB NC
     BLU

1997/11/12 12:50
LIRS 20013G23KT 9999 SCT018 FEW020CB BKN070 17/13 Q1003 RMK BKN
     BLU

1997/11/12 12:50
LIRT 22011G21KT 9999 SCT015 13/07 Q//// RMK SCT MON LIB VAL
     NIL

1997/11/12 12:50
LIRU 121250Z 20014KT 9999 SCT022TCU SCT200 20/18 Q1005 RMK BKN

1997/11/12 12:50
LIRV 23013KT 4000 -TSRA BR BKN017 FEW030CB 14/13 Q1004 RMK OVC MON
     SE INVIS NC GRN

1997/11/12 12:50
LIRZ 11006KT 9999 -RA SCT018CB BKN040 13/10 Q1005

1997/11/12 12:50
LIVC 22029KT 0000 RA FG VV000 00/00 Q1001 RMK MON INVIS VAL
     INVIS

1997/11/12 12:50
LIVD 07002KT 3000 RA OVC015 03/M00 Q1002 RMK OVC

1997/11/12 12:50
LIVE 18012KT 3000 -SN OVC010 00/M00 Q0998 RMK OVC

1997/11/12 12:50
LIVF 19005G25KT 9999 FEW020CB SCT025TCU 13/12 Q1001 RMK BKN MON
     INVIS VAL IMVIS

1997/11/12 12:50
LIVM 17010KT 9999 SCT090 15/15 Q1003 RMK BKN QUK3 QUL1 SE VIS MAR
     18KM

1997/11/12 12:50
LIVO 08005KT 9999 -RA OVC030 09/07 Q1005 RMK OVC

1997/11/12 12:50
LIVT 11006KT 9999 OVC025 17/12 Q1003 RMK OVC QUK2 QUL0 VIS MAR 15
     KM

1997/11/12 12:55
RODN 121255Z 13006KT 9999 SCT020 23/21 A3005 RMK SLP173 8/100
     9/300

1997/11/12 13:00
RJNK 12004KT 9999 FEW030 BKN040 BKN080 16/10 Q1015

1997/11/12 13:00
RJOI 121300Z 21010KT 9999 -SHRA FEW015 SCT025 OVC040 19/15 A2997
     RMK SLP151 P0003 T01940146

1997/11/12 12:55
RJTY 121255Z 23003KT 4800 BR BKN250 11/08 A3002 RMK SLP167 8/008
     9/005

1997/11/12 12:45
MMAA 121245Z 03003KT 6SM SCT020 BKN100 OVC300 24/22 A2986 RMK
     47299 ARCOIRIS W

1997/11/12 12:45
MMCZ 121245Z 00000KT 6SM SCT015 SCT100 BKN200 27/23 A2991 RMK
     13691

1997/11/12 12:45
MMMY 121245Z 35012KT 6SM BKN010 11/11 A2986 RMK 50009

1997/11/12 12:55
MMCL 121255Z 09010KT 6SM BKN010 OVC030 22/21 A2973 RMK 8///9 026
     977 036 LTC/DRPS OCNLS

1997/11/12 12:55
MMML 121255Z 00000KT P6SM SCT100 BKN250 14/11 A2965 RMK 07260

1997/11/12 13:00
MMMM 121300Z 00000KT P6SM SCT020 BKN040 OVC090 12/09 A3015 RMK
     57/99

1997/11/12 12:48
EHEH 1248Z 32003KT 3500 R22/2500D BR FEW005 BKN220 08/08 Q1000 YLO
     YLO BECMG AMB

1997/11/12 12:50
ENFR 1250Z 14018KT 9999 BKN015 09/07 Q0996;

1997/11/12 12:50
ENSK 1250Z 06008KT CAVOK 02/M03 Q1006;

1997/11/12 12:55
PGUA 121255Z 09006KT 7SM SCT015 BKN250 26/22 A2999 RMK SLP142
     8/108 9/401 WR//

1997/11/12 13:00
NCRG 121300Z 15002KT 10KM -RA BKN016 OVC080 23/21 Q1019

1997/11/12 13:00
NFTF 121300Z 11007KT 50KM FEW018 22/19 Q1020 NOSIG

1997/11/12 13:00
NSTU 1256 09014KT 7SM SHRA BKN020 OVC040 28/25 A2993 RMK SLP139
     T02770251

1997/11/12 12:56
NSTU 121256Z COR 09014KT 7SM SHRA BKN020 OVC040 28/25 A2993 RMK PK
     WND 0927/53 SLP139 T02770251

1997/11/12 13:00
NZAA 121300Z 31019KT 10KM -SHRA BKN021 BKN070 17/15 Q1013 RERA
     TEMPO 7000 RA RM

1997/11/12 13:00
NZCH 121300Z 06004KT 280V130 40KM FEW030 08/06 Q0995 NOSIG

1997/11/12 13:00
NZWN 121300Z 33021G35KT 290V010 20KM FEW012 BKN030 15/13 Q1001
     TEMPO BKN012 RMK KAUKAU 32041KT

1997/11/12 13:00
RPVM 36002 9999 FEW020 FEW100 28/24 1012 29.87

1997/11/12 13:00
SPCL 121300Z 33014KMH CAVOK 27/24 Q1010

1997/11/12 13:00
SPHI 121300Z 16014KMH 9999 SCT020 SCT100 24/19 Q1016

1997/11/12 13:00
SPJL 121300Z 24015KMH CAVOK 09/M01 Q1036

1997/11/12 13:00
UHMA 121300Z 34006MPS 2500 - SN OVC M16/M16 Q0993 NOSIG RMK QFE
     740 SC 055

1997/11/12 13:00
UHSS 121300Z 33007G12MPS 9999 BKN025CB 02/M02 Q1006 NOSIG

1997/11/12 13:00
ULLI 121300Z 31002MPS 6000 OVC008 01/01 Q1017 NOSIG RMK
     88290052

1997/11/12 13:00
UUEE 121300Z 11002MPS 1800 BR DZ OVC005 07/06 Q1016 TEMPO 0700 FG
     DZ RMK 07290195 57//////

1997/11/12 13:00
UUWW 121300Z 14003MPS 2200 RA BR BKN003CB 07/07 Q1016 TEMPO 0900
     FG RMK 24290045

1997/11/12 13:00
SEGU 121300Z 31002KT 9999 SCT020 BKN100 25/23 Q1014 NOSIG

1997/11/12 13:00
SEQU 121300Z 00000KT 1000N 3000S -RA BR SCT007 BKN020 OVC100 11/11
     Q1030 TEMPO 4000

1997/11/12 13:00
SKBO 121300Z VRB03KT 3500 BR SCT010TCU 14/13 A3037 BECMG AT1330
     7000 HZ

1997/11/12 13:00
SKCL 121300Z 00000KT 3000 SCT010 BKN090 20/20 A3005

1997/11/12 13:00
SKSP 1213000Z VRB03KT 9999 FEW023 28/26 A2992

1997/11/12 13:00
SCAR 121300Z 24002KT 9999 OVC030 22/16 Q1019 NOSIG

1997/11/12 13:00
SCCI 121300Z 30023KT 9999 SCT020 BKN200 11/06 Q0988 NOSIG

1997/11/12 13:00
SCEL 121300Z 02002KT 9999 BKN050 SCT100 12/07 Q1023 NOSIG

1997/11/12 13:00
SCFA 121300Z 22005KT 9999 BKN027 18/14 Q1021 NOSIG

1997/11/12 13:00
SEMT 121300Z 08003KT 9999 BKN016 OVC083 25/23 Q1014

1997/11/12 13:00
OEAB 121300Z VRB02KT 9999 SCT025 FEW030CB BKN100 17/11 Q1023

1997/11/12 13:00
OEAH 121300Z 00000KT 9999 BKN030 22/19 Q1014

1997/11/12 12:50
OEBH 121250Z 05010KT 9999 TS FEW028CB BKN030 SCT100 27/10
     Q1016

1997/11/12 12:50
OEGN 121250Z 22004KT 9999 FEW030 FEW035CB BKN100 27/23 Q1010

1997/11/12 13:00
OEGS 121300Z 36008KT CAVOK 20/06 Q1017

1997/11/12 13:00
OEHL 121300Z 36010KT 9999 FEW040 18/03 Q1020

1997/11/12 13:00
OEKK 121300Z 29008KT CAVOK 21/09 Q1017

1997/11/12 13:00
OEKM 121300Z 19002KT 9999 SCT022 FEW025CB BKN090 17/09 Q1023
     NOSIG

1997/11/12 13:00
OEMH 36002KT CAVOK 27/19 Q1014

1997/11/12 13:00
OEMK 121300Z 24004KT 9999 FEW040 36/17 Q1008

1997/11/12 13:00
OENG 121300Z 28004KT 9999 RERA BKN030 BKN080 24/12 Q1018

1997/11/12 12:50
OEPA 121250Z 32009KT CAVOK 21/11 Q1016

1997/11/12 13:00
OERF 121300Z 33010KT CAVOK 20/12 Q1016

1997/11/12 13:00
OERR 121300Z 31013KT CAVOK 21/06 Q1018

1997/11/12 13:00
OERY 121300Z 36008KT 9999 FEW015 BKN030 20/18 Q1018 NOSIG

1997/11/12 13:00
OESH 121300Z 36005KT 9999 SCT035 BKN090 33/15 Q1012

1997/11/12 13:00
OESK 121300Z 32004KT CAVOK 22/02 Q1019

1997/11/12 13:00
OETB 121300Z 06006KT CAVOK 22/03 Q1019 NOSIG

1997/11/12 13:00
OETF 121300Z 34004KT 9999 SCT020 FEW025CB 23/10 Q1019 TEMPO TS

1997/11/12 13:00
OETR 121300Z 33008KT CAVOK 21/00 Q1019

1997/11/12 13:00
OEWD 121300Z 15004KT 9999 FEW030 SCT080 33/10 Q1012

1997/11/12 13:00
OEWJ 121300Z 29018KT CAVOK 30/08 Q1014

1997/11/12 13:00
OEYN 121300Z 25014KT CAVOK 32/12 Q1011 NOSIG

1997/11/12 12:50
ESGG 13008KT 9000 BR FEW009 BKN060 08/06 Q1004 2159//95

1997/11/12 12:50
ESMS 10008KT 0300 R17/0750 R35/0500N FG VV002 07/07 Q1004

1997/11/12 12:50
ESSA 15010KT 8000 BR FEW005 BKN006 07/06 Q1010 NOSIG 88190095

1997/11/12 13:00
LEAL 29024KT 9999 FEW050 16/06 Q1010 NOSIG

1997/11/12 13:00
LEAM 32023KT 9999 FEW025 20/04 Q1011

1997/11/12 13:00
LEAS 28010KT 9999 BKN030 BKN08

