1997/10/27 22:45
KFGN 272245Z AUTO 18028KT 10SM SCT080 BKN100 03/M04 A2958 RMK AO2
     PWINO

1997/10/27 22:47
PAUM 272242 08004KT 10SM OVC006 M15/M18 A3003 RMK NOSPECI

1997/10/27 22:45
KHLG 272245Z 31015KT 10SM OVC021 02/M01 A2991

1997/10/27 22:45
KOWB 272245Z 31007KT 10SM OVC030 06/ A3015

1997/10/27 22:45
KBBW 272245Z 18007KT 10SM FEW300 8/1 A2984 RMK T00830013

1997/10/27 22:45
KODX 272245Z 18005KT 15SM SCT200 04/M02 A2985 RMK T00391015
     DAYTIME HI 5.0 24HR LO M12.8

1997/10/27 22:45
KMLP 272245Z AUTO VRB04KT 1 1/4SM BR BKN003 BKN009 OVC025 M01/M01
     A2997 RMK AO2 TSNO

1997/10/27 22:46
KCAR 272246Z 07008KT 2 1/2SM -SN BR OVC016 01/00 A2965 RMK AO2
     UPE29RAB04E13SNB29 P0001

1997/10/27 22:50
MNMG 272247 07012KT 9000 +TS FEW020CB BKN022 CB NE/E/SE

1997/10/27 22:50
MNMG 272247 07012KT 9000 +TS FEW020CB BKN022 CB NE/E/SE

1997/10/27 22:45
MMTM 272245Z 04012KT P6SM BKN100 BKN200 24/13 A3007 RMK 07890

1997/10/27 22:45
KUKI 272245Z VRB03KT 30SM SKC 23/M03 A2991 RMK SLP126

1997/10/27 22:50
KWJF 272250Z 07005KT 50SM BKN200 20/M08 A2993 RMK T02011076

1997/10/27 22:48
KTRK 272248Z 27003KT 30SM SKC 15/M09 A3002 RMK NOSPECI
     T01501094

1997/10/27 22:48
KCZZ 272248Z AUTO 23011KT 19/04 A2990 RMK AO2 SLP107 T01890044
     PWINO TSNO

1997/10/27 22:48
KJDN 272248Z AUTO 32016KT 14/M04 A2973 RMK AO2 SLP079 T01391039
     PWINO TSNO

1997/10/27 22:48
KP38 272248Z AUTO 20007KT 18/M10 A2995 RMK AO2 SLP131 T01831100
     PWINO TSNO

1997/10/27 22:47
KGFL 272247Z 27003KT 10SM SCT0440 OVC060 08/08 A2951 RMK SLP996
     T0820081

1997/10/27 22:50
KMFR 272250Z 34003KT 30SM FEW070 FEW180 20/02 A2997 RMK SLP146
     T02020020

1997/10/27 22:50
PACD 272250Z 09018G25KT 7SM SCT033 BKN042 OVC070 06/02 A2919 RMK
     PK WND 09029/22 SLP889 T00630024

1997/10/28 05:54
KCOS 280554Z 01009KT 10SM CLR 00/M07 A2996 RMK AO2 SLP136
     T00001067 10078 21006 58006