KCYS 280556Z 28007KT 10SM CLR 06/M04 A2994 RMK AO2 SLP115