1997/11/12 12:47
KUCA 121247Z 11008KT 30SM BKN060 M02/M04 A2991 RMK SLP139

1997/11/12 12:48
KCZZ 121248Z AUTO 02003KT 07/06 A2967 RMK AO2 SLP035 T00670056
     PWINO TSNO $

1997/11/12 12:48
KJDN 121248Z AUTO 23009KT M04/M10 A2970 RMK AO2 SLP099 T10391100
     PWINO FZRANO TSNO $